{
	"type": "Feature",
	"properties": {
		"id": "Kendall_IL_1830",
		"attribution": {
			"url": "https://geodata.kendallcountyil.gov/",
			"text": "Kendall County GIS",
			"required": true
		},
		"name": "Kendall County 1830 BLM Survey Map",
		"icon": "https://discourse.kendallcountyil.gov/uploads/default/optimized/1X/212467d6d2e5387df962b45890a757609740e7d8_2_300x300.png",
		"url": "https://tiles.kendallcountyil.gov/1871/{zoom}/{x}/{y}.jpg",
		"max_zoom": 19,
		"license_url": "https://geodata.kendallcountyil.gov/catalog/raster/1830-blm.html",
		"country_code": "US",
		"type": "tms",
		"start_date": "1830",
		"end_date": "1830",
		"description": "This basemap represents one of the oldest “official” maps of Kendall County. When the Federal government first surveyed the County in the 1830s, surveyors kept meticulous records of the landscape. These records were later used in 1859 to create a cartographic representation of the locations surveyed. Though the county was already settled in many places at the time of the survey work (Yorkville and Oswego are already established), the map gives a picture of what an early, less-developed Kendall County might have looked like, with much of the original forest and prairie areas still intact",
		"category": "historicmap",
		"valid-georeference": true,
		"privacy_policy_url": false
	},
	"geometry": {
		"type": "Polygon",
		"coordinates": [
			[
				[
					-88.6072476,
					41.7234519
				],
				[
					-88.5994759,
					41.4547821
				],
				[
					-88.248026,
					41.4593122
				],
				[
					-88.2506165,
					41.5886109
				],
				[
					-88.2540706,
					41.7273188
				],
				[
					-88.6072476,
					41.7234519
				]
			]
		]
	}
}