{
    "type": "Feature",
    "properties": {
        "name": "FÖMI orthophoto 2016 (WEBP)",
        "id": "FOMI_2016",
        "country_code": "HU",
        "attribution": {
            "url": "https://lechnerkozpont.hu/oldal/ortofotok-es-legifelvetelek",
            "text": "Lechner Tudásközpont",
            "required": true
        },
        "start_date": "2016-05-22",
        "end_date": "2016-08-05",
        "url": "https://orto1.tile.openstreetmap.hu/fomi_2016/{zoom}/{x}/{y}.webp",
        "min_zoom": 5,
        "max_zoom": 18,
        "license_url": "https://wiki.openstreetmap.org/wiki/Hungary/Ortofot%C3%B3k#F%C3%96MI_ortofot%C3%B3k",
        "privacy_policy_url": "https://lechnerkozpont.hu/oldal/adatvedelem",
        "type": "tms",
        "category": "photo",
        "description": "Goverment-based leaf-covered orthophotos with 40 cm/pixel resolution for central Hungary. This layer should be used as an alignment base in lack of a more accurate reference. WEBP format images, JOSM needs a webp plugin for them.",
        "i18n": true
    },
    "geometry": {
        "type": "Polygon",
        "coordinates": [
            [
                [
                    18.76031,
                    47.89272
                ],
                [
                    18.76204,
                    47.87136
                ],
                [
                    18.76865,
                    47.86733
                ],
                [
                    18.79196,
                    47.86411
                ],
                [
                    18.79481,
                    47.8574
                ],
                [
                    18.81278,
                    47.85459
                ],
                [
                    18.81872,
                    47.85084
                ],
                [
                    18.82716,
                    47.83365
                ],
                [
                    18.83887,
                    47.82811
                ],
                [
                    18.85516,
                    47.82633
                ],
                [
                    18.84736,
                    47.81668
                ],
                [
                    18.7881,
                    47.82281
                ],
                [
                    18.74253,
                    47.81477
                ],
                [
                    18.73378,
                    47.80972
                ],
                [
                    18.72826,
                    47.79311
                ],
                [
                    18.70508,
                    47.77766
                ],
                [
                    18.66853,
                    47.76306
                ],
                [
                    18.61974,
                    47.75785
                ],
                [
                    18.5672,
                    47.76666
                ],
                [
                    18.54035,
                    47.76518
                ],
                [
                    18.51809,
                    47.75681
                ],
                [
                    18.49155,
                    47.75319
                ],
                [
                    18.46444,
                    47.76451
                ],
                [
                    18.44776,
                    47.76541
                ],
                [
                    18.43238,
                    47.75716
                ],
                [
                    18.38529,
                    47.74996
                ],
                [
                    18.37206,
                    47.74509
                ],
                [
                    18.33565,
                    47.73817
                ],
                [
                    18.2901,
                    47.73172
                ],
                [
                    18.25312,
                    47.73998
                ],
                [
                    18.21584,
                    47.74273
                ],
                [
                    18.19428,
                    47.74044
                ],
                [
                    18.16824,
                    47.74257
                ],
                [
                    18.14774,
                    47.7479
                ],
                [
                    18.08464,
                    47.75708
                ],
                [
                    18.03767,
                    47.75717
                ],
                [
                    18.00585,
                    47.74794
                ],
                [
                    17.99368,
                    47.74921
                ],
                [
                    17.96894,
                    47.75725
                ],
                [
                    17.93868,
                    47.74437
                ],
                [
                    17.91789,
                    47.74467
                ],
                [
                    17.89819,
                    47.73988
                ],
                [
                    17.8601,
                    47.74581
                ],
                [
                    17.82131,
                    47.73838
                ],
                [
                    17.83035,
                    47.35401
                ],
                [
                    17.90972,
                    47.35478
                ],
                [
                    17.91076,
                    47.319
                ],
                [
                    17.98988,
                    47.31968
                ],
                [
                    17.99093,
                    47.24743
                ],
                [
                    18.07013,
                    47.24807
                ],
                [
                    18.07138,
                    47.21239
                ],
                [
                    18.15014,
                    47.21289
                ],
                [
                    18.15815,
                    46.74525
                ],
                [
                    18.39406,
                    46.74723
                ],
                [
                    18.39434,
                    46.71087
                ],
                [
                    18.55081,
                    46.71147
                ],
                [
                    18.55155,
                    46.63952
                ],
                [
                    18.7865,
                    46.64039
                ],
                [
                    18.78756,
                    46.56867
                ],
                [
                    18.86516,
                    46.56846
                ],
                [
                    18.86713,
                    46.27956
                ],
                [
                    18.78866,
                    46.27979
                ],
                [
                    18.78949,
                    46.13587
                ],
                [
                    18.71187,
                    46.13567
                ],
                [
                    18.71208,
                    46.06386
                ],
                [
                    18.63419,
                    46.06372
                ],
                [
                    18.63483,
                    46.02834
                ],
                [
                    18.71198,
                    46.02828
                ],
                [
                    18.7129,
                    45.90915
                ],
                [
                    18.75324,
                    45.89647
                ],
                [
                    18.76016,
                    45.88776
                ],
                [
                    18.79129,
                    45.87737
                ],
                [
                    18.81065,
                    45.87877
                ],
                [
                    18.81466,
                    45.89431
                ],
                [
                    18.80822,
                    45.90301
                ],
                [
                    18.8217,
                    45.91353
                ],
                [
                    18.82698,
                    45.90414
                ],
                [
                    18.86922,
                    45.91084
                ],
                [
                    18.86556,
                    45.91868
                ],
                [
                    18.87952,
                    45.91596
                ],
                [
                    18.90632,
                    45.93468
                ],
                [
                    18.96208,
                    45.92529
                ],
                [
                    18.98755,
                    45.93154
                ],
                [
                    18.99424,
                    45.92336
                ],
                [
                    19.00999,
                    45.92271
                ],
                [
                    18.9987,
                    45.94618
                ],
                [
                    19.00641,
                    45.95832
                ],
                [
                    19.01898,
                    45.96261
                ],
                [
                    19.05488,
                    45.96495
                ],
                [
                    19.08053,
                    45.96306
                ],
                [
                    19.06651,
                    45.99992
                ],
                [
                    19.10489,
                    46.03926
                ],
                [
                    19.13324,
                    46.03659
                ],
                [
                    19.14641,
                    46.00794
                ],
                [
                    19.14719,
                    45.99559
                ],
                [
                    19.20622,
                    45.99209
                ],
                [
                    19.20089,
                    45.99778
                ],
                [
                    19.2323,
                    45.9988
                ],
                [
                    19.23625,
                    45.9945
                ],
                [
                    19.28501,
                    45.99621
                ],
                [
                    19.29646,
                    45.98703
                ],
                [
                    19.30373,
                    45.99147
                ],
                [
                    19.28265,
                    46.01435
                ],
                [
                    19.36401,
                    46.05146
                ],
                [
                    19.37992,
                    46.03508
                ],
                [
                    19.39536,
                    46.04146
                ],
                [
                    19.41589,
                    46.04526
                ],
                [
                    19.42363,
                    46.05461
                ],
                [
                    19.44019,
                    46.06671
                ],
                [
                    19.46729,
                    46.08137
                ],
                [
                    19.46537,
                    46.09491
                ],
                [
                    19.50936,
                    46.11025
                ],
                [
                    19.52821,
                    46.12093
                ],
                [
                    19.50869,
                    46.13394
                ],
                [
                    19.50358,
                    46.14208
                ],
                [
                    19.51688,
                    46.15106
                ],
                [
                    19.52681,
                    46.14696
                ],
                [
                    19.56151,
                    46.1662
                ],
                [
                    19.56775,
                    46.17815
                ],
                [
                    19.63218,
                    46.1686
                ],
                [
                    19.66165,
                    46.18959
                ],
                [
                    19.68222,
                    46.17944
                ],
                [
                    19.6969,
                    46.18723
                ],
                [
                    19.71677,
                    46.17581
                ],
                [
                    19.72034,
                    46.16992
                ],
                [
                    19.72228,
                    46.31485
                ],
                [
                    19.80044,
                    46.31406
                ],
                [
                    19.80088,
                    46.35018
                ],
                [
                    19.95644,
                    46.34909
                ],
                [
                    19.96002,
                    46.52927
                ],
                [
                    20.03781,
                    46.52827
                ],
                [
                    20.04066,
                    46.70857
                ],
                [
                    20.19696,
                    46.70729
                ],
                [
                    20.19816,
                    46.74325
                ],
                [
                    20.43387,
                    46.74024
                ],
                [
                    20.43499,
                    46.77627
                ],
                [
                    20.5134,
                    46.77517
                ],
                [
                    20.51655,
                    46.88312
                ],
                [
                    20.75273,
                    46.87977
                ],
                [
                    20.75702,
                    47.02393
                ],
                [
                    20.91505,
                    47.02128
                ],
                [
                    20.92056,
                    47.16488
                ],
                [
                    20.99896,
                    47.16396
                ],
                [
                    21.00203,
                    47.23564
                ],
                [
                    21.08146,
                    47.23409
                ],
                [
                    21.09528,
                    47.59371
                ],
                [
                    21.01556,
                    47.59505
                ],
                [
                    21.01707,
                    47.63111
                ],
                [
                    20.93734,
                    47.63241
                ],
                [
                    20.93961,
                    47.70421
                ],
                [
                    20.61983,
                    47.70899
                ],
                [
                    20.62306,
                    47.81692
                ],
                [
                    20.54235,
                    47.81759
                ],
                [
                    20.55378,
                    48.17801
                ],
                [
                    20.07593,
                    48.18278
                ],
                [
                    20.06076,
                    48.17891
                ],
                [
                    20.05141,
                    48.16818
                ],
                [
                    20.04477,
                    48.16795
                ],
                [
                    20.04387,
                    48.17416
                ],
                [
                    20.02928,
                    48.17826
                ],
                [
                    19.99088,
                    48.16898
                ],
                [
                    19.98807,
                    48.16272
                ],
                [
                    19.97391,
                    48.16658
                ],
                [
                    19.9631,
                    48.1526
                ],
                [
                    19.95098,
                    48.15218
                ],
                [
                    19.94758,
                    48.14574
                ],
                [
                    19.93624,
                    48.13765
                ],
                [
                    19.93658,
                    48.13301
                ],
                [
                    19.92911,
                    48.13063
                ],
                [
                    19.91023,
                    48.13037
                ],
                [
                    19.89907,
                    48.12537
                ],
                [
                    19.90402,
                    48.13703
                ],
                [
                    19.91561,
                    48.14678
                ],
                [
                    19.90662,
                    48.15158
                ],
                [
                    19.89928,
                    48.16699
                ],
                [
                    19.88332,
                    48.1652
                ],
                [
                    19.88073,
                    48.17063
                ],
                [
                    19.86796,
                    48.17224
                ],
                [
                    19.86126,
                    48.17055
                ],
                [
                    19.85714,
                    48.17138
                ],
                [
                    19.85946,
                    48.17542
                ],
                [
                    19.85637,
                    48.17916
                ],
                [
                    19.8511,
                    48.17795
                ],
                [
                    19.84916,
                    48.17258
                ],
                [
                    19.84285,
                    48.16795
                ],
                [
                    19.84457,
                    48.1632
                ],
                [
                    19.83348,
                    48.16311
                ],
                [
                    19.83092,
                    48.1678
                ],
                [
                    19.82307,
                    48.16989
                ],
                [
                    19.81393,
                    48.16826
                ],
                [
                    19.80556,
                    48.16208
                ],
                [
                    19.80582,
                    48.15549
                ],
                [
                    19.7951,
                    48.15411
                ],
                [
                    19.7833,
                    48.16501
                ],
                [
                    19.79067,
                    48.16752
                ],
                [
                    19.78985,
                    48.17295
                ],
                [
                    19.80582,
                    48.18274
                ],
                [
                    19.8065,
                    48.18666
                ],
                [
                    19.79998,
                    48.19562
                ],
                [
                    19.78835,
                    48.1935
                ],
                [
                    19.78402,
                    48.20085
                ],
                [
                    19.76478,
                    48.20784
                ],
                [
                    19.76281,
                    48.21369
                ],
                [
                    19.74657,
                    48.21745
                ],
                [
                    19.73462,
                    48.21646
                ],
                [
                    19.72184,
                    48.20301
                ],
                [
                    19.70773,
                    48.20214
                ],
                [
                    19.69435,
                    48.20535
                ],
                [
                    19.67604,
                    48.21993
                ],
                [
                    19.67164,
                    48.23839
                ],
                [
                    19.66368,
                    48.243
                ],
                [
                    19.65085,
                    48.23842
                ],
                [
                    19.63106,
                    48.25067
                ],
                [
                    19.60665,
                    48.23856
                ],
                [
                    19.5774,
                    48.21666
                ],
                [
                    19.56784,
                    48.21607
                ],
                [
                    19.54624,
                    48.2061
                ],
                [
                    19.54435,
                    48.2097
                ],
                [
                    19.53974,
                    48.20981
                ],
                [
                    19.53503,
                    48.20673
                ],
                [
                    19.52588,
                    48.20461
                ],
                [
                    19.52395,
                    48.20044
                ],
                [
                    19.5282,
                    48.19632
                ],
                [
                    19.52762,
                    48.1932
                ],
                [
                    19.52824,
                    48.19134
                ],
                [
                    19.5218,
                    48.18474
                ],
                [
                    19.51236,
                    48.18307
                ],
                [
                    19.50934,
                    48.17924
                ],
                [
                    19.50644,
                    48.17866
                ],
                [
                    19.50672,
                    48.17559
                ],
                [
                    19.50356,
                    48.174
                ],
                [
                    19.50376,
                    48.17215
                ],
                [
                    19.50751,
                    48.17058
                ],
                [
                    19.5109,
                    48.16274
                ],
                [
                    19.50962,
                    48.15979
                ],
                [
                    19.51188,
                    48.15503
                ],
                [
                    19.50842,
                    48.152
                ],
                [
                    19.50811,
                    48.14846
                ],
                [
                    19.50068,
                    48.14669
                ],
                [
                    19.49147,
                    48.14046
                ],
                [
                    19.49116,
                    48.13906
                ],
                [
                    19.49558,
                    48.13497
                ],
                [
                    19.49357,
                    48.12984
                ],
                [
                    19.49379,
                    48.12085
                ],
                [
                    19.49064,
                    48.11801
                ],
                [
                    19.49234,
                    48.1151
                ],
                [
                    19.48958,
                    48.11222
                ],
                [
                    19.49322,
                    48.10995
                ],
                [
                    19.48336,
                    48.1059
                ],
                [
                    19.48326,
                    48.10314
                ],
                [
                    19.48675,
                    48.10064
                ],
                [
                    19.48278,
                    48.09919
                ],
                [
                    19.47886,
                    48.09585
                ],
                [
                    19.47091,
                    48.09532
                ],
                [
                    19.46745,
                    48.09289
                ],
                [
                    19.46582,
                    48.08843
                ],
                [
                    19.46809,
                    48.08508
                ],
                [
                    19.46202,
                    48.08389
                ],
                [
                    19.46184,
                    48.08707
                ],
                [
                    19.45708,
                    48.08837
                ],
                [
                    19.45225,
                    48.09406
                ],
                [
                    19.45249,
                    48.09609
                ],
                [
                    19.45656,
                    48.09601
                ],
                [
                    19.45814,
                    48.09834
                ],
                [
                    19.4545,
                    48.10221
                ],
                [
                    19.44891,
                    48.10105
                ],
                [
                    19.4424,
                    48.1018
                ],
                [
                    19.43465,
                    48.10026
                ],
                [
                    19.43234,
                    48.09572
                ],
                [
                    19.42456,
                    48.09012
                ],
                [
                    19.41658,
                    48.0888
                ],
                [
                    19.41396,
                    48.08979
                ],
                [
                    19.41121,
                    48.08926
                ],
                [
                    19.40907,
                    48.08982
                ],
                [
                    19.40752,
                    48.08916
                ],
                [
                    19.40484,
                    48.08631
                ],
                [
                    19.40156,
                    48.08635
                ],
                [
                    19.39988,
                    48.08495
                ],
                [
                    19.38749,
                    48.0923
                ],
                [
                    19.38134,
                    48.09261
                ],
                [
                    19.37145,
                    48.09046
                ],
                [
                    19.36954,
                    48.08808
                ],
                [
                    19.35611,
                    48.09158
                ],
                [
                    19.35222,
                    48.0896
                ],
                [
                    19.34549,
                    48.09061
                ],
                [
                    19.33858,
                    48.0895
                ],
                [
                    19.32762,
                    48.09151
                ],
                [
                    19.31415,
                    48.08806
                ],
                [
                    19.30256,
                    48.08964
                ],
                [
                    19.28393,
                    48.08278
                ],
                [
                    19.27694,
                    48.07497
                ],
                [
                    19.26687,
                    48.07525
                ],
                [
                    19.25473,
                    48.07257
                ],
                [
                    19.24805,
                    48.06418
                ],
                [
                    19.24725,
                    48.05805
                ],
                [
                    19.2392,
                    48.05434
                ],
                [
                    19.22863,
                    48.05773
                ],
                [
                    19.22293,
                    48.06312
                ],
                [
                    19.21346,
                    48.06523
                ],
                [
                    19.20065,
                    48.06422
                ],
                [
                    19.1901,
                    48.06091
                ],
                [
                    19.16574,
                    48.06667
                ],
                [
                    19.15835,
                    48.06618
                ],
                [
                    19.14556,
                    48.06985
                ],
                [
                    19.14514,
                    48.0724
                ],
                [
                    19.13578,
                    48.07492
                ],
                [
                    19.12741,
                    48.07481
                ],
                [
                    19.1186,
                    48.06714
                ],
                [
                    19.10033,
                    48.06791
                ],
                [
                    19.08743,
                    48.07411
                ],
                [
                    19.08024,
                    48.07192
                ],
                [
                    19.07609,
                    48.06809
                ],
                [
                    19.06481,
                    48.06503
                ],
                [
                    19.05841,
                    48.05801
                ],
                [
                    19.0472,
                    48.06726
                ],
                [
                    19.03976,
                    48.06586
                ],
                [
                    19.01926,
                    48.07596
                ],
                [
                    19.01987,
                    48.0778
                ],
                [
                    19.01806,
                    48.07903
                ],
                [
                    19.01463,
                    48.07897
                ],
                [
                    19.01192,
                    48.07697
                ],
                [
                    19.00759,
                    48.07682
                ],
                [
                    19.00648,
                    48.07074
                ],
                [
                    18.99678,
                    48.06922
                ],
                [
                    18.99167,
                    48.06641
                ],
                [
                    18.98892,
                    48.05852
                ],
                [
                    18.98098,
                    48.05413
                ],
                [
                    18.97603,
                    48.05737
                ],
                [
                    18.9682,
                    48.05938
                ],
                [
                    18.93644,
                    48.05967
                ],
                [
                    18.90892,
                    48.0518
                ],
                [
                    18.88623,
                    48.05973
                ],
                [
                    18.87433,
                    48.04776
                ],
                [
                    18.84518,
                    48.05353
                ],
                [
                    18.83725,
                    48.04792
                ],
                [
                    18.83273,
                    48.04906
                ],
                [
                    18.82852,
                    48.04268
                ],
                [
                    18.82132,
                    48.04424
                ],
                [
                    18.81854,
                    48.03967
                ],
                [
                    18.82527,
                    48.03002
                ],
                [
                    18.81435,
                    48.02255
                ],
                [
                    18.81575,
                    48.01138
                ],
                [
                    18.81848,
                    48.00769
                ],
                [
                    18.81362,
                    47.99323
                ],
                [
                    18.79979,
                    47.98592
                ],
                [
                    18.78631,
                    47.98767
                ],
                [
                    18.76798,
                    47.98608
                ],
                [
                    18.75378,
                    47.97751
                ],
                [
                    18.75475,
                    47.97032
                ],
                [
                    18.77591,
                    47.95551
                ],
                [
                    18.77066,
                    47.95061
                ],
                [
                    18.77235,
                    47.938
                ],
                [
                    18.76774,
                    47.92865
                ],
                [
                    18.75706,
                    47.92145
                ],
                [
                    18.75621,
                    47.91637
                ],
                [
                    18.76088,
                    47.91071
                ],
                [
                    18.75761,
                    47.90836
                ],
                [
                    18.75512,
                    47.89684
                ],
                [
                    18.76031,
                    47.89272
                ]
            ]
        ]
    }
}
