{
    "type": "Feature",
    "properties": {
        "id": "Manteca_CA_2025",
        "attribution": {
            "url": "https://www.manteca.gov/",
            "text": "City of Manteca",
            "required": false
        },
        "name": "City of Manteca Orthoimagery (2025)",
        "icon": "https://www.manteca.gov/ImageRepository/Document?documentID=106",
        "url": "https://mantecagisweb.ci.manteca.ca.us/server/rest/services/Basemaps/2025/MapServer/export?f=image&format=jpg&bbox={bbox}&bboxSR={wkid}&imageSR={wkid}&size={width},{height}",
        "max_zoom": 23,
        "license_url": "https://wiki.openstreetmap.org/wiki/California#Publicly_Available_Data",
        "country_code": "US",
        "type": "wms",
        "available_projections": [
            "CRS:84",
            "EPSG:3857"
        ],
        "start_date": "2025",
        "end_date": "2025",
        "description": "2025 3-inch resolution imagery for Manteca in the State of California",
        "category": "photo",
        "privacy_policy_url": false
    },
    "geometry": {
        "type": "Polygon",
        "coordinates": [
            [
                [
                    -121.41550348472899,
                    37.8730238755394
                ],
                [
                    -121.41384257952743,
                    37.741701246382405
                ],
                [
                    -121.10884147607669,
                    37.74366080651181
                ],
                [
                    -121.10986691138486,
                    37.87500858041713
                ],
                [
                    -121.41550348472899,
                    37.8730238755394
                ]
            ]
        ]
    }
}