{
    "type": "Feature",
    "properties": {
        "id": "Sonoma_CA_2025",
        "attribution": {
            "url": "https://sonomacounty.gov/",
            "text": "Sonoma County",
            "required": false
        },
        "name": "Sonoma County Orthoimagery (2025)",
        "icon": "https://sonomacounty.gov/Main%20County%20Site/General/Web%20Team/Images/county_seal_200.png",
        "url": "https://ags2maps.srcity.org/arcgis/rest/services/Aerial_2025_County/MapServer/export?f=image&format=jpg&bbox={bbox}&bboxSR={wkid}&imageSR={wkid}&size={width},{height}",
        "max_zoom": 23,
        "license_url": "https://wiki.openstreetmap.org/wiki/California#Publicly_Available_Data",
        "country_code": "US",
        "type": "wms",
        "available_projections": [
            "CRS:84",
            "EPSG:3857"
        ],
        "start_date": "2025",
        "end_date": "2025",
        "description": "2025 imagery for Sonoma County in the State of California",
        "category": "photo",
        "privacy_policy_url": "https://www.srcity.org/124/Privacy-Policy"
    },
    "geometry": {
        "type": "Polygon",
        "coordinates": [
            [
                [
                    -123.1342253,
                    38.2876423
                ],
                [
                    -122.9885235,
                    38.288946
                ],
                [
                    -122.9887664,
                    38.3033764
                ],
                [
                    -122.8875952,
                    38.3042925
                ],
                [
                    -122.887481,
                    38.2969918
                ],
                [
                    -122.8783607,
                    38.2970635
                ],
                [
                    -122.8782384,
                    38.2898668
                ],
                [
                    -122.8690085,
                    38.2898953
                ],
                [
                    -122.8689578,
                    38.2826866
                ],
                [
                    -122.859769,
                    38.2827225
                ],
                [
                    -122.8596319,
                    38.2754914
                ],
                [
                    -122.8412917,
                    38.2755725
                ],
                [
                    -122.8411018,
                    38.268342
                ],
                [
                    -122.8319869,
                    38.2684414
                ],
                [
                    -122.8318995,
                    38.2611819
                ],
                [
                    -122.8226976,
                    38.2612648
                ],
                [
                    -122.8226636,
                    38.2539913
                ],
                [
                    -122.8134357,
                    38.2540767
                ],
                [
                    -122.8133451,
                    38.2468299
                ],
                [
                    -122.8041454,
                    38.2468603
                ],
                [
                    -122.804065,
                    38.2396237
                ],
                [
                    -122.794878,
                    38.2397003
                ],
                [
                    -122.7947918,
                    38.2324305
                ],
                [
                    -122.7856235,
                    38.2324811
                ],
                [
                    -122.7855789,
                    38.2252539
                ],
                [
                    -122.7671158,
                    38.2253692
                ],
                [
                    -122.7670327,
                    38.2181235
                ],
                [
                    -122.7578515,
                    38.2181888
                ],
                [
                    -122.7578099,
                    38.2108772
                ],
                [
                    -122.7486702,
                    38.2110077
                ],
                [
                    -122.74867,
                    38.2038255
                ],
                [
                    -122.7210724,
                    38.2039901
                ],
                [
                    -122.7209677,
                    38.1967061
                ],
                [
                    -122.7025479,
                    38.1968604
                ],
                [
                    -122.7024736,
                    38.1895324
                ],
                [
                    -122.6841228,
                    38.1896784
                ],
                [
                    -122.6840718,
                    38.1824001
                ],
                [
                    -122.6564381,
                    38.1825646
                ],
                [
                    -122.6564381,
                    38.175258
                ],
                [
                    -122.5737958,
                    38.1758275
                ],
                [
                    -122.5736089,
                    38.168481
                ],
                [
                    -122.5643888,
                    38.168628
                ],
                [
                    -122.5643906,
                    38.1540882
                ],
                [
                    -122.5460803,
                    38.1541995
                ],
                [
                    -122.5459859,
                    38.1469258
                ],
                [
                    -122.5367935,
                    38.1469988
                ],
                [
                    -122.5367935,
                    38.1396875
                ],
                [
                    -122.5276161,
                    38.1397109
                ],
                [
                    -122.5275686,
                    38.1324863
                ],
                [
                    -122.5183069,
                    38.13253
                ],
                [
                    -122.5182783,
                    38.1180075
                ],
                [
                    -122.5090739,
                    38.1180762
                ],
                [
                    -122.509047,
                    38.1108417
                ],
                [
                    -122.4998916,
                    38.1108683
                ],
                [
                    -122.4997989,
                    38.1036294
                ],
                [
                    -122.3988459,
                    38.1043752
                ],
                [
                    -122.3991496,
                    38.1546931
                ],
                [
                    -122.3625529,
                    38.1548273
                ],
                [
                    -122.3624959,
                    38.1765295
                ],
                [
                    -122.3534482,
                    38.1767512
                ],
                [
                    -122.3534482,
                    38.1910934
                ],
                [
                    -122.3444157,
                    38.1912361
                ],
                [
                    -122.3443695,
                    38.2056576
                ],
                [
                    -122.3534827,
                    38.2055972
                ],
                [
                    -122.3536477,
                    38.2418122
                ],
                [
                    -122.3627948,
                    38.2418599
                ],
                [
                    -122.3629488,
                    38.248997
                ],
                [
                    -122.3721135,
                    38.249239
                ],
                [
                    -122.3721135,
                    38.2563754
                ],
                [
                    -122.3813552,
                    38.2563149
                ],
                [
                    -122.381412,
                    38.2780265
                ],
                [
                    -122.3905131,
                    38.2779949
                ],
                [
                    -122.3909033,
                    38.3143043
                ],
                [
                    -122.400011,
                    38.3143984
                ],
                [
                    -122.4000816,
                    38.3286677
                ],
                [
                    -122.4092694,
                    38.3287075
                ],
                [
                    -122.4094364,
                    38.3432468
                ],
                [
                    -122.4185631,
                    38.3432096
                ],
                [
                    -122.4187057,
                    38.3504792
                ],
                [
                    -122.4277772,
                    38.3503622
                ],
                [
                    -122.4279006,
                    38.3576373
                ],
                [
                    -122.4370356,
                    38.3576164
                ],
                [
                    -122.4371502,
                    38.3648668
                ],
                [
                    -122.4463365,
                    38.3648271
                ],
                [
                    -122.4464925,
                    38.3865696
                ],
                [
                    -122.4556202,
                    38.3865696
                ],
                [
                    -122.4557408,
                    38.3937239
                ],
                [
                    -122.4648981,
                    38.3938212
                ],
                [
                    -122.4650257,
                    38.4082456
                ],
                [
                    -122.4742447,
                    38.4081956
                ],
                [
                    -122.4745231,
                    38.4588675
                ],
                [
                    -122.5020342,
                    38.4588675
                ],
                [
                    -122.5024385,
                    38.4732542
                ],
                [
                    -122.5208813,
                    38.4731583
                ],
                [
                    -122.5208813,
                    38.4804973
                ],
                [
                    -122.5300109,
                    38.4804014
                ],
                [
                    -122.5302858,
                    38.5095218
                ],
                [
                    -122.5394351,
                    38.5094506
                ],
                [
                    -122.5395949,
                    38.5239307
                ],
                [
                    -122.5489263,
                    38.5238951
                ],
                [
                    -122.5489263,
                    38.5310883
                ],
                [
                    -122.567233,
                    38.5309727
                ],
                [
                    -122.5674051,
                    38.5454242
                ],
                [
                    -122.5766429,
                    38.545469
                ],
                [
                    -122.576715,
                    38.552691
                ],
                [
                    -122.586044,
                    38.5526594
                ],
                [
                    -122.586044,
                    38.5599547
                ],
                [
                    -122.6136772,
                    38.559779
                ],
                [
                    -122.6139156,
                    38.5742782
                ],
                [
                    -122.6230684,
                    38.5741664
                ],
                [
                    -122.6231837,
                    38.5814936
                ],
                [
                    -122.6324624,
                    38.5813829
                ],
                [
                    -122.6327187,
                    38.6176639
                ],
                [
                    -122.6235124,
                    38.6176885
                ],
                [
                    -122.6237852,
                    38.6539419
                ],
                [
                    -122.614612,
                    38.6540003
                ],
                [
                    -122.6147065,
                    38.6684947
                ],
                [
                    -122.6239187,
                    38.6684654
                ],
                [
                    -122.6241246,
                    38.6902659
                ],
                [
                    -122.6333766,
                    38.6901553
                ],
                [
                    -122.633471,
                    38.704597
                ],
                [
                    -122.6428174,
                    38.7046706
                ],
                [
                    -122.642843,
                    38.7118497
                ],
                [
                    -122.6890299,
                    38.7116416
                ],
                [
                    -122.6892168,
                    38.7259844
                ],
                [
                    -122.6985641,
                    38.7260816
                ],
                [
                    -122.6986264,
                    38.7332277
                ],
                [
                    -122.7079736,
                    38.733179
                ],
                [
                    -122.7079593,
                    38.7549531
                ],
                [
                    -122.7172139,
                    38.7549827
                ],
                [
                    -122.7174308,
                    38.7693456
                ],
                [
                    -122.7266644,
                    38.7693456
                ],
                [
                    -122.7267992,
                    38.7838476
                ],
                [
                    -122.7359653,
                    38.783795
                ],
                [
                    -122.7362349,
                    38.7910449
                ],
                [
                    -122.7453337,
                    38.7910449
                ],
                [
                    -122.7456323,
                    38.8127142
                ],
                [
                    -122.7550006,
                    38.8127142
                ],
                [
                    -122.755068,
                    38.8199611
                ],
                [
                    -122.7641521,
                    38.819904
                ],
                [
                    -122.7643779,
                    38.8271753
                ],
                [
                    -122.7736735,
                    38.8270874
                ],
                [
                    -122.7737,
                    38.8343146
                ],
                [
                    -122.7922538,
                    38.8342106
                ],
                [
                    -122.7923423,
                    38.8414064
                ],
                [
                    -122.8107704,
                    38.8413002
                ],
                [
                    -122.810986,
                    38.8557875
                ],
                [
                    -123.089192,
                    38.8534843
                ],
                [
                    -123.0891317,
                    38.8462565
                ],
                [
                    -123.1447415,
                    38.8458409
                ],
                [
                    -123.1439851,
                    38.8094611
                ],
                [
                    -123.1904378,
                    38.8089622
                ],
                [
                    -123.1906512,
                    38.8162235
                ],
                [
                    -123.2832878,
                    38.8153606
                ],
                [
                    -123.2830032,
                    38.8079329
                ],
                [
                    -123.3756117,
                    38.8071542
                ],
                [
                    -123.375253,
                    38.7781496
                ],
                [
                    -123.4491617,
                    38.7770577
                ],
                [
                    -123.4492746,
                    38.7844487
                ],
                [
                    -123.5049412,
                    38.7836513
                ],
                [
                    -123.5047002,
                    38.7763224
                ],
                [
                    -123.5140413,
                    38.7764164
                ],
                [
                    -123.5138002,
                    38.7690867
                ],
                [
                    -123.6435108,
                    38.7672122
                ],
                [
                    -123.1342253,
                    38.2876423
                ]
            ]
        ]
    }
}