{
    "type": "Feature",
    "properties": {
        "id": "orthophoto_lyon_2023",
        "name": "Lyon orthophoto été 2023 (5 cm)",
        "type": "wms",
        "url": "https://tiles.craig.fr/ortho/service?FORMAT=image/jpeg&VERSION=1.3.0&SERVICE=WMS&REQUEST=GetMap&LAYERS=grand_lyon_2023&STYLES=&CRS={proj}&WIDTH={width}&HEIGHT={height}&BBOX={bbox}",
        "category": "photo",
        "description": "Orthophotographie à 5 cm de la Métropole de Lyon - été 2023",
        "best": true,
        "start_date": "2023-07-27",
        "end_date": "2024-09-07",
        "country_code": "FR",
        "available_projections": [
            "CRS:84",
            "EPSG:2154",
            "EPSG:3857",
            "EPSG:3946",
            "EPSG:3945",
            "EPSG:4258",
            "EPSG:4326"
        ],
        "min_zoom": 9,
        "max_zoom": 22,
        "attribution": {
            "url": "https://ids.craig.fr/geocat/srv/fre/catalog.search#/metadata/5bc90862-05ac-4de4-a38b-c4e7dc60d0df",
            "text": "CRAIG - Métropole de Lyon - FEDER Auvergne-Rhône-Alpes - 2024",
            "required": true
        },
        "license_url": "https://www.etalab.gouv.fr/wp-content/uploads/2017/04/ETALAB-Licence-Ouverte-v2.0.pdf",
        "icon": null
    },
    "geometry": {
        "type": "Polygon",
        "coordinates": [
            [
                [
                    4.861005,
                    45.623752
                ],
                [
                    4.862095,
                    45.65616
                ],
                [
                    4.862216,
                    45.659761
                ],
                [
                    4.887892,
                    45.659334
                ],
                [
                    4.887155,
                    45.637728
                ],
                [
                    4.899988,
                    45.637512
                ],
                [
                    4.900112,
                    45.641113
                ],
                [
                    4.925779,
                    45.640677
                ],
                [
                    4.925967,
                    45.646078
                ],
                [
                    4.9311,
                    45.64599
                ],
                [
                    4.930912,
                    45.640589
                ],
                [
                    4.964279,
                    45.640012
                ],
                [
                    4.964598,
                    45.649014
                ],
                [
                    4.977433,
                    45.648789
                ],
                [
                    4.978398,
                    45.675795
                ],
                [
                    4.998944,
                    45.675432
                ],
                [
                    4.999464,
                    45.689835
                ],
                [
                    5.004602,
                    45.689744
                ],
                [
                    5.005451,
                    45.713149
                ],
                [
                    5.000311,
                    45.71324
                ],
                [
                    5.000441,
                    45.716841
                ],
                [
                    4.99273,
                    45.716978
                ],
                [
                    4.992925,
                    45.722379
                ],
                [
                    4.987784,
                    45.72247
                ],
                [
                    4.987914,
                    45.72607
                ],
                [
                    4.980202,
                    45.726206
                ],
                [
                    4.980331,
                    45.729807
                ],
                [
                    4.993185,
                    45.72958
                ],
                [
                    4.993509,
                    45.738582
                ],
                [
                    5.006365,
                    45.738354
                ],
                [
                    5.006692,
                    45.747356
                ],
                [
                    5.058122,
                    45.746429
                ],
                [
                    5.059128,
                    45.773435
                ],
                [
                    5.066847,
                    45.773294
                ],
                [
                    5.068397,
                    45.814702
                ],
                [
                    5.032351,
                    45.815357
                ],
                [
                    5.032219,
                    45.811756
                ],
                [
                    4.931808,
                    45.813519
                ],
                [
                    4.932754,
                    45.840525
                ],
                [
                    4.927602,
                    45.840613
                ],
                [
                    4.927727,
                    45.844214
                ],
                [
                    4.919999,
                    45.844346
                ],
                [
                    4.9205,
                    45.85875
                ],
                [
                    4.915347,
                    45.858837
                ],
                [
                    4.915972,
                    45.876842
                ],
                [
                    4.908239,
                    45.876972
                ],
                [
                    4.908551,
                    45.885975
                ],
                [
                    4.890504,
                    45.886278
                ],
                [
                    4.890812,
                    45.89528
                ],
                [
                    4.883077,
                    45.895409
                ],
                [
                    4.883384,
                    45.904412
                ],
                [
                    4.870489,
                    45.904626
                ],
                [
                    4.870795,
                    45.913628
                ],
                [
                    4.857897,
                    45.913841
                ],
                [
                    4.858019,
                    45.917442
                ],
                [
                    4.837382,
                    45.917779
                ],
                [
                    4.837262,
                    45.914178
                ],
                [
                    4.819205,
                    45.91447
                ],
                [
                    4.819502,
                    45.923472
                ],
                [
                    4.806603,
                    45.923679
                ],
                [
                    4.806662,
                    45.92548
                ],
                [
                    4.796341,
                    45.925644
                ],
                [
                    4.7964,
                    45.927444
                ],
                [
                    4.79382,
                    45.927485
                ],
                [
                    4.794113,
                    45.936488
                ],
                [
                    4.788952,
                    45.93657
                ],
                [
                    4.789127,
                    45.941971
                ],
                [
                    4.760738,
                    45.942416
                ],
                [
                    4.760565,
                    45.937015
                ],
                [
                    4.755404,
                    45.937095
                ],
                [
                    4.755289,
                    45.933494
                ],
                [
                    4.747548,
                    45.933614
                ],
                [
                    4.747377,
                    45.928212
                ],
                [
                    4.742216,
                    45.928292
                ],
                [
                    4.741932,
                    45.919289
                ],
                [
                    4.734192,
                    45.919408
                ],
                [
                    4.734079,
                    45.915807
                ],
                [
                    4.72892,
                    45.915886
                ],
                [
                    4.728298,
                    45.89608
                ],
                [
                    4.754085,
                    45.895683
                ],
                [
                    4.753685,
                    45.883079
                ],
                [
                    4.740794,
                    45.883278
                ],
                [
                    4.74068,
                    45.879677
                ],
                [
                    4.72779,
                    45.879875
                ],
                [
                    4.726381,
                    45.834861
                ],
                [
                    4.687743,
                    45.835445
                ],
                [
                    4.685763,
                    45.770624
                ],
                [
                    4.703773,
                    45.770354
                ],
                [
                    4.702663,
                    45.734343
                ],
                [
                    4.715519,
                    45.734148
                ],
                [
                    4.715407,
                    45.730547
                ],
                [
                    4.72312,
                    45.730429
                ],
                [
                    4.722952,
                    45.725027
                ],
                [
                    4.728094,
                    45.724949
                ],
                [
                    4.727981,
                    45.721348
                ],
                [
                    4.761398,
                    45.72083
                ],
                [
                    4.76008,
                    45.679418
                ],
                [
                    4.772923,
                    45.679217
                ],
                [
                    4.772116,
                    45.65401
                ],
                [
                    4.764414,
                    45.654131
                ],
                [
                    4.76407,
                    45.643328
                ],
                [
                    4.77177,
                    45.643207
                ],
                [
                    4.771482,
                    45.634204
                ],
                [
                    4.797147,
                    45.633797
                ],
                [
                    4.796914,
                    45.626595
                ],
                [
                    4.776384,
                    45.626921
                ],
                [
                    4.776096,
                    45.617919
                ],
                [
                    4.750438,
                    45.618321
                ],
                [
                    4.749869,
                    45.600316
                ],
                [
                    4.737045,
                    45.600514
                ],
                [
                    4.736875,
                    45.595113
                ],
                [
                    4.711228,
                    45.595506
                ],
                [
                    4.711117,
                    45.591905
                ],
                [
                    4.698294,
                    45.592099
                ],
                [
                    4.697963,
                    45.581296
                ],
                [
                    4.705655,
                    45.58118
                ],
                [
                    4.705378,
                    45.572177
                ],
                [
                    4.710506,
                    45.572099
                ],
                [
                    4.710394,
                    45.568498
                ],
                [
                    4.756537,
                    45.567787
                ],
                [
                    4.756081,
                    45.553383
                ],
                [
                    4.781708,
                    45.552979
                ],
                [
                    4.781882,
                    45.558381
                ],
                [
                    4.794697,
                    45.558177
                ],
                [
                    4.794813,
                    45.561778
                ],
                [
                    4.802503,
                    45.561655
                ],
                [
                    4.802678,
                    45.567056
                ],
                [
                    4.810368,
                    45.566932
                ],
                [
                    4.810486,
                    45.570533
                ],
                [
                    4.815613,
                    45.570451
                ],
                [
                    4.815967,
                    45.581254
                ],
                [
                    4.790326,
                    45.581665
                ],
                [
                    4.790559,
                    45.588867
                ],
                [
                    4.795688,
                    45.588785
                ],
                [
                    4.79598,
                    45.597787
                ],
                [
                    4.808804,
                    45.597582
                ],
                [
                    4.809685,
                    45.624589
                ],
                [
                    4.861005,
                    45.623752
                ]
            ]
        ]
    }
}