{
    "type": "Feature",
    "properties": {
        "id": "orthophoto_veneon_202410",
        "name": "Vénéon orthophoto octobre 2024 (10 cm)",
        "type": "wms",
        "url": "https://tiles.craig.fr/ortho/service?FORMAT=image/jpeg&VERSION=1.3.0&SERVICE=WMS&REQUEST=GetMap&LAYERS=veneon_octobre_2024&STYLES=&CRS={proj}&WIDTH={width}&HEIGHT={height}&BBOX={bbox}",
        "category": "photo",
        "description": "Orthophotographie à 10 cm de la vallée du Vénéon - octobre 2024",
        "best": true,
        "start_date": "2024-10-20",
        "end_date": "2024-11-04",
        "country_code": "FR",
        "available_projections": [
            "CRS:84",
            "EPSG:2154",
            "EPSG:3857",
            "EPSG:3946",
            "EPSG:3945",
            "EPSG:4258",
            "EPSG:4326"
        ],
        "min_zoom": 10,
        "max_zoom": 22,
        "attribution": {
            "url": "https://ids.craig.fr/geocat/srv/fre/catalog.search#/metadata/8830c519-cba0-4a87-95d2-94e54a9e67d5",
            "text": "Source DDT de l'Isère - 2025-01",
            "required": true
        },
        "license_url": "https://www.etalab.gouv.fr/wp-content/uploads/2017/04/ETALAB-Licence-Ouverte-v2.0.pdf",
        "icon": "https://ids.craig.fr/geocat/images/harvesting/2025_Prefecture_D38.png"
    },
    "geometry": {
        "type": "Polygon",
        "coordinates": [
            [
                [
                    6.06105,
                    45.003042
                ],
                [
                    6.066253,
                    44.992657
                ],
                [
                    6.067705,
                    44.989825
                ],
                [
                    6.071874,
                    44.987878
                ],
                [
                    6.074753,
                    44.986083
                ],
                [
                    6.074802,
                    44.986081
                ],
                [
                    6.081357,
                    44.986013
                ],
                [
                    6.087363,
                    44.986477
                ],
                [
                    6.099904,
                    44.984933
                ],
                [
                    6.131403,
                    44.976199
                ],
                [
                    6.140825,
                    44.969332
                ],
                [
                    6.150508,
                    44.960694
                ],
                [
                    6.160955,
                    44.952702
                ],
                [
                    6.171036,
                    44.943426
                ],
                [
                    6.182437,
                    44.933595
                ],
                [
                    6.200605,
                    44.922353
                ],
                [
                    6.203535,
                    44.920767
                ],
                [
                    6.203541,
                    44.920766
                ],
                [
                    6.20358,
                    44.920782
                ],
                [
                    6.210967,
                    44.923842
                ],
                [
                    6.217698,
                    44.927152
                ],
                [
                    6.23278,
                    44.931366
                ],
                [
                    6.247962,
                    44.931299
                ],
                [
                    6.246333,
                    44.923072
                ],
                [
                    6.244657,
                    44.914419
                ],
                [
                    6.244657,
                    44.914411
                ],
                [
                    6.244666,
                    44.914383
                ],
                [
                    6.245931,
                    44.910323
                ],
                [
                    6.245333,
                    44.905809
                ],
                [
                    6.246528,
                    44.903274
                ],
                [
                    6.248149,
                    44.899409
                ],
                [
                    6.251101,
                    44.895392
                ],
                [
                    6.252972,
                    44.892953
                ],
                [
                    6.255043,
                    44.890981
                ],
                [
                    6.257013,
                    44.890329
                ],
                [
                    6.262466,
                    44.888858
                ],
                [
                    6.265204,
                    44.889733
                ],
                [
                    6.267793,
                    44.891084
                ],
                [
                    6.269894,
                    44.892688
                ],
                [
                    6.269904,
                    44.892703
                ],
                [
                    6.27125,
                    44.895749
                ],
                [
                    6.271675,
                    44.900154
                ],
                [
                    6.270667,
                    44.905904
                ],
                [
                    6.269801,
                    44.91117
                ],
                [
                    6.269653,
                    44.914394
                ],
                [
                    6.269541,
                    44.918204
                ],
                [
                    6.269721,
                    44.924169
                ],
                [
                    6.268667,
                    44.930521
                ],
                [
                    6.287762,
                    44.92701
                ],
                [
                    6.298548,
                    44.914461
                ],
                [
                    6.303185,
                    44.906868
                ],
                [
                    6.303206,
                    44.90683
                ],
                [
                    6.300534,
                    44.903249
                ],
                [
                    6.292571,
                    44.895451
                ],
                [
                    6.289238,
                    44.888036
                ],
                [
                    6.281196,
                    44.882036
                ],
                [
                    6.275242,
                    44.878068
                ],
                [
                    6.277355,
                    44.874014
                ],
                [
                    6.281224,
                    44.874493
                ],
                [
                    6.283806,
                    44.875725
                ],
                [
                    6.288603,
                    44.878693
                ],
                [
                    6.29413,
                    44.880269
                ],
                [
                    6.301889,
                    44.884925
                ],
                [
                    6.302111,
                    44.89006
                ],
                [
                    6.304502,
                    44.892271
                ],
                [
                    6.309712,
                    44.894931
                ],
                [
                    6.315334,
                    44.89779
                ],
                [
                    6.320456,
                    44.895754
                ],
                [
                    6.324634,
                    44.890045
                ],
                [
                    6.321766,
                    44.879941
                ],
                [
                    6.32052,
                    44.876429
                ],
                [
                    6.317441,
                    44.871936
                ],
                [
                    6.317439,
                    44.871928
                ],
                [
                    6.321414,
                    44.868439
                ],
                [
                    6.326897,
                    44.871004
                ],
                [
                    6.330168,
                    44.870992
                ],
                [
                    6.330573,
                    44.867389
                ],
                [
                    6.338674,
                    44.866908
                ],
                [
                    6.339056,
                    44.875423
                ],
                [
                    6.340359,
                    44.883737
                ],
                [
                    6.348256,
                    44.891364
                ],
                [
                    6.352813,
                    44.896784
                ],
                [
                    6.355193,
                    44.899286
                ],
                [
                    6.357514,
                    44.904391
                ],
                [
                    6.357512,
                    44.904399
                ],
                [
                    6.356045,
                    44.907059
                ],
                [
                    6.354854,
                    44.912385
                ],
                [
                    6.35476,
                    44.914184
                ],
                [
                    6.354454,
                    44.917477
                ],
                [
                    6.354352,
                    44.919127
                ],
                [
                    6.35294,
                    44.92246
                ],
                [
                    6.351384,
                    44.923365
                ],
                [
                    6.35175,
                    44.926144
                ],
                [
                    6.354487,
                    44.928897
                ],
                [
                    6.357906,
                    44.937822
                ],
                [
                    6.354432,
                    44.940507
                ],
                [
                    6.344391,
                    44.936027
                ],
                [
                    6.344359,
                    44.936012
                ],
                [
                    6.344346,
                    44.936015
                ],
                [
                    6.319907,
                    44.943328
                ],
                [
                    6.306624,
                    44.950303
                ],
                [
                    6.301612,
                    44.953742
                ],
                [
                    6.30041,
                    44.957665
                ],
                [
                    6.301759,
                    44.967134
                ],
                [
                    6.309148,
                    44.983592
                ],
                [
                    6.310807,
                    44.992465
                ],
                [
                    6.310808,
                    44.99247
                ],
                [
                    6.310802,
                    44.992476
                ],
                [
                    6.307351,
                    44.995716
                ],
                [
                    6.301578,
                    44.995852
                ],
                [
                    6.293638,
                    44.989773
                ],
                [
                    6.294433,
                    44.98592
                ],
                [
                    6.294826,
                    44.985582
                ],
                [
                    6.294835,
                    44.985575
                ],
                [
                    6.294834,
                    44.985568
                ],
                [
                    6.290821,
                    44.969631
                ],
                [
                    6.283487,
                    44.954644
                ],
                [
                    6.285617,
                    44.945923
                ],
                [
                    6.285614,
                    44.945915
                ],
                [
                    6.283193,
                    44.943136
                ],
                [
                    6.233212,
                    44.945121
                ],
                [
                    6.210328,
                    44.939379
                ],
                [
                    6.209611,
                    44.939201
                ],
                [
                    6.188404,
                    44.962755
                ],
                [
                    6.188364,
                    44.9628
                ],
                [
                    6.188364,
                    44.962803
                ],
                [
                    6.194111,
                    44.965563
                ],
                [
                    6.203464,
                    44.969325
                ],
                [
                    6.220996,
                    44.971582
                ],
                [
                    6.250958,
                    44.974451
                ],
                [
                    6.251097,
                    44.974466
                ],
                [
                    6.269968,
                    44.981572
                ],
                [
                    6.270303,
                    44.982055
                ],
                [
                    6.270031,
                    44.982011
                ],
                [
                    6.270024,
                    44.98201
                ],
                [
                    6.270024,
                    44.982012
                ],
                [
                    6.272054,
                    44.984567
                ],
                [
                    6.272462,
                    44.987303
                ],
                [
                    6.270969,
                    44.989615
                ],
                [
                    6.263795,
                    44.990098
                ],
                [
                    6.255794,
                    44.98786
                ],
                [
                    6.245336,
                    44.986353
                ],
                [
                    6.22507,
                    44.987281
                ],
                [
                    6.208993,
                    44.985226
                ],
                [
                    6.201512,
                    44.983791
                ],
                [
                    6.192473,
                    44.981929
                ],
                [
                    6.183155,
                    44.977116
                ],
                [
                    6.172931,
                    44.972027
                ],
                [
                    6.160391,
                    44.980437
                ],
                [
                    6.136679,
                    44.989143
                ],
                [
                    6.135443,
                    44.990147
                ],
                [
                    6.12821,
                    44.99507
                ],
                [
                    6.125955,
                    44.996207
                ],
                [
                    6.123888,
                    44.997159
                ],
                [
                    6.122518,
                    44.997841
                ],
                [
                    6.120775,
                    44.998247
                ],
                [
                    6.118816,
                    44.998554
                ],
                [
                    6.116177,
                    44.998911
                ],
                [
                    6.113388,
                    44.999599
                ],
                [
                    6.111113,
                    45.000306
                ],
                [
                    6.109056,
                    45.00047
                ],
                [
                    6.105149,
                    45.000007
                ],
                [
                    6.102748,
                    44.996461
                ],
                [
                    6.088774,
                    44.998752
                ],
                [
                    6.077659,
                    45.005656
                ],
                [
                    6.055273,
                    45.046977
                ],
                [
                    6.026886,
                    45.061256
                ],
                [
                    6.025569,
                    45.06175
                ],
                [
                    6.025549,
                    45.061756
                ],
                [
                    6.023263,
                    45.061425
                ],
                [
                    6.020817,
                    45.060745
                ],
                [
                    6.02074,
                    45.060715
                ],
                [
                    6.018172,
                    45.059667
                ],
                [
                    6.015666,
                    45.059056
                ],
                [
                    6.011258,
                    45.057746
                ],
                [
                    6.006449,
                    45.055537
                ],
                [
                    6.006447,
                    45.055536
                ],
                [
                    6.006437,
                    45.05548
                ],
                [
                    6.006,
                    45.05276
                ],
                [
                    6.007781,
                    45.046493
                ],
                [
                    6.011262,
                    45.041745
                ],
                [
                    6.014496,
                    45.038903
                ],
                [
                    6.01453,
                    45.038873
                ],
                [
                    6.01454,
                    45.038867
                ],
                [
                    6.018083,
                    45.037343
                ],
                [
                    6.027772,
                    45.033647
                ],
                [
                    6.037799,
                    45.028941
                ],
                [
                    6.046141,
                    45.026439
                ],
                [
                    6.055586,
                    45.010937
                ],
                [
                    6.06105,
                    45.003042
                ]
            ]
        ]
    }
}