{
    "type": "Feature",
    "properties": {
        "id": "orthophoto_veneon_202406",
        "name": "Vénéon orthophoto juin 2024 (10 cm)",
        "type": "wms",
        "url": "https://tiles.craig.fr/ortho/service?FORMAT=image/jpeg&VERSION=1.3.0&SERVICE=WMS&REQUEST=GetMap&LAYERS=veneon_juin_2024&STYLES=&CRS={proj}&WIDTH={width}&HEIGHT={height}&BBOX={bbox}",
        "category": "historicphoto",
        "description": "Orthophotographie à 10 cm de la vallée du Vénéon - juin 2024",
        "start_date": "2024-06-28",
        "end_date": "2024-06-28",
        "country_code": "FR",
        "available_projections": [
            "CRS:84",
            "EPSG:2154",
            "EPSG:3857",
            "EPSG:3946",
            "EPSG:3945",
            "EPSG:4258",
            "EPSG:4326"
        ],
        "min_zoom": 10,
        "max_zoom": 22,
        "attribution": {
            "url": "https://ids.craig.fr/geocat/srv/fre/catalog.search#/metadata/bf56b7be-5226-49d3-9036-02cae40057d1",
            "text": "Source DDT de l'Isère - 2024-07",
            "required": true
        },
        "license_url": "https://www.etalab.gouv.fr/wp-content/uploads/2017/04/ETALAB-Licence-Ouverte-v2.0.pdf",
        "icon": "https://ids.craig.fr/geocat/images/harvesting/2025_Prefecture_D38.png"
    },
    "geometry": {
        "type": "Polygon",
        "coordinates": [
            [
                [
                    6.05863,
                    44.990211
                ],
                [
                    6.058385,
                    44.985713
                ],
                [
                    6.064724,
                    44.985538
                ],
                [
                    6.064477,
                    44.98104
                ],
                [
                    6.070816,
                    44.980865
                ],
                [
                    6.070569,
                    44.976367
                ],
                [
                    6.083245,
                    44.976016
                ],
                [
                    6.083492,
                    44.980514
                ],
                [
                    6.08983,
                    44.980338
                ],
                [
                    6.090079,
                    44.984837
                ],
                [
                    6.096417,
                    44.984661
                ],
                [
                    6.096169,
                    44.980162
                ],
                [
                    6.115183,
                    44.979631
                ],
                [
                    6.114932,
                    44.975133
                ],
                [
                    6.133945,
                    44.974598
                ],
                [
                    6.133693,
                    44.9701
                ],
                [
                    6.14003,
                    44.969921
                ],
                [
                    6.139526,
                    44.960925
                ],
                [
                    6.145862,
                    44.960746
                ],
                [
                    6.145609,
                    44.956247
                ],
                [
                    6.151944,
                    44.956068
                ],
                [
                    6.151691,
                    44.95157
                ],
                [
                    6.158026,
                    44.95139
                ],
                [
                    6.157772,
                    44.946892
                ],
                [
                    6.164107,
                    44.946712
                ],
                [
                    6.163853,
                    44.942213
                ],
                [
                    6.170186,
                    44.942033
                ],
                [
                    6.169932,
                    44.937535
                ],
                [
                    6.176265,
                    44.937354
                ],
                [
                    6.175755,
                    44.928358
                ],
                [
                    6.188419,
                    44.927995
                ],
                [
                    6.188163,
                    44.923497
                ],
                [
                    6.194495,
                    44.923315
                ],
                [
                    6.194238,
                    44.918817
                ],
                [
                    6.200569,
                    44.918635
                ],
                [
                    6.200313,
                    44.914136
                ],
                [
                    6.212973,
                    44.913771
                ],
                [
                    6.213231,
                    44.918269
                ],
                [
                    6.219562,
                    44.918086
                ],
                [
                    6.21982,
                    44.922584
                ],
                [
                    6.226151,
                    44.9224
                ],
                [
                    6.22641,
                    44.926898
                ],
                [
                    6.283393,
                    44.925228
                ],
                [
                    6.28313,
                    44.92073
                ],
                [
                    6.289461,
                    44.920543
                ],
                [
                    6.288933,
                    44.911547
                ],
                [
                    6.295263,
                    44.91136
                ],
                [
                    6.294998,
                    44.906862
                ],
                [
                    6.288669,
                    44.90705
                ],
                [
                    6.287614,
                    44.889058
                ],
                [
                    6.281287,
                    44.889245
                ],
                [
                    6.281024,
                    44.884748
                ],
                [
                    6.274697,
                    44.884934
                ],
                [
                    6.274435,
                    44.880437
                ],
                [
                    6.268109,
                    44.880623
                ],
                [
                    6.267585,
                    44.871627
                ],
                [
                    6.28656,
                    44.871067
                ],
                [
                    6.286824,
                    44.875565
                ],
                [
                    6.29315,
                    44.875377
                ],
                [
                    6.293414,
                    44.879875
                ],
                [
                    6.306066,
                    44.879499
                ],
                [
                    6.306861,
                    44.892992
                ],
                [
                    6.319516,
                    44.892615
                ],
                [
                    6.318452,
                    44.874624
                ],
                [
                    6.312126,
                    44.874813
                ],
                [
                    6.311595,
                    44.865817
                ],
                [
                    6.343217,
                    44.864869
                ],
                [
                    6.344289,
                    44.88286
                ],
                [
                    6.350616,
                    44.882669
                ],
                [
                    6.352497,
                    44.914153
                ],
                [
                    6.346167,
                    44.914344
                ],
                [
                    6.346436,
                    44.918841
                ],
                [
                    6.321114,
                    44.919601
                ],
                [
                    6.32138,
                    44.924099
                ],
                [
                    6.353035,
                    44.923148
                ],
                [
                    6.354111,
                    44.941139
                ],
                [
                    6.335112,
                    44.941711
                ],
                [
                    6.33538,
                    44.946209
                ],
                [
                    6.322713,
                    44.946588
                ],
                [
                    6.32298,
                    44.951086
                ],
                [
                    6.316646,
                    44.951275
                ],
                [
                    6.317178,
                    44.960271
                ],
                [
                    6.304508,
                    44.960648
                ],
                [
                    6.304773,
                    44.965146
                ],
                [
                    6.311109,
                    44.964958
                ],
                [
                    6.313237,
                    45.000941
                ],
                [
                    6.300557,
                    45.001318
                ],
                [
                    6.300292,
                    44.99682
                ],
                [
                    6.293953,
                    44.997008
                ],
                [
                    6.29263,
                    44.974518
                ],
                [
                    6.286293,
                    44.974705
                ],
                [
                    6.285766,
                    44.96571
                ],
                [
                    6.27943,
                    44.965897
                ],
                [
                    6.278377,
                    44.947905
                ],
                [
                    6.272043,
                    44.948092
                ],
                [
                    6.271781,
                    44.943594
                ],
                [
                    6.259114,
                    44.943966
                ],
                [
                    6.259375,
                    44.948464
                ],
                [
                    6.227705,
                    44.949388
                ],
                [
                    6.227446,
                    44.94489
                ],
                [
                    6.214778,
                    44.945257
                ],
                [
                    6.21452,
                    44.940759
                ],
                [
                    6.208187,
                    44.940942
                ],
                [
                    6.208702,
                    44.949938
                ],
                [
                    6.202368,
                    44.950121
                ],
                [
                    6.202625,
                    44.954619
                ],
                [
                    6.19629,
                    44.954802
                ],
                [
                    6.196803,
                    44.963798
                ],
                [
                    6.203139,
                    44.963615
                ],
                [
                    6.203396,
                    44.968114
                ],
                [
                    6.228741,
                    44.96738
                ],
                [
                    6.229001,
                    44.971878
                ],
                [
                    6.26702,
                    44.970768
                ],
                [
                    6.267283,
                    44.975266
                ],
                [
                    6.27362,
                    44.975079
                ],
                [
                    6.273882,
                    44.979577
                ],
                [
                    6.28022,
                    44.979391
                ],
                [
                    6.28101,
                    44.992884
                ],
                [
                    6.255654,
                    44.99363
                ],
                [
                    6.255393,
                    44.989132
                ],
                [
                    6.211021,
                    44.990421
                ],
                [
                    6.210764,
                    44.985923
                ],
                [
                    6.18541,
                    44.986652
                ],
                [
                    6.185154,
                    44.982154
                ],
                [
                    6.178816,
                    44.982336
                ],
                [
                    6.17856,
                    44.977837
                ],
                [
                    6.165885,
                    44.978199
                ],
                [
                    6.16614,
                    44.982697
                ],
                [
                    6.159801,
                    44.982878
                ],
                [
                    6.160055,
                    44.987376
                ],
                [
                    6.141039,
                    44.987915
                ],
                [
                    6.141291,
                    44.992413
                ],
                [
                    6.134952,
                    44.992592
                ],
                [
                    6.135204,
                    44.99709
                ],
                [
                    6.122524,
                    44.997447
                ],
                [
                    6.122775,
                    45.001945
                ],
                [
                    6.116434,
                    45.002123
                ],
                [
                    6.116684,
                    45.006621
                ],
                [
                    6.104002,
                    45.006976
                ],
                [
                    6.103753,
                    45.002477
                ],
                [
                    6.097412,
                    45.002654
                ],
                [
                    6.097163,
                    44.998156
                ],
                [
                    6.090823,
                    44.998332
                ],
                [
                    6.091072,
                    45.002831
                ],
                [
                    6.084731,
                    45.003007
                ],
                [
                    6.084979,
                    45.007505
                ],
                [
                    6.078637,
                    45.007681
                ],
                [
                    6.078885,
                    45.012179
                ],
                [
                    6.072543,
                    45.012354
                ],
                [
                    6.073037,
                    45.021351
                ],
                [
                    6.07938,
                    45.021176
                ],
                [
                    6.079875,
                    45.030173
                ],
                [
                    6.073531,
                    45.030348
                ],
                [
                    6.073778,
                    45.034847
                ],
                [
                    6.067434,
                    45.035022
                ],
                [
                    6.067927,
                    45.044019
                ],
                [
                    6.061581,
                    45.044194
                ],
                [
                    6.062074,
                    45.053191
                ],
                [
                    6.043034,
                    45.053713
                ],
                [
                    6.04279,
                    45.049214
                ],
                [
                    6.030097,
                    45.04956
                ],
                [
                    6.02961,
                    45.040563
                ],
                [
                    6.035955,
                    45.04039
                ],
                [
                    6.035223,
                    45.026894
                ],
                [
                    6.041567,
                    45.026721
                ],
                [
                    6.041322,
                    45.022223
                ],
                [
                    6.047665,
                    45.022049
                ],
                [
                    6.047175,
                    45.013052
                ],
                [
                    6.053517,
                    45.012878
                ],
                [
                    6.052781,
                    44.999383
                ],
                [
                    6.059122,
                    44.999208
                ],
                [
                    6.05863,
                    44.990211
                ]
            ]
        ]
    }
}