{
    "type": "Feature",
    "properties": {
        "id": "Georgia-Orthophoto-plans",
        "name": "Georgia Orthophoto Plans",
        "type": "tms",
        "url": "https://nt0.napr.gov.ge/NGCache?x={x}&y={y}&z={zoom}&l=ORTHO_GEORGIA_4",
        "start_date": "2000",
        "end_date": "2022",
        "country_code": "GE",
        "min_zoom": 5,
        "max_zoom": 22,
        "description": "Orthophoto plans provided by the National Agency of Public Registry of Georgia.",
        "category": "photo",
        "license_url": "https://wiki.openstreetmap.org/wiki/WikiProject_Georgia_Abkhazia_South-Ossetia#Comment_about_data_from_the_National_Agency_of_Public_Registry_and_other_state_structures"
    },
    "geometry": {
        "type": "Polygon",
        "coordinates": [
            [
                [39.8844803,43.2244305],[39.9294389,43.2015006],[39.9793243,43.1862756],[40.0134059,43.1708865],[40.0166495,43.1531526],[40.0257343,43.1274901],[40.0395233,43.1029593],[40.0577598,43.0800187],[40.080104,43.0590977],[40.1061396,43.0405883],[40.1353817,43.0248375],[40.1672856,43.012141],[40.2012569,43.0027373],[40.2366628,42.9968031],[40.2728438,42.99445],[40.2971888,42.9950042],[40.3209058,42.9824388],[40.3528096,42.9697336],[40.3856882,42.9605953],[40.4128506,42.9437598],[40.4434951,42.9294821],[40.4765096,42.91839],[40.5112793,42.9106919],[40.5698426,42.9058526],[40.5873087,42.9004609],[40.6399199,42.8902313],[40.6761009,42.8878741],[40.712383,42.8891485],[40.739622,42.892652],[40.7532385,42.8759527],[40.7755827,42.8549622],[40.8016183,42.8363912],[40.8308604,42.8205881],[40.8615361,42.8083007],[40.8897839,42.7770896],[40.90182,42.7360254],[40.915609,42.7113382],[40.9338455,42.6882514],[40.9561897,42.6671971],[40.9822253,42.6485698],[41.0114674,42.6327188],[41.0433713,42.6199415],[41.0773426,42.610478],[41.1127485,42.6045061],[41.1629931,42.6000221],[41.2222323,42.6011098],[41.234388,42.5927387],[41.236121,42.5663631],[41.2427845,42.5400593],[41.2542482,42.5146584],[41.266747,42.4955228],[41.2710519,42.4533966],[41.2801367,42.4274424],[41.2911629,42.4071719],[41.2904927,42.3813917],[41.2947039,42.3547355],[41.3037887,42.3287404],[41.3175778,42.3038918],[41.3358142,42.280654],[41.3616442,42.2567748],[41.3682068,42.2391439],[41.3813924,42.2152512],[41.3775535,42.1957193],[41.3768129,42.1688086],[41.3810241,42.1420624],[41.3901089,42.1159795],[41.4144665,42.0593539],[41.4305167,42.0351562],[41.4492796,42.0144088],[41.4605859,41.9944107],[41.4805433,41.9692983],[41.4880244,41.9485128],[41.5010289,41.9248093],[41.5076815,41.8928224],[41.5043291,41.8526957],[41.4872494,41.8239572],[41.4647616,41.8123562],[41.4377149,41.794282],[41.4142216,41.7736246],[41.3877242,41.7403454],[41.3649421,41.7227404],[41.3433941,41.7009112],[41.3260286,41.6770864],[41.3131692,41.6517081],[41.3041535,41.6197879],[41.2994398,41.612],[41.5462276,41.520983],[41.571783,41.519783],[41.585204,41.508705],[41.618025,41.501696],[41.635406,41.486733],[41.665694,41.482557],[41.693816,41.489178],[41.7097151,41.4956213],[41.71613,41.4899077],[41.710354,41.473653],[41.746889,41.471383],[41.774381,41.46076],[41.78688,41.461247],[41.788788,41.450297],[41.805968,41.445791],[41.823994,41.43136],[41.84494,41.440488],[41.847343,41.448603],[41.881394,41.460353],[41.892625,41.479744],[41.911428,41.499309],[41.933565,41.50843],[41.955316,41.5233],[41.984769,41.521973],[41.99448,41.504775],[42.027002,41.499996],[42.042902,41.494141],[42.08479,41.510166],[42.110361,41.511132],[42.127287,41.505337],[42.159163,41.506769],[42.17823,41.514602],[42.196404,41.506586],[42.202849,41.491823],[42.225908,41.498785],[42.262769,41.49162],[42.274307,41.494226],[42.293659,41.489636],[42.317421,41.479057],[42.329555,41.467906],[42.348559,41.471547],[42.384983,41.463172],[42.399614,41.466751],[42.416098,41.458937],[42.439242,41.44163],[42.472873,41.435623],[42.489646,41.440335],[42.519625,41.436738],[42.520686,41.447188],[42.512774,41.472079],[42.526439,41.47972],[42.532349,41.49064],[42.544911,41.493013],[42.557769,41.504515],[42.572898,41.509911],[42.564778,41.525278],[42.580754,41.543211],[42.573749,41.557961],[42.577102,41.565989],[42.591309,41.573697],[42.600945,41.584851],[42.6603274,41.5927009],[42.684129,41.5998375],[42.713653,41.595541],[42.740135,41.596111],[42.7533576,41.5853176],[42.7705321,41.5844965],[42.7746387,41.578535],[42.794374,41.588498],[42.8271487,41.5907469],[42.8365871,41.5848074],[42.8293295,41.5577655],[42.818973,41.552649],[42.816916,41.539593],[42.799226,41.520945],[42.804119,41.507609],[42.801563,41.496859],[42.823988,41.486595],[42.828712,41.479915],[42.850967,41.470821],[42.858424,41.473338],[42.862741,41.49185],[42.877189,41.502974],[42.900942,41.5003],[42.89941,41.478982],[42.930326,41.47067],[42.943265,41.457611],[42.967043,41.451539],[42.971365,41.430863],[42.989095,41.4245173],[42.9906426,41.4109729],[43.003645,41.406719],[43.021534,41.378729],[43.03252,41.370816],[43.042722,41.376845],[43.060552,41.366324],[43.096154,41.357131],[43.108759,41.349472],[43.132178,41.321121],[43.1594162,41.3160935],[43.165944,41.309104],[43.1884358,41.3040756],[43.1986739,41.3086032],[43.2133065,41.3054909],[43.212588,41.290319],[43.186427,41.281345],[43.1805561,41.273768],[43.162534,41.270676],[43.1510179,41.2619195],[43.1322162,41.2557935],[43.1471093,41.246284],[43.176653,41.254578],[43.19263,41.253229],[43.2011971,41.2345313],[43.231043,41.1919638],[43.246875,41.177148],[43.264484,41.179701],[43.292901,41.189285],[43.305784,41.189796],[43.329215,41.200549],[43.367357,41.203384],[43.382807,41.200669],[43.4116,41.186982],[43.44848,41.176399],[43.463506,41.148642],[43.474145,41.123038],[43.50064,41.12828],[43.508069,41.13414],[43.529558,41.133599],[43.539293,41.139257],[43.5681211,41.1451261],[43.591024,41.139501],[43.596905,41.129479],[43.632805,41.129054],[43.667929,41.135845],[43.684596,41.133751],[43.701632,41.12566],[43.718259,41.122205],[43.750739,41.109326],[43.786281,41.134558],[43.8147567,41.1493328],[43.8574492,41.1630428],[43.879804,41.163685],[43.938712,41.176241],[43.963562,41.164791],[43.979573,41.174361],[44.0095025,41.1851641],[44.0306553,41.1893411],[44.055288,41.190562],[44.0887064,41.2023595],[44.0909476,41.1896542],[44.125258,41.1860463],[44.162065,41.189045],[44.174295,41.208862],[44.18588,41.243369],[44.216429,41.232982],[44.236639,41.238948],[44.248873,41.233316],[44.271137,41.212696],[44.286016,41.2085172],[44.295291,41.214377],[44.316752,41.21274],[44.323691,41.205303],[44.345316,41.202484],[44.344727,41.226335],[44.362197,41.226434],[44.386578,41.221325],[44.411319,41.201788],[44.436301,41.193345],[44.45644,41.190027],[44.462978,41.181696],[44.47646,41.181876],[44.511005,41.195276],[44.513823,41.204121],[44.527629,41.214188],[44.5520385,41.1963993],[44.585828,41.2114438],[44.583612,41.19657],[44.594965,41.193275],[44.603178,41.21613],[44.6035196,41.2317495],[44.6108542,41.2411554],[44.6389425,41.2343328],[44.6841645,41.2388106],[44.6811541,41.2247089],[44.7011919,41.2176843],[44.7227523,41.2159597],[44.7332164,41.2043739],[44.7493315,41.2200584],[44.7915416,41.2208614],[44.8075634,41.2155488],[44.8404544,41.2167675],[44.8480405,41.2096171],[44.8830661,41.2042932],[44.895452,41.2115298],[44.8915029,41.2216179],[44.8666445,41.2181422],[44.8623105,41.2243078],[44.843685,41.2301865],[44.8286001,41.2291587],[44.8144334,41.2379347],[44.80353,41.261684],[44.809198,41.271586],[44.808126,41.291133],[44.8180371,41.3011286],[44.8302979,41.2986704],[44.8480243,41.2827326],[44.8468244,41.2747508],[44.870611,41.276698],[44.887291,41.267559],[44.898363,41.274106],[44.9114268,41.2570709],[44.93382,41.2590524],[44.9615115,41.2561534],[44.964526,41.2663195],[44.977893,41.281052],[44.992568,41.284646],[45.022581,41.3053363],[45.046446,41.3110181],[45.0469829,41.3196902],[45.0586545,41.3268913],[45.0732893,41.3282879],[45.0797336,41.3454636],[45.092025,41.3391635],[45.1723983,41.4123222],[45.178448,41.4237977],[45.1963755,41.4167625],[45.2328278,41.4357673],[45.249072,41.446324],[45.259407,41.467336],[45.2881599,41.4627876],[45.310199,41.472944],[45.341601,41.4599559],[45.3639732,41.453662],[45.391266,41.42738],[45.4276479,41.4301871],[45.439608,41.4460188],[45.4543687,41.4555036],[45.4942981,41.4353543],[45.516659,41.420549],[45.52729,41.419617],[45.564103,41.407136],[45.580952,41.389057],[45.576732,41.375977],[45.601101,41.373733],[45.628511,41.379121],[45.6461082,41.3789346],[45.667424,41.362003],[45.682905,41.355163],[45.706958,41.360906],[45.729363,41.358705],[45.760773,41.351429],[45.755942,41.339096],[45.740528,41.344024],[45.700654,41.297772],[45.735765,41.267876],[45.741317,41.258493],[45.756634,41.253418],[45.771784,41.241571],[45.817098,41.221967],[45.865526,41.212979],[45.886784,41.210815],[45.913715,41.190585],[45.953168,41.177856],[46.004046,41.179602],[46.024102,41.186256],[46.050212,41.186197],[46.065158,41.189828],[46.097871,41.171974],[46.1104083,41.179279],[46.122122,41.195735],[46.146849,41.20556],[46.17297,41.201352],[46.252188,41.1824543],[46.2799193,41.189421],[46.2913823,41.173807],[46.3685673,41.1193479],[46.3692873,41.1053249],[46.3869553,41.1014629],[46.4339411,41.1043769],[46.4580206,41.0990443],[46.4693673,41.0655098],[46.4924919,41.0551284],[46.5014247,41.0595222],[46.5498283,41.1125619],[46.5796183,41.1113909],[46.6036823,41.0989289],[46.6308951,41.0976669],[46.6393393,41.1016006],[46.6453812,41.1185241],[46.6597582,41.1312493],[46.653742,41.1374472],[46.6566415,41.152097],[46.6538659,41.1677484],[46.6683693,41.1903462],[46.6567357,41.2010863],[46.6672853,41.2187522],[46.6895147,41.231708],[46.6998195,41.241728],[46.6994694,41.2640049],[46.7146963,41.2689318],[46.7146272,41.2778598],[46.7292005,41.2780897],[46.729432,41.2907288],[46.700949,41.2950699],[46.6967761,41.3192563],[46.6882692,41.3271859],[46.6879654,41.3399374],[46.6730705,41.3373895],[46.6491036,41.3543126],[46.6306483,41.3598152],[46.6398285,41.3759073],[46.6163573,41.3905719],[46.5932726,41.3978757],[46.5791623,41.3978007],[46.5700324,41.40536],[46.5465223,41.4065814],[46.5225875,41.4112822],[46.5086418,41.4189453],[46.4848041,41.4246473],[46.4767053,41.4364282],[46.4672728,41.4331292],[46.4502775,41.4465463],[46.4255352,41.4562851],[46.4258758,41.4716579],[46.4105224,41.4816839],[46.4036947,41.4718061],[46.3850921,41.4887065],[46.3578947,41.4891728],[46.331042,41.5014076],[46.3216952,41.5329497],[46.3054945,41.544684],[46.3072209,41.5573942],[46.2974177,41.5718515],[46.3205317,41.580691],[46.3391811,41.5785962],[46.341483,41.5909634],[46.3244421,41.6065237],[46.3138243,41.6107208],[46.2974022,41.5969713],[46.2807636,41.5995479],[46.2665838,41.608731],[46.2795111,41.6137737],[46.2667312,41.6316238],[46.2536784,41.6235278],[46.2457333,41.5963716],[46.2204395,41.6078322],[46.2071446,41.6230107],[46.1955336,41.6297614],[46.2022297,41.6377296],[46.1950425,41.6487407],[46.2077112,41.6532963],[46.1865371,41.6878197],[46.1795577,41.7143673],[46.1812843,41.7342903],[46.1986035,41.7499712],[46.2046163,41.7727968],[46.2164071,41.7633536],[46.2419184,41.7562534],[46.2527208,41.7700508],[46.3044494,41.7756693],[46.3029235,41.7860402],[46.3251115,41.7968015],[46.3379687,41.80965],[46.3606578,41.8247329],[46.3745816,41.8278088],[46.3959192,41.8420267],[46.4023822,41.8568698],[46.4158989,41.8714019],[46.4091361,41.8865169],[46.4263886,41.9130046],[46.4204008,41.9212699],[46.4069536,41.9187062],[46.3995135,41.9401964],[46.3682822,41.934063],[46.338853,41.946056],[46.3207245,41.9294315],[46.31145,41.936276],[46.282439,41.945439],[46.275469,41.965852],[46.2660484,41.9745586],[46.2458748,41.979075],[46.2562329,42.002251],[46.2430056,42.0072367],[46.2369535,42.016045],[46.2015701,42.0070331],[46.192578,41.999335],[46.178806,41.999018],[46.161577,41.990417],[46.150739,41.994943],[46.150327,42.0078973],[46.133048,42.00774],[46.113771,41.996168],[46.109218,41.986403],[46.094678,41.994918],[46.085935,42.005384],[46.082966,42.029893],[46.072682,42.040617],[46.058457,42.027383],[46.038718,42.020105],[46.023431,42.026266],[46.02228,42.040847],[46.006904,42.036968],[45.987334,42.045341],[45.964935,42.027346],[45.954341,42.023821],[45.929455,42.031942],[45.934246,42.043835],[45.928882,42.056011],[45.913961,42.062212],[45.912556,42.071617],[45.9212725,42.0808363],[45.9134084,42.0953854],[45.8971418,42.106466],[45.8786487,42.1041131],[45.85526,42.113741],[45.822892,42.106133],[45.8035469,42.1168081],[45.78603,42.102069],[45.769484,42.116897],[45.767012,42.127264],[45.748371,42.127274],[45.738998,42.135865],[45.747982,42.146101],[45.727885,42.152941],[45.7196615,42.1653046],[45.6720941,42.1853878],[45.647516,42.186408],[45.62144,42.209855],[45.6084413,42.2121819],[45.608972,42.233808],[45.6213,42.242386],[45.618165,42.25055],[45.6327547,42.2638907],[45.6520716,42.292134],[45.6698215,42.2828131],[45.6927515,42.2879452],[45.7007919,42.2956641],[45.720184,42.289223],[45.7383334,42.293453],[45.7535706,42.3093891],[45.7545012,42.3230386],[45.7425062,42.3334563],[45.741855,42.360528],[45.734701,42.378317],[45.752114,42.397767],[45.77459,42.428526],[45.7812077,42.4468663],[45.773453,42.4604675],[45.7751396,42.4882888],[45.7330222,42.4797711],[45.7212551,42.4755818],[45.6997033,42.4810054],[45.6872802,42.5024717],[45.6659164,42.5052987],[45.6506979,42.4988975],[45.6330445,42.5101852],[45.6137652,42.5054206],[45.5963671,42.5172903],[45.5962351,42.5298401],[45.571454,42.5482357],[45.542345,42.5377484],[45.5225163,42.5451286],[45.510933,42.5373901],[45.4936385,42.5351056],[45.452499,42.5457453],[45.435394,42.5407548],[45.4186676,42.5513718],[45.4012909,42.5468911],[45.3953475,42.5376495],[45.3544113,42.5219691],[45.3338369,42.5267951],[45.3254703,42.5473574],[45.3250407,42.5642484],[45.2955365,42.5748504],[45.2813342,42.5898598],[45.2795291,42.6057422],[45.2559865,42.6057664],[45.2514253,42.6204546],[45.2382676,42.6398054],[45.2173535,42.6604949],[45.1907911,42.6688572],[45.1706064,42.6870505],[45.1583732,42.7075304],[45.1204736,42.7086607],[45.1069659,42.7041726],[45.0866131,42.7117542],[45.071381,42.7050089],[45.0655931,42.6965313],[45.0347448,42.6927319],[45.0294019,42.7043636],[45.0058385,42.7153636],[44.979751,42.744936],[44.9460107,42.7509297],[44.8861563,42.7467916],[44.8706317,42.7280716],[44.8700577,42.7105778],[44.8639047,42.7044757],[44.8689902,42.6914378],[44.8563999,42.6767683],[44.8353875,42.6727494],[44.8298836,42.6462393],[44.8226255,42.6332878],[44.829035,42.617159],[44.803788,42.61473],[44.777525,42.638723],[44.766573,42.642795],[44.7573022,42.6723446],[44.747443,42.687722],[44.744617,42.700113],[44.7528491,42.7140979],[44.7413422,42.7274122],[44.7300387,42.728546],[44.714347,42.7420096],[44.6984681,42.742506],[44.6799687,42.7559099],[44.665638,42.749013],[44.637881,42.745517],[44.597123,42.748679],[44.580175,42.744751],[44.562972,42.755492],[44.545481,42.7582998],[44.5298946,42.7528737],[44.5100731,42.7525586],[44.5001,42.733924],[44.5120954,42.7222914],[44.519144,42.705231],[44.509181,42.697569],[44.4696307,42.7085675],[44.4277667,42.7172547],[44.394207,42.7063994],[44.3794003,42.7155839],[44.3636191,42.7159225],[44.3525577,42.7109995],[44.3194646,42.7228418],[44.3091762,42.7192629],[44.3016125,42.7067447],[44.2491735,42.6803528],[44.2412832,42.6672174],[44.2405419,42.6542154],[44.2310537,42.6413102],[44.2327853,42.6286822],[44.1985503,42.6310532],[44.1627689,42.6062058],[44.149096,42.6042734],[44.1163214,42.6180722],[44.0857311,42.6051545],[44.0659168,42.600756],[44.0525764,42.6038193],[44.021778,42.597196],[44.0100156,42.5902753],[43.991369,42.5670611],[43.9594236,42.5510446],[43.93867,42.5611419],[43.9197239,42.5659085],[43.91005,42.5753168],[43.8774416,42.5799091],[43.865799,42.589984],[43.8345963,42.5981334],[43.816521,42.593696],[43.8088187,42.5992705],[43.7886283,42.5960218],[43.7695396,42.5891344],[43.753345,42.599648],[43.7544819,42.6163803],[43.7436848,42.6185477],[43.7155349,42.6374941],[43.7369805,42.6489526],[43.7592592,42.656294],[43.7778782,42.6768181],[43.786968,42.698261],[43.807798,42.7213763],[43.8083787,42.7374915],[43.771051,42.760679],[43.7093502,42.7761466],[43.6897731,42.7868189],[43.6892581,42.7997462],[43.6523053,42.7951723],[43.644369,42.79773],[43.6383068,42.812482],[43.60891,42.813681],[43.611603,42.831522],[43.591772,42.843617],[43.5854673,42.8525415],[43.5610472,42.8677058],[43.52289,42.865569],[43.4980143,42.8705275],[43.4782112,42.8857913],[43.458801,42.887526],[43.442468,42.893693],[43.415157,42.891556],[43.3901817,42.8993462],[43.356879,42.88978],[43.340008,42.889536],[43.326816,42.908345],[43.317549,42.914819],[43.3003884,42.9073332],[43.2906593,42.9180017],[43.2383354,42.9241614],[43.227237,42.932062],[43.2049107,42.930534],[43.18487,42.938667],[43.185238,42.946531],[43.173163,42.962769],[43.1428329,42.9699139],[43.1414865,42.9764804],[43.1158231,42.9931702],[43.1131333,42.9993155],[43.0897,42.9988701],[43.0696142,43.0139478],[43.0509247,43.0192119],[43.0386537,43.0387251],[43.026987,43.0478653],[43.0156191,43.0711493],[43.0418587,43.08615],[42.990075,43.119118],[42.9487893,43.1253097],[42.9338205,43.1220106],[42.9235515,43.1369087],[42.926429,43.150514],[42.8848475,43.1559766],[42.877524,43.1696916],[42.8529903,43.1789178],[42.8191465,43.1716742],[42.7968999,43.1731918],[42.7955485,43.1807795],[42.7766211,43.1887713],[42.7499367,43.1876888],[42.7406012,43.1776882],[42.7308459,43.1819391],[42.6979898,43.1721141],[42.6796743,43.1727039],[42.6801472,43.1572465],[42.6665346,43.136019],[42.6399284,43.1529846],[42.6168197,43.1637301],[42.5987024,43.1633883],[42.5763499,43.1747392],[42.5432518,43.1765921],[42.5098048,43.1993396],[42.4949947,43.2000992],[42.4721394,43.2066004],[42.4477104,43.2198225],[42.444023,43.2283925],[42.452077,43.2376181],[42.4421403,43.2508457],[42.4114453,43.2563051],[42.4103252,43.2503387],[42.3870202,43.2436754],[42.3582034,43.2468494],[42.350229,43.2303498],[42.3363982,43.2192634],[42.3209613,43.2209982],[42.2845943,43.2125287],[42.2528331,43.2122551],[42.2464113,43.2280967],[42.2161937,43.2309824],[42.1967167,43.2268355],[42.1821305,43.2154637],[42.1698169,43.2213772],[42.135305,43.216986],[42.1315851,43.211079],[42.1097305,43.2082913],[42.0954182,43.2139761],[42.0578339,43.1961466],[42.0478126,43.1871686],[42.037983,43.1881682],[42.0357511,43.2004011],[42.0238762,43.213356],[41.9700577,43.2127041],[41.9587394,43.2031988],[41.9458619,43.2144193],[41.9452532,43.2224344],[41.9034232,43.2285736],[41.9024629,43.235429],[41.8860082,43.251848],[41.8616823,43.2406412],[41.8590441,43.2286251],[41.8483786,43.2115127],[41.830688,43.2147],[41.803944,43.2020382],[41.7833558,43.2211455],[41.7731522,43.2182562],[41.745493,43.237071],[41.7221704,43.239872],[41.703798,43.2207052],[41.6843429,43.2169829],[41.6767194,43.2276999],[41.6583094,43.2381211],[41.6352765,43.2215975],[41.6216203,43.221987],[41.5924413,43.2362957],[41.5834875,43.2374197],[41.5765113,43.2534693],[41.5618286,43.2493446],[41.5437128,43.2703267],[41.5159436,43.2737999],[41.4882124,43.2860186],[41.4587094,43.3095742],[41.435402,43.307624],[41.413149,43.324283],[41.4095568,43.3324404],[41.4115686,43.3572822],[41.393641,43.366229],[41.362827,43.368351],[41.3584481,43.3590281],[41.340786,43.347482],[41.3228516,43.3481415],[41.3167734,43.3394576],[41.2879972,43.3370028],[41.2749101,43.3475889],[41.276751,43.359219],[41.2584086,43.3648004],[41.2387977,43.3616851],[41.2209226,43.3807219],[41.2060794,43.3804792],[41.181004,43.386189],[41.167984,43.383377],[41.154319,43.390776],[41.1508801,43.4048219],[41.1309561,43.3988259],[41.0986334,43.3989059],[41.09214,43.386054],[41.069143,43.389041],[41.039315,43.399402],[41.036973,43.4069789],[41.013964,43.420329],[41.0042948,43.4322223],[40.9833101,43.4303392],[40.9784269,43.4251599],[40.9499382,43.4197253],[40.929245,43.42867],[40.929268,43.443885],[40.8933288,43.4571401],[40.8995783,43.4669531],[40.897316,43.478058],[40.8704706,43.4871047],[40.8278328,43.4879599],[40.8167142,43.4946383],[40.7773671,43.5053548],[40.7559412,43.5198044],[40.7366149,43.5277953],[40.6999366,43.5334063],[40.688739,43.5382861],[40.6922026,43.5478979],[40.6766601,43.5509916],[40.6617756,43.5630484],[40.6318553,43.549472],[40.6072645,43.5465639],[40.5952939,43.5316556],[40.5662982,43.5191571],[40.5233013,43.5205008],[40.5054097,43.5248753],[40.4778211,43.5491264],[40.4666272,43.5460823],[40.4331131,43.5576831],[40.4098698,43.5520754],[40.371183,43.5580886],[40.3546485,43.5644531],[40.3282462,43.5664539],[40.3201285,43.5754485],[40.3058377,43.5777453],[40.2994433,43.5702445],[40.2614195,43.5855907],[40.2421635,43.5864294],[40.2136217,43.5746703],[40.1572621,43.5745557],[40.130665,43.5650393],[40.1038511,43.5681921],[40.0906936,43.555579],[40.0957854,43.532063],[40.0899135,43.5235107],[40.0634995,43.5052932],[40.0443855,43.4750713],[40.0420695,43.4535193],[40.0359617,43.4449763],[40.010543,43.423168],[40.0152033,43.4159293],[40.0084139,43.4052174],[40.0085526,43.3855385],[39.8844803,43.2244305]
            ]
        ]
    }
}
