{
    "type": "Feature",
    "properties": {
        "attribution": {
            "url": "https://data.melbourne.vic.gov.au/explore/dataset/2020-aerial-imagery-true-ortho/information/",
            "text": "City of Melbourne",
            "required": true
        },
        "license_url": "https://wiki.openstreetmap.org/wiki/File:City_of_Melbourne_OSMF_CCBY_waiver.pdf",
        "privacy_policy_url": "https://osmfoundation.org/wiki/Privacy_Policy",
        "name": "City of Melbourne May 2020",
        "url": "https://act-vic-melbourne-imagery.openstreetmap.org/layer/melbourne_2020/{zoom}/{x}/{y}.webp",
        "max_zoom": 23,
        "min_zoom": 7,
        "country_code": "AU",
        "type": "tms",
        "id": "City_of_Melbourne_May_2020",
        "start_date": "2020-05",
        "end_date": "2020-05",
        "icon": "https://www.melbourne.vic.gov.au/themes/custom/com/images/logo.svg",
        "category": "photo",
        "best": true
    },
    "geometry": {
        "type": "Polygon",
        "coordinates": [
            [
                [
                    144.905608010647882,
                    -37.820979503791079
                ],
                [
                    144.903970924775962,
                    -37.814189974915337
                ],
                [
                    144.904789467711964,
                    -37.809986620292563
                ],
                [
                    144.907449732253781,
                    -37.802711017958011
                ],
                [
                    144.910621586130645,
                    -37.799153795943091
                ],
                [
                    144.912054036268557,
                    -37.795919809087884
                ],
                [
                    144.90253847463805,
                    -37.791796270517793
                ],
                [
                    144.901719931702104,
                    -37.789532269127399
                ],
                [
                    144.90652887145086,
                    -37.781769452020093
                ],
                [
                    144.913077214938454,
                    -37.778130350813491
                ],
                [
                    144.921671915765984,
                    -37.786378723020164
                ],
                [
                    144.93814509235213,
                    -37.788157663010857
                ],
                [
                    144.939065953155051,
                    -37.786783031323836
                ],
                [
                    144.936098735012195,
                    -37.777725995175963
                ],
                [
                    144.93783813875109,
                    -37.775138066721404
                ],
                [
                    144.962292108962799,
                    -37.777159893567671
                ],
                [
                    144.965566280706611,
                    -37.783791097498202
                ],
                [
                    144.970579856189289,
                    -37.785165784837538
                ],
                [
                    144.96996594898738,
                    -37.790906849673135
                ],
                [
                    144.976616610342006,
                    -37.79228140464776
                ],
                [
                    144.974672570869103,
                    -37.807399821584845
                ],
                [
                    144.992475879726129,
                    -37.80861239476225
                ],
                [
                    144.984904357568553,
                    -37.851847816572679
                ],
                [
                    144.980197735686801,
                    -37.851363073815584
                ],
                [
                    144.973854027933157,
                    -37.835364774978792
                ],
                [
                    144.970068266854355,
                    -37.831405064336984
                ],
                [
                    144.965873234307594,
                    -37.832698054445082
                ],
                [
                    144.96137124815985,
                    -37.829627165939797
                ],
                [
                    144.957380851347068,
                    -37.829223092147672
                ],
                [
                    144.942033171297908,
                    -37.826556149623151
                ],
                [
                    144.928527212854647,
                    -37.827930041142942
                ],
                [
                    144.922592776568962,
                    -37.830273679404584
                ],
                [
                    144.915021254411357,
                    -37.834152641231256
                ],
                [
                    144.916862976017256,
                    -37.83875864351689
                ],
                [
                    144.915123572278389,
                    -37.842313957364041
                ],
                [
                    144.915737479480327,
                    -37.844657138699404
                ],
                [
                    144.915225890145393,
                    -37.849585656439395
                ],
                [
                    144.911951718401525,
                    -37.849989618696434
                ],
                [
                    144.906221917849876,
                    -37.84990882642208
                ],
                [
                    144.901719931702104,
                    -37.84716183642032
                ],
                [
                    144.895887813283423,
                    -37.839970701581635
                ],
                [
                    144.896604038352365,
                    -37.831647501708296
                ],
                [
                    144.900696753032179,
                    -37.825747966192111
                ],
                [
                    144.905812646381889,
                    -37.820817855598932
                ],
                [
                    144.905812646381889,
                    -37.820817855598932
                ]
            ]
        ]
    }
}
