{
    "type": "Feature",
    "properties": {
        "id": "NRCS_American_Samoa_2022",
        "attribution": {
            "url": "https://www.nrcs.usda.gov/",
            "text": "U.S. Department of Agriculture",
            "required": false
        },
        "name": "NRCS American Samoa Imagery (2022)",
        "type": "wms",
        "url": "https://apps.geo.fpac.usda.gov/nrcs-imagery/rest/services/ortho_imagery/american_samoa_vivid_2022_30cm/ImageServer/exportImage?f=image&format=jpg&bbox={bbox}&bboxSR={wkid}&imageSR={wkid}&size={width},{height}",
        "start_date": "2018-04-07",
        "end_date": "2022-06-10",
        "max_zoom": 20,
        "min_zoom": 12,
        "license_url": "https://www.usda.gov/policies-and-links/",
        "country_code": "AS",
        "available_projections": [
            "CRS:84",
            "EPSG:4326",
            "EPSG:3857"
        ],
        "icon": "https://osmlab.github.io/editor-layer-index/sources/north-america/us/USDA.png",
        "category": "historicphoto",
        "privacy_policy_url": "https://www.usda.gov/privacy-policy",
        "valid-georeference": true
    },
    "geometry": {
        "type": "Polygon",
        "coordinates": [
            [
                [
                    -171.01724134405018,
                    -14.734243505717942
                ],
                [
                    -167.94045959468005,
                    -14.771590987059534
                ],
                [
                    -167.8632182118507,
                    -10.805330809160186
                ],
                [
                    -171.33908043917253,
                    -10.855907794031241
                ],
                [
                    -171.01724134405018,
                    -14.734243505717942
                ]
            ]
        ]
    }
}