{
    "type": "Feature",
    "properties": {
        "id": "npi-svalbard-topo",
        "name": "NPI Svalbard topo",
        "category": "map",
        "description": "Topographic map for Svalbard from the Norwegian Polar Institute",
        "type": "wmts",
        "icon": "https://www.npolar.no/wp-content/uploads/2022/05/NP-logo-engelsk-skjerm.png",
        "url": "https://geodata.npolar.no/arcgis/rest/services/Basisdata/NP_Basiskart_Svalbard_WMTS_25833/MapServer/WMTS/",
        "max_zoom": 13,
        "license_url": "https://web.archive.org/web/20240523100200/https://lists.nuug.no/pipermail/kart/2018-February/006371.html",
        "privacy_policy_url": "https://npolar.no/en/privacy-policy/",
        "attribution": {
            "text": "© Norwegian Polar Institute",
            "url": "https://geodata.npolar.no/"
        },
        "country_code": "NO",
        "available_projections": [
            "EPSG:25833"
        ]
    },
    "geometry": {
        "type": "Polygon",
        "coordinates": [
            [
                [
                    7.4669939,
                    81.0811603
                ],
                [
                    10.7583345,
                    74.0418535
                ],
                [
                    27.176869,
                    73.7368894
                ],
                [
                    36.0451704,
                    80.5407794
                ],
                [
                    21.92889,
                    81.0912494
                ],
                [
                    7.4669939,
                    81.0811603
                ]
            ]
        ]
    }
}