{
    "type": "Feature",
    "properties": {
        "id": "ac3-flynorth-valle-del-cauca-2026",
        "name": "AC3 Fly North Valle del Cauca (sismo 2026)",
        "type": "tms",
        "description": "Ortofotos de dron de alta resolucion (~2-5 cm/px) capturadas por Fly North tras el sismo del 10 de agosto de 2026, en municipios del Valle del Cauca. Publicadas por AC3 para mapear el post-desastre en OpenStreetMap. Verificar alineacion con trazas GPS antes de mapear (sin garantia de exactitud posicional).",
        "url": "https://geoserver.osm.lat/geoserver/gwc/service/tms/1.0.0/FlyNorth:FlyNorth-ValleDelCauca@EPSG:900913@png/{zoom}/{x}/{-y}.png",
        "country_code": "CO",
        "start_date": "2026-08",
        "end_date": "2026-08",
        "min_zoom": 8,
        "max_zoom": 22,
        "available_projections": [
            "EPSG:3857"
        ],
        "attribution": {
            "required": true,
            "text": "Ortofotos © Fly North S.A.S. — flynorthgroup.com (2026)",
            "url": "https://flynorthgroup.com"
        },
        "permission_osm": "explicit",
        "license_url": "https://wiki.openstreetmap.org/w/images/2/21/FlyNorth_permission_to_use_orthophotos.pdf",
        "privacy_policy_url": "https://www.ac3.org.co/",
        "category": "photo"
    },
    "geometry": {
        "type": "MultiPolygon",
        "coordinates": [
            [
                [
                    [
                        -76.1655106,
                        4.2191281
                    ],
                    [
                        -76.1654778,
                        4.1970621
                    ],
                    [
                        -76.1488079,
                        4.1970868
                    ],
                    [
                        -76.1488402,
                        4.219153
                    ],
                    [
                        -76.1655106,
                        4.2191281
                    ]
                ]
            ],
            [
                [
                    [
                        -76.4748782,
                        3.9758266
                    ],
                    [
                        -76.4748547,
                        3.9625977
                    ],
                    [
                        -76.4596479,
                        3.9626248
                    ],
                    [
                        -76.4596711,
                        3.9758538
                    ],
                    [
                        -76.4748782,
                        3.9758266
                    ]
                ]
            ],
            [
                [
                    [
                        -76.4356618,
                        3.9771407
                    ],
                    [
                        -76.4356369,
                        3.9627621
                    ],
                    [
                        -76.4231093,
                        3.9627838
                    ],
                    [
                        -76.423134,
                        3.9771624
                    ],
                    [
                        -76.4356618,
                        3.9771407
                    ]
                ]
            ],
            [
                [
                    [
                        -76.4228881,
                        3.9729038
                    ],
                    [
                        -76.4228713,
                        3.9630862
                    ],
                    [
                        -76.4108752,
                        3.9631068
                    ],
                    [
                        -76.4108918,
                        3.9729244
                    ],
                    [
                        -76.4228881,
                        3.9729038
                    ]
                ]
            ],
            [
                [
                    [
                        -76.4454849,
                        3.98951
                    ],
                    [
                        -76.4454408,
                        3.9641594
                    ],
                    [
                        -76.4222036,
                        3.9641998
                    ],
                    [
                        -76.4222471,
                        3.9895507
                    ],
                    [
                        -76.4454849,
                        3.98951
                    ]
                ]
            ],
            [
                [
                    [
                        -76.4958166,
                        3.9472993
                    ],
                    [
                        -76.495765,
                        3.9183704
                    ],
                    [
                        -76.4714136,
                        3.9184137
                    ],
                    [
                        -76.4714644,
                        3.9473429
                    ],
                    [
                        -76.4958166,
                        3.9472993
                    ]
                ]
            ],
            [
                [
                    [
                        -76.0454466,
                        4.9146963
                    ],
                    [
                        -76.0454302,
                        4.9041696
                    ],
                    [
                        -76.0373035,
                        4.9041822
                    ],
                    [
                        -76.0373198,
                        4.914709
                    ],
                    [
                        -76.0454466,
                        4.9146963
                    ]
                ]
            ],
            [
                [
                    [
                        -76.2299117,
                        4.7701809
                    ],
                    [
                        -76.2298678,
                        4.7454649
                    ],
                    [
                        -76.2093892,
                        4.7455011
                    ],
                    [
                        -76.2094323,
                        4.7702173
                    ],
                    [
                        -76.2299117,
                        4.7701809
                    ]
                ]
            ],
            [
                [
                    [
                        -76.093258,
                        4.3254908
                    ],
                    [
                        -76.0932413,
                        4.3138303
                    ],
                    [
                        -76.0667478,
                        4.313868
                    ],
                    [
                        -76.0667641,
                        4.3255286
                    ],
                    [
                        -76.093258,
                        4.3254908
                    ]
                ]
            ],
            [
                [
                    [
                        -76.3773804,
                        3.9010843
                    ],
                    [
                        -76.3773786,
                        3.9000071
                    ],
                    [
                        -76.3762384,
                        3.900009
                    ],
                    [
                        -76.3762401,
                        3.9010862
                    ],
                    [
                        -76.3773804,
                        3.9010843
                    ]
                ]
            ],
            [
                [
                    [
                        -76.5320245,
                        3.8287921
                    ],
                    [
                        -76.5319953,
                        3.8123166
                    ],
                    [
                        -76.5154163,
                        3.812346
                    ],
                    [
                        -76.5154452,
                        3.8288217
                    ],
                    [
                        -76.5320245,
                        3.8287921
                    ]
                ]
            ],
            [
                [
                    [
                        -76.2939317,
                        4.164012
                    ],
                    [
                        -76.2939317,
                        4.1506299
                    ],
                    [
                        -76.2824845,
                        4.1506299
                    ],
                    [
                        -76.2824845,
                        4.164012
                    ],
                    [
                        -76.2939317,
                        4.164012
                    ]
                ]
            ],
            [
                [
                    [
                        -76.3250866,
                        4.2184861
                    ],
                    [
                        -76.3250238,
                        4.2037084
                    ],
                    [
                        -76.3136952,
                        4.2037568
                    ],
                    [
                        -76.3137578,
                        4.2185347
                    ],
                    [
                        -76.3250866,
                        4.2184861
                    ]
                ]
            ],
            [
                [
                    [
                        -76.0821675,
                        4.4058599
                    ],
                    [
                        -76.0821322,
                        4.3813834
                    ],
                    [
                        -76.0618274,
                        4.3814126
                    ],
                    [
                        -76.061862,
                        4.4058892
                    ],
                    [
                        -76.0821675,
                        4.4058599
                    ]
                ]
            ]
        ]
    }
}