{
    "type": "Feature",
    "properties": {
        "id": "Niedersachsen-DOP20",
        "name": "Niedersachsen GeoBasis-DE/LGLN (latest) / DOP20",
        "icon": "https://osmlab.github.io/editor-layer-index/sources/europe/de/Niedersachsen.png",
        "type": "wms",
        "category": "photo",
        "url": "https://opendata.lgln.niedersachsen.de/doorman/noauth/dop_wms?FORMAT=image/png&TRANSPARENT=TRUE&VERSION=1.3.0&SERVICE=WMS&REQUEST=GetMap&LAYERS=ni_dop20&STYLES=&CRS={proj}&WIDTH={width}&HEIGHT={height}&BBOX={bbox}",
        "best": true,
        "country_code": "DE",
        "available_projections": [
            "EPSG:25832",
            "EPSG:25833",
            "EPSG:4258",
            "EPSG:4326",
            "EPSG:3857",
            "EPSG:3035",
            "EPSG:3034",
            "EPSG:3044",
            "EPSG:3045",
            "EPSG:31466",
            "EPSG:31467",
            "EPSG:31468",
            "EPSG:31469",
            "EPSG:32632",
            "EPSG:32633",
            "EPSG:4647"
        ],
        "attribution": {
            "url": "https://www.lgln.niedersachsen.de/",
            "text": "Landesamt für Geoinformation und Landesvermessung Niedersachsen",
            "required": true
        },
        "privacy_policy_url": "https://www.lgln.niedersachsen.de/startseite/wir_uber_uns_amp_organisation/datenschutz/datenschutz-im-lgln-138166.html",
        "license_url": "https://wiki.openstreetmap.org/wiki/DE:Niedersachsen/Geoportal"
    },
    "geometry": {
        "type": "Polygon",
        "coordinates": [
          [
            [
              6.972331304211366,
              53.37516009029915
            ],
            [
              7.188875301415408,
              53.33324187671025
            ],
            [
              7.05432189354562,
              52.63917043918994
            ],
            [
              6.691460328588505,
              52.63562026354353
            ],
            [
              6.685619839181783,
              52.461239685337546
            ],
            [
              7.019212843419865,
              52.4362717628095
            ],
            [
              7.060217567770536,
              52.243190982384675
            ],
            [
              7.692286873422063,
              52.400580721735196
            ],
            [
              8.014152452206758,
              52.350564668260205
            ],
            [
              7.979037866096746,
              52.03487809544424
            ],
            [
              8.540856065176285,
              52.185841964215854
            ],
            [
              8.35357270710881,
              52.4255676552136
            ],
            [
              8.7222481277812,
              52.52893607197299
            ],
            [
              8.710548067067208,
              52.37200741599162
            ],
            [
              8.997294418528014,
              52.40415215114655
            ],
            [
              9.07338184091094,
              52.49688233374178
            ],
            [
              9.14360379954934,
              52.457673002742126
            ],
            [
              8.96217745660789,
              52.2647042218652
            ],
            [
              9.441983763764938,
              51.83650897704928
            ],
            [
              9.401004527829514,
              51.63724086014594
            ],
            [
              9.681839613805721,
              51.571848752126414
            ],
            [
              9.576475056702321,
              51.32761579567725
            ],
            [
              9.728548693229442,
              51.305731348051296
            ],
            [
              9.974279306034788,
              51.397060909683546
            ],
            [
              10.716908239550236,
              51.63024190475144
            ],
            [
              10.629936960321828,
              52.04209793363259
            ],
            [
              10.992786231097739,
              52.052887506978294
            ],
            [
              11.022115007805553,
              52.44697366023203
            ],
            [
              10.764632010832656,
              52.83757925013467
            ],
            [
              11.404460902023317,
              52.88966688148918
            ],
            [
              11.577831178214922,
              53.0299677679956
            ],
            [
              11.235331130164155,
              53.13441508578546
            ],
            [
              10.940300632725325,
              53.339425455709176
            ],
            [
              10.61153442320645,
              53.3714414774083
            ],
            [
              10.305539536699854,
              53.435029806091165
            ],
            [
              10.196069058904357,
              53.39154915418138
            ],
            [
              10.054969818312827,
              53.4607065191949
            ],
            [
              9.984425655525172,
              53.39962302300182
            ],
            [
              9.900241016306893,
              53.45247774206706
            ],
            [
              9.859304225568167,
              53.426674620443464
            ],
            [
              9.76139454267772,
              53.544627333581985
            ],
            [
              9.540632492463658,
              53.618950436261315
            ],
            [
              9.290285501489194,
              53.8585573800282
            ],
            [
              9.076352618291821,
              53.86661023081649
            ],
            [
              9.021731456624309,
              53.83707553284677
            ],
            [
              8.73952212134347,
              53.839761366632786
            ],
            [
              8.66669390578744,
              53.89612409106377
            ],
            [
              8.575705040090298,
              53.85182618993869
            ],
            [
              8.47096807647955,
              53.67426191410115
            ],
            [
              8.55289981898079,
              53.54734268908726
            ],
            [
              8.275242247171605,
              53.62030035993044
            ],
            [
              8.2228969672409,
              53.52028936389672
            ],
            [
              8.309380473213821,
              53.51352333176777
            ],
            [
              8.277518128907445,
              53.409189945568954
            ],
            [
              8.200138149878853,
              53.41054656816135
            ],
            [
              8.131861697795415,
              53.46206617159473
            ],
            [
              8.102275235224852,
              53.44851443666667
            ],
            [
              8.068137009183658,
              53.50404907154831
            ],
            [
              8.184206977726149,
              53.537875991305015
            ],
            [
              8.181931095990308,
              53.74565465028169
            ],
            [
              7.867859416403093,
              53.808863876351694
            ],
            [
              7.153944098484402,
              53.72630248865906
            ],
            [
              6.8119305724346475,
              53.6639617596131
            ],
            [
              6.614419576499273,
              53.59118601214004
            ],
            [
              6.730602515284858,
              53.54547561905932
            ],
            [
              7.023238292351408,
              53.50921719208483
            ],
            [
              6.972331304211366,
              53.37516009029915
            ]
          ],
          [
            [
              8.49255540157128,
              53.22896164324112
            ],
            [
              8.481307282869153,
              53.22579283527307
            ],
            [
              8.526963564911114,
              53.18814362552345
            ],
            [
              8.623562767791555,
              53.166721039000294
            ],
            [
              8.64870638532139,
              53.12148929097441
            ],
            [
              8.707592922014527,
              53.08414817467272
            ],
            [
              8.706264177770748,
              53.04956128456078
            ],
            [
              8.730743110769396,
              53.03285453443658
            ],
            [
              8.764494975604151,
              53.043592780277095
            ],
            [
              8.889529070181425,
              53.01056838452044
            ],
            [
              8.93716789252207,
              53.01215993662595
            ],
            [
              8.941134700838347,
              53.02449844966927
            ],
            [
              8.98148620288464,
              53.04439152228886
            ],
            [
              8.964974421248968,
              53.086532591245145
            ],
            [
              8.993429609635598,
              53.09567178527783
            ],
            [
              8.956376828062076,
              53.11314996649813
            ],
            [
              8.988781278370283,
              53.123472797530695
            ],
            [
              8.94444795653618,
              53.15244583232726
            ],
            [
              8.867053158195745,
              53.13300291574629
            ],
            [
              8.830000376621115,
              53.16236845464107
            ],
            [
              8.771112920190973,
              53.161178350334296
            ],
            [
              8.723442342020377,
              53.17979063416442
            ],
            [
              8.672509987451576,
              53.17741218565061
            ],
            [
              8.634806326057088,
              53.197623109978224
            ],
            [
              8.587178986543165,
              53.18931246108323
            ],
            [
              8.585855763587517,
              53.2174457268799
            ],
            [
              8.55873717142046,
              53.210703499087515
            ],
            [
              8.520358192527311,
              53.22854590628634
            ],
            [
              8.49255540157128,
              53.22896164324112
            ]
          ]
        ]
    }
}
