{
    "type": "Feature",
    "properties": {
        "attribution": {
            "required": true,
            "text": "© City of Tampere",
            "url": "https://www.tampere.fi/en"
        },
        "available_projections": [
            "CRS:84",
            "EPSG:2392",
            "EPSG:3034",
            "EPSG:3035",
            "EPSG:3046",
            "EPSG:3047",
            "EPSG:3067",
            "EPSG:3131",
            "EPSG:3857",
            "EPSG:3878",
            "EPSG:4123",
            "EPSG:4258",
            "EPSG:4326"
        ],
        "best": true,
        "country_code": "FI",
        "description": "Orthorectified aerial imagery of Tampere (excl. Teisko), Pirkkala (excl. airport) and Nokia (centre only). Taken in Apr-May 2025, resolution of this layer is 12.5 cm.",
        "icon": "https://www.tampere.fi/themes/custom/tampere/images/favicon-files/tre-favicon-96-x-96.png",
        "id": "tampere-aerial-2025",
        "license_url": "https://wiki.openstreetmap.org/w/images/5/5c/Tampere_wms_waiver.pdf",
        "privacy_policy_url": "https://www.tampere.fi/en/data-protection-and-information-management",
        "max_zoom": 20,
        "min_zoom": 4,
        "start_date": "2025-04",
        "end_date": "2025-05",
        "name": "Tampere aerial imagery 2025",
        "type": "wms",
        "url": "https://georaster.tampere.fi/geoserver/ows?SERVICE=WMS&VERSION=1.3.0&REQUEST=GetMap&FORMAT=image/png&TRANSPARENT=true&STYLES&LAYERS=georaster%3Atampere_2025_3878&CRS={proj}&WIDTH={width}&HEIGHT={height}&BBOX={bbox}",
        "category": "photo"
    },
    "geometry": {
        "type": "Polygon",
        "coordinates": [
            [
                [
                    23.5344159,
                    61.5343673
                ],
                [
                    23.5356276,
                    61.4911537
                ],
                [
                    23.4368433,
                    61.4907797
                ],
                [
                    23.4374060,
                    61.4591812
                ],
                [
                    23.5387551,
                    61.4595581
                ],
                [
                    23.5419927,
                    61.4593709
                ],
                [
                    23.5435692,
                    61.4547458
                ],
                [
                    23.5552583,
                    61.4499900
                ],
                [
                    23.5786905,
                    61.4467794
                ],
                [
                    23.5857812,
                    61.4450498
                ],
                [
                    23.5887754,
                    61.4438130
                ],
                [
                    23.6005852,
                    61.4323036
                ],
                [
                    23.6042928,
                    61.4251981
                ],
                [
                    23.6033749,
                    61.4171185
                ],
                [
                    23.6269317,
                    61.4203580
                ],
                [
                    23.6336107,
                    61.4204544
                ],
                [
                    23.6401707,
                    61.4187255
                ],
                [
                    23.6480585,
                    61.4124828
                ],
                [
                    23.6570780,
                    61.4079376
                ],
                [
                    23.6647456,
                    61.4079612
                ],
                [
                    23.7415387,
                    61.4308594
                ],
                [
                    23.7752022,
                    61.4309890
                ],
                [
                    23.7703041,
                    61.4239487
                ],
                [
                    23.7878265,
                    61.4227826
                ],
                [
                    23.8127479,
                    61.4274117
                ],
                [
                    23.8236646,
                    61.4284956
                ],
                [
                    23.8340125,
                    61.4276552
                ],
                [
                    23.8589858,
                    61.4268834
                ],
                [
                    23.8923715,
                    61.4262853
                ],
                [
                    23.9018905,
                    61.4391458
                ],
                [
                    23.9190370,
                    61.4517335
                ],
                [
                    23.9277507,
                    61.4673540
                ],
                [
                    23.9355869,
                    61.4741094
                ],
                [
                    23.9401586,
                    61.4878247
                ],
                [
                    23.9580530,
                    61.4851515
                ],
                [
                    23.9799668,
                    61.5026859
                ],
                [
                    23.9728987,
                    61.5220672
                ],
                [
                    24.0259897,
                    61.5752505
                ],
                [
                    23.8746621,
                    61.5651253
                ],
                [
                    23.8727440,
                    61.5392941
                ],
                [
                    23.9238710,
                    61.5279758
                ],
                [
                    23.9140469,
                    61.5242314
                ],
                [
                    23.9040419,
                    61.5243368
                ],
                [
                    23.9000919,
                    61.5275636
                ],
                [
                    23.8486617,
                    61.5277220
                ],
                [
                    23.8388086,
                    61.5261498
                ],
                [
                    23.8293738,
                    61.5196924
                ],
                [
                    23.7861898,
                    61.5181841
                ],
                [
                    23.7635092,
                    61.5131812
                ],
                [
                    23.7604137,
                    61.5104361
                ],
                [
                    23.7301722,
                    61.5063911
                ],
                [
                    23.7163038,
                    61.5107002
                ],
                [
                    23.6952556,
                    61.5128624
                ],
                [
                    23.6953971,
                    61.5154599
                ],
                [
                    23.7097750,
                    61.5188143
                ],
                [
                    23.7399712,
                    61.5241323
                ],
                [
                    23.7318175,
                    61.5333843
                ],
                [
                    23.7177016,
                    61.5395461
                ],
                [
                    23.7056742,
                    61.5414817
                ],
                [
                    23.7008651,
                    61.5378451
                ],
                [
                    23.6823984,
                    61.5354583
                ],
                [
                    23.6835206,
                    61.5397249
                ],
                [
                    23.6722070,
                    61.5441089
                ],
                [
                    23.6445372,
                    61.5310551
                ],
                [
                    23.6032708,
                    61.5238366
                ],
                [
                    23.5868416,
                    61.5180232
                ],
                [
                    23.5776690,
                    61.5245733
                ],
                [
                    23.5433427,
                    61.5343527
                ],
                [
                    23.5344159,
                    61.5343673
                ]
            ]
        ]
    }
}