{
    "type": "Feature",
    "properties": {
        "attribution": {
            "required": true,
            "text": "© Turun kaupunki",
            "url": "https://www.turku.fi/tietoa-turusta/kartat-ja-paikkatieto"
        },
        "available_projections": [
            "EPSG:2391",
            "EPSG:2392",
            "EPSG:3067",
            "EPSG:3128",
            "EPSG:3129",
            "EPSG:3130",
            "EPSG:3857",
            "EPSG:3877",
            "EPSG:4326"
        ],
        "best": true,
        "country_code": "FI",
        "description": "Ortophotos from the city of Turku",
        "icon": "https://www.turku.fi/themes/custom/turku-v2-theme/favicons/apple-touch-icon.png",
        "id": "turku-orto-2025",
        "license_url": "https://wiki.openstreetmap.org/w/images/1/17/Turku_relicensing_permit.pdf",
        "privacy_policy_url": "https://www.turku.fi/evasteet",
        "max_zoom": 20,
        "min_zoom": 4,
        "start_date": "2025-04-01",
        "end_date": "2025-04-01",
        "name": "City of Turku ortophoto - 2025",
        "type": "wms",
        "url": "https://opaskartta.turku.fi/TeklaOGCWeb/WMS.ashx?FORMAT=image/png&TRANSPARENT=TRUE&VERSION=1.1.1&SERVICE=WMS&REQUEST=GetMap&LAYERS=Ilmakuva 2025&STYLES=&SRS={proj}&WIDTH={width}&HEIGHT={height}&BBOX={bbox}",
        "category": "photo"
    },
    "geometry": {
        "type": "Polygon",
        "coordinates": [
            [
                [
                    22.12297095304,
                    60.39999244815
                ],
                [
                    22.08610479057,
                    60.41346052664
                ],
                [
                    22.07690886426,
                    60.42884923043
                ],
                [
                    22.12216583084,
                    60.46846345053
                ],
                [
                    22.18092665467,
                    60.46665109849
                ],
                [
                    22.23628855019,
                    60.51457965630
                ],
                [
                    22.21159867670,
                    60.52357766718
                ],
                [
                    22.21771261426,
                    60.52822325887
                ],
                [
                    22.22973926744,
                    60.52826765234
                ],
                [
                    22.24649941194,
                    60.52220632851
                ],
                [
                    22.29036255135,
                    60.55925607147
                ],
                [
                    22.29348312022,
                    60.56899113032
                ],
                [
                    22.39397126772,
                    60.65280055522
                ],
                [
                    22.40961483987,
                    60.74040581396
                ],
                [
                    22.41831155877,
                    60.74003796091
                ],
                [
                    22.46098462258,
                    60.69148325838
                ],
                [
                    22.45709307652,
                    60.62226681250
                ],
                [
                    22.38225032234,
                    60.55628268889
                ],
                [
                    22.37596555349,
                    60.54287444983
                ],
                [
                    22.38638882103,
                    60.52544798346
                ],
                [
                    22.35909099404,
                    60.49450960559
                ],
                [
                    22.38053649259,
                    60.48765037698
                ],
                [
                    22.35349034520,
                    60.46492523977
                ],
                [
                    22.37661409737,
                    60.43943554116
                ],
                [
                    22.30513410176,
                    60.37810819569
                ],
                [
                    22.31060565553,
                    60.35698932111
                ],
                [
                    22.20964778714,
                    60.33396177772
                ],
                [
                    22.17770105167,
                    60.33370702422
                ],
                [
                    22.11175542358,
                    60.34977289900
                ],
                [
                    22.10121302425,
                    60.34663381253
                ],
                [
                    22.09211933820,
                    60.34943501818
                ],
                [
                    22.10958399310,
                    60.36481995144
                ],
                [
                    22.12297095304,
                    60.39999244815
                ]
            ],
        ]
    }
}
