{
    "type": "Feature",
    "properties": {
        "id": "NSW_DPHI_LandZoning",
        "attribution": {
            "url": "https://www.planningportal.nsw.gov.au/opendata/dataset/environment-planning-instrument-local-environmental-plan-land-zoning",
            "text": "© State Government of NSW and NSW Department of Planning, Housing and Infrastructure 2018",
            "required": true
        },
        "license_url": "https://wiki.openstreetmap.org/wiki/File:PlanningPortal_NSW_DPIE_OSM_EmailWaiverComplete.pdf",
        "privacy_policy_url": "https://www.planningportal.nsw.gov.au/privacy-statement",
        "name": "NSW Land Zoning",
        "available_projections": [
            "EPSG:3857",
            "EPSG:4326",
            "CRS:84"
        ],
        "url": "https://mapprod3.environment.nsw.gov.au/arcgis/rest/services/Planning/EPI_Primary_Planning_Layers/MapServer/export?layers=show:2&bbox={bbox}&f=image&bboxSR={wkid}&imageSR={wkid}&size={width}%2C{height}&format=png32",
        "overlay": false,
        "max_zoom": 21,
        "country_code": "AU",
        "type": "wms",
        "icon": "https://www.planningportal.nsw.gov.au/sites/default/files/NSWGov_Logo_RGB_Primary_FullColour_6.png",
        "category": "other"
    },
    "geometry": {
        "type": "MultiPolygon",
        "coordinates": [
            [
                [
                    [
                        149.4856226,
                        -28.5615019
                    ],
                    [
                        148.9451961,
                        -28.9948656
                    ],
                    [
                        140.998648,
                        -28.9989332
                    ],
                    [
                        141.0025961,
                        -34.0197399
                    ],
                    [
                        140.9937045,
                        -34.070169
                    ],
                    [
                        142.4785593,
                        -34.811943
                    ],
                    [
                        143.2021846,
                        -35.1317425
                    ],
                    [
                        144.5193454,
                        -36.1295974
                    ],
                    [
                        144.8445703,
                        -36.2149218
                    ],
                    [
                        145.2348401,
                        -35.9849909
                    ],
                    [
                        146.828442,
                        -36.188678
                    ],
                    [
                        147.6902879,
                        -36.0441802
                    ],
                    [
                        147.8854228,
                        -36.0901856
                    ],
                    [
                        148.0791803,
                        -36.8171632
                    ],
                    [
                        148.2013511,
                        -36.805656
                    ],
                    [
                        149.9784687,
                        -37.5069984
                    ],
                    [
                        150.4127518,
                        -36.6178579
                    ],
                    [
                        150.4615355,
                        -36.1202975
                    ],
                    [
                        151.0144178,
                        -35.1156752
                    ],
                    [
                        151.2583364,
                        -34.3808144
                    ],
                    [
                        151.9087862,
                        -33.0553457
                    ],
                    [
                        152.7543708,
                        -32.508492
                    ],
                    [
                        153.2584694,
                        -30.9735401
                    ],
                    [
                        153.6969246,
                        -28.6498321
                    ],
                    [
                        153.5790657,
                        -28.1415563
                    ],
                    [
                        152.4924635,
                        -28.2353023
                    ],
                    [
                        151.9290401,
                        -28.4983634
                    ],
                    [
                        151.9894069,
                        -28.7355674
                    ],
                    [
                        151.3943629,
                        -28.9797786
                    ],
                    [
                        151.0954036,
                        -28.7179218
                    ],
                    [
                        150.2991369,
                        -28.5337256
                    ],
                    [
                        149.4856226,
                        -28.5615019
                    ]
                ]
            ],
            [
                [
                    [
                        159.3727807,
                        -31.7789183
                    ],
                    [
                        159.1744327,
                        -31.4373999
                    ],
                    [
                        159.0033934,
                        -31.4876656
                    ],
                    [
                        159.0378887,
                        -31.7055793
                    ],
                    [
                        159.3109766,
                        -31.8595241
                    ],
                    [
                        159.3727807,
                        -31.7789183
                    ]
                ]
            ]
        ]
    }
}
