{
    "type": "Feature",
    "properties": {
        "id": "NRCS_CNMI_2024",
        "attribution": {
            "url": "https://www.nrcs.usda.gov/",
            "text": "U.S. Department of Agriculture",
            "required": false
        },
        "name": "NRCS Northern Mariana Islands Imagery (2024)",
        "type": "wms",
        "url": "https://apps.geo.fpac.usda.gov/nrcs-imagery/services/ortho_imagery/cnmi_vivid_2024_30cm/ImageServer/WMSServer?FORMAT=image/jpeg&VERSION=1.3.0&SERVICE=WMS&REQUEST=GetMap&LAYERS=cnmi_vivid_2024_30cm:Natural Color No Stretch&STYLES=&CRS={proj}&WIDTH={width}&HEIGHT={height}&BBOX={bbox}",
        "start_date": "2019-12-26",
        "end_date": "2024-08-08",
        "max_zoom": 20,
        "min_zoom": 12,
        "license_url": "https://www.usda.gov/policies-and-links/",
        "country_code": "MP",
        "available_projections": [
            "CRS:84",
            "EPSG:4326",
            "EPSG:3857"
        ],
        "icon": "https://osmlab.github.io/editor-layer-index/sources/north-america/us/USDA.png",
        "category": "photo",
        "privacy_policy_url": "https://www.usda.gov/privacy-policy",
        "valid-georeference": true
    },
    "geometry": {
        "type": "Polygon",
        "coordinates": [
            [
                [
                    146.12702597824722,
                    13.778116234735766
                ],
                [
                    146.56472714761364,
                    20.72551025530249
                ],
                [
                    144.6658764863915,
                    20.755608440209258
                ],
                [
                    144.8750718982211,
                    13.946847306335261
                ],
                [
                    146.12702597824722,
                    13.778116234735766
                ]
            ]
        ]
    }
}