{
	"type": "Feature",
	"properties": {
		"id": "Courtenay_2022",
		"attribution": {
			"url": "https://data-courtenay.opendata.arcgis.com/pages/city-of-courtenay-open-data-licence",
			"text": "Contains information licensed under the Open Government Licence - City of Courtenay",
			"required": true
		},
		"name": "City of Courtenay Orthoimagery (2022)",
		"url": "https://tiles.arcgis.com/tiles/PwS5hVLYsEN2U36s/arcgis/rest/services/2022_Ortho_Tiles/MapServer/tile/{zoom}/{y}/{x}",
		"min_zoom": 12,
		"max_zoom": 21,
		"license_url": "https://data-courtenay.opendata.arcgis.com/pages/city-of-courtenay-open-data-licence",
		"permission_osm": "implicit",
		"country_code": "CA",
		"start_date": "2022-03",
		"end_date": "2022-03",
		"type": "tms",
		"description": "Aerial imagery of the City of Courtenay from March 2022",
		"category": "photo",
		"valid-georeference": true,
		"privacy_policy_url": "https://www.courtenay.ca/privacy-statement",
		"best": true
	},
	"geometry": {
		"type": "Polygon",
		"coordinates": [
			[
				[
					-124.959385994276,
					49.6592908812659
				],
				[
					-124.96629171284,
					49.6640560764462
				],
				[
					-124.96958571133,
					49.6698237029589
				],
				[
					-124.974630523092,
					49.6735553706355
				],
				[
					-124.976977350248,
					49.6805142555302
				],
				[
					-124.981992410411,
					49.6821636239304
				],
				[
					-124.977877597211,
					49.684388223786
				],
				[
					-124.983893713461,
					49.6846689276624
				],
				[
					-124.988511009777,
					49.6869750778352
				],
				[
					-124.974498000061,
					49.6944386452802
				],
				[
					-124.972357582462,
					49.6951251753966
				],
				[
					-124.968892168124,
					49.6913833851774
				],
				[
					-124.964146106065,
					49.6879396445303
				],
				[
					-124.956552855631,
					49.6892407877198
				],
				[
					-124.952946595937,
					49.6886154661014
				],
				[
					-124.944144507623,
					49.6932633163707
				],
				[
					-124.945911427852,
					49.694917878072
				],
				[
					-124.945304840317,
					49.705799314094
				],
				[
					-124.939695293651,
					49.7056926504173
				],
				[
					-124.939523520921,
					49.7093067637834
				],
				[
					-124.93414285805,
					49.7092290339411
				],
				[
					-124.9334338763,
					49.7299493593195
				],
				[
					-124.944453792431,
					49.7301188372163
				],
				[
					-124.944366395377,
					49.7337421053669
				],
				[
					-124.933323308608,
					49.7336068497546
				],
				[
					-124.933170546038,
					49.7386624092767
				],
				[
					-124.935820235792,
					49.7408838759441
				],
				[
					-124.944171882752,
					49.7409956245928
				],
				[
					-124.944259469068,
					49.7373526614458
				],
				[
					-124.955614265365,
					49.736983361549
				],
				[
					-124.95557899409,
					49.740531474652
				],
				[
					-124.966298033188,
					49.7407329140997
				],
				[
					-124.966430523724,
					49.7394729881629
				],
				[
					-124.973179875402,
					49.7358889920689
				],
				[
					-124.978234887259,
					49.7337188001415
				],
				[
					-124.971129513899,
					49.7281220173695
				],
				[
					-124.987185181218,
					49.7194677397401
				],
				[
					-124.990314575793,
					49.7181055652203
				],
				[
					-124.990124464695,
					49.7161125052799
				],
				[
					-124.993117012964,
					49.7163234832688
				],
				[
					-124.993076438409,
					49.7197971257053
				],
				[
					-124.999961426663,
					49.7252078432928
				],
				[
					-125.006886253866,
					49.7218043798802
				],
				[
					-125.001825762168,
					49.7178132901569
				],
				[
					-124.999023794786,
					49.7193328879031
				],
				[
					-124.995495722569,
					49.7165467815062
				],
				[
					-125.012734133655,
					49.7074022205745
				],
				[
					-125.008885336319,
					49.7046886957598
				],
				[
					-125.004612821036,
					49.7035600891046
				],
				[
					-125.002669271227,
					49.7039978619815
				],
				[
					-124.997808102102,
					49.7013073928099
				],
				[
					-124.993785865408,
					49.7015304201458
				],
				[
					-124.992120741071,
					49.7001908780895
				],
				[
					-124.991838820507,
					49.6976757149209
				],
				[
					-124.994680070251,
					49.6959554816641
				],
				[
					-124.996625587923,
					49.6994606505319
				],
				[
					-124.999815626387,
					49.699043919911
				],
				[
					-125.000145454641,
					49.6969689457954
				],
				[
					-125.003493076005,
					49.6925933084358
				],
				[
					-125.007651430358,
					49.6919398446782
				],
				[
					-125.0132378552,
					49.6892922208556
				],
				[
					-125.022519312925,
					49.6874299988607
				],
				[
					-125.026580998159,
					49.6874711458249
				],
				[
					-125.029467560552,
					49.6853891896144
				],
				[
					-125.026766093781,
					49.6833155938418
				],
				[
					-125.032004091717,
					49.681733224598
				],
				[
					-125.027582584792,
					49.6783046788034
				],
				[
					-125.023082271255,
					49.6802206651148
				],
				[
					-125.011490344179,
					49.6713661369768
				],
				[
					-125.013357895649,
					49.6692347014069
				],
				[
					-125.018990145105,
					49.6661975476765
				],
				[
					-125.012021771398,
					49.6606248957873
				],
				[
					-125.009264711945,
					49.6622331268627
				],
				[
					-125.011622767049,
					49.6632625771742
				],
				[
					-125.005268925032,
					49.6665105504225
				],
				[
					-124.993270803951,
					49.6572427524713
				],
				[
					-124.986101401463,
					49.6571035126102
				],
				[
					-124.986193595631,
					49.6543002241711
				],
				[
					-124.981216262613,
					49.6541862297795
				],
				[
					-124.981416597695,
					49.6497719936371
				],
				[
					-124.964205508254,
					49.6494087976975
				],
				[
					-124.962390589614,
					49.6555349869615
				],
				[
					-124.964107606861,
					49.6566664911028
				],
				[
					-124.959385994276,
					49.6592908812659
				]
			]
		]
	}
}