{
	"type": "Feature",
	"properties": {
		"id": "Delta_2006",
		"attribution": {
			"url": "https://www.delta.ca/Open-Government-Licence",
			"text": "Contains information licensed under the Open Government Licence - Delta",
			"required": true
		},
		"name": "Delta Orthoimagery (2006)",
		"url": "https://maps.delta.ca/orthophotos/rest/services/Orthophotography/2006/ImageServer/exportImage?f=image&format=jpgpng&bbox={bbox}&imageSR={wkid}&bboxSR={wkid}&size={width},{height}",
		"max_zoom": 20,
		"license_url": "https://www.delta.ca/Open-Government-Licence",
		"permission_osm": "implicit",
		"country_code": "CA",
		"available_projections": [
			"CRS:84",
			"EPSG:4326",
			"EPSG:3857"
		],
		"start_date": "2006",
		"end_date": "2006",
		"type": "wms",
		"description": "Historic orthoimagery of Delta from 2006",
		"category": "historicphoto",
		"valid-georeference": true,
		"privacy_policy_url": "https://www.delta.ca/privacy-policy",
		"min_zoom": 10
	},
	"geometry": {
		"type": "Polygon",
		"coordinates": [
			[
				[
					-123.16471699262961,
					49.07754078499775
				],
				[
					-123.15669656526629,
					49.0731216496685
				],
				[
					-123.15830314285843,
					49.06624176980679
				],
				[
					-123.1233041678668,
					49.05129000139989
				],
				[
					-123.151706063842,
					49.03119072508041
				],
				[
					-123.15819811238302,
					49.0247460346637
				],
				[
					-123.16750892408498,
					49.02433203649179
				],
				[
					-123.17258876937798,
					49.017520837294
				],
				[
					-123.16510595587101,
					49.0087249763264
				],
				[
					-123.140572464644,
					49.02611642979771
				],
				[
					-123.150074514675,
					49.030564727184
				],
				[
					-123.123475715941,
					49.0493843477481
				],
				[
					-123.11120509921598,
					49.04692891193971
				],
				[
					-123.09948165453402,
					49.03498238756369
				],
				[
					-123.10194842436898,
					49.0270401893791
				],
				[
					-123.09061826572201,
					49.0020653883385
				],
				[
					-123.03530849542702,
					49.002088369838305
				],
				[
					-123.041853690194,
					49.0197643888927
				],
				[
					-123.05784061166702,
					49.02457709979329
				],
				[
					-123.04995472007,
					49.0418981241358
				],
				[
					-123.02619551489722,
					49.0537964148425
				],
				[
					-123.01793307138091,
					49.060654486712906
				],
				[
					-122.94918247525544,
					49.07312983946068
				],
				[
					-122.91675350754564,
					49.082935471343085
				],
				[
					-122.89285329192396,
					49.08715176150586
				],
				[
					-122.8904059345568,
					49.09149014686439
				],
				[
					-122.89018281113808,
					49.177151503034594
				],
				[
					-122.91973370657786,
					49.17712058300362
				],
				[
					-122.9252079088244,
					49.188240979383096
				],
				[
					-122.94149515770523,
					49.17835592305493
				],
				[
					-122.95875596094508,
					49.17318011698936
				],
				[
					-122.97050790949287,
					49.1602919270925
				],
				[
					-122.9691640687271,
					49.155292245427496
				],
				[
					-123.00190460986633,
					49.1472189577983
				],
				[
					-123.02256903552315,
					49.14754472176412
				],
				[
					-123.03446575613108,
					49.143331890811474
				],
				[
					-123.05105825419567,
					49.12895489874878
				],
				[
					-123.07211730560304,
					49.12103379433243
				],
				[
					-123.08289026750282,
					49.11373094273417
				],
				[
					-123.09393945532625,
					49.094564521180196
				],
				[
					-123.10511281143872,
					49.08658667828462
				],
				[
					-123.12733439617887,
					49.08546213479362
				],
				[
					-123.1530293129339,
					49.09955695893904
				],
				[
					-123.15462121071636,
					49.10272298964073
				],
				[
					-123.18168574240329,
					49.11131363925575
				],
				[
					-123.18861953661049,
					49.10097841422038
				],
				[
					-123.1810735183205,
					49.0936337103274
				],
				[
					-123.17663848989802,
					49.08181725636794
				],
				[
					-123.16471699262961,
					49.07754078499775
				]
			]
		]
	}
}
