{
    "type": "Feature",
    "properties": {
        "id": "Kelowna_2023",
        "attribution": {
            "url": "https://apps.kelowna.ca/images/opendata/OpenGovernmentLicence.pdf",
            "text": "Contains information licensed under the Open Government Licence - City of Kelowna",
            "required": true
        },
        "name": "City of Kelowna Orthoimagery (2023)",
        "url": "https://geoportal.kelowna.ca/imagehost/rest/services/Orthos_2023/MapServer/export?bbox={bbox}&bboxSR={wkid}&imageSR={wkid}&size={width},{height}&format=jpgpng&transparent=true&f=image",
        "license_url": "https://apps.kelowna.ca/images/opendata/OpenGovernmentLicence.pdf",
        "permission_osm": "implicit",
        "country_code": "CA",
        "start_date": "2023",
        "end_date": "2023",
        "type": "wms",
        "available_projections": ["EPSG:3857"],
        "description": "Orthoimagery of the City of Kelowna from 2023",
        "category": "photo",
        "valid-georeference": true,
        "privacy_policy_url": "https://www.kelowna.ca/privacy-policy",
        "best": true
    },
    "geometry": {
        "type": "Polygon",
        "coordinates": [
					[
						[
							-119.39539346586625,
							50.0254631896062
						],
						[
							-119.4031564464006,
							50.020109990742434
						],
						[
							-119.40268095367702,
							50.00573205513528
						],
						[
							-119.46663134310718,
							50.00581662808744
						],
						[
							-119.46920156608184,
							50.000789958231806
						],
						[
							-119.46874710565245,
							49.9906763298844
						],
						[
							-119.47896751376136,
							49.96696627209023
						],
						[
							-119.48169403233527,
							49.94768123740671
						],
						[
							-119.48452784080814,
							49.94094353100525
						],
						[
							-119.51491315358439,
							49.90996033087722
						],
						[
							-119.51828954297541,
							49.90398314500576
						],
						[
							-119.51761341694572,
							49.89717029013902
						],
						[
							-119.5141811505905,
							49.89283487198262
						],
						[
							-119.51151600618164,
							49.87874457743697
						],
						[
							-119.51546800134354,
							49.85094196205791
						],
						[
							-119.52219896517937,
							49.83687229239769
						],
						[
							-119.53235850370083,
							49.82854750896735
						],
						[
							-119.56456449765129,
							49.81001336258686
						],
						[
							-119.57395339489858,
							49.80593940457896
						],
						[
							-119.58874485017034,
							49.80175141925956
						],
						[
							-119.58824390813679,
							49.77343679561038
						],
						[
							-119.54400987765314,
							49.77365014244318
						],
						[
							-119.54407610275993,
							49.78095824379757
						],
						[
							-119.51079708194513,
							49.78132235647351
						],
						[
							-119.51059526340026,
							49.78846704792026
						],
						[
							-119.4555784622688,
							49.78850531121667
						],
						[
							-119.455324033492,
							49.79590628745508
						],
						[
							-119.44363619379158,
							49.795928556705015
						],
						[
							-119.44362115011242,
							49.80885989237693
						],
						[
							-119.42098091673711,
							49.80900791972895
						],
						[
							-119.42110805535583,
							49.81630498966924
						],
						[
							-119.4099698213611,
							49.816405864935994
						],
						[
							-119.40992800761005,
							49.823591355131
						],
						[
							-119.3543228743558,
							49.82370160803543
						],
						[
							-119.35437393771993,
							49.83091917158537
						],
						[
							-119.34266802788822,
							49.83092561277254
						],
						[
							-119.3424763264118,
							49.85229494980681
						],
						[
							-119.31990261148788,
							49.852349337742936
						],
						[
							-119.31980502220513,
							49.874033902598
						],
						[
							-119.33098651988651,
							49.87406278799022
						],
						[
							-119.33061692121478,
							49.91793349925371
						],
						[
							-119.35175447509505,
							49.91809243158827
						],
						[
							-119.35288798931745,
							49.92023314904762
						],
						[
							-119.37207392962002,
							49.92181430433557
						],
						[
							-119.37136976441393,
							49.929017801248776
						],
						[
							-119.37752623381557,
							49.93453790204814
						],
						[
							-119.37750444836213,
							49.93994478990513
						],
						[
							-119.3642677249762,
							49.93999164263805
						],
						[
							-119.36880869249075,
							49.945335300701196
						],
						[
							-119.36899553420156,
							49.96004170392937
						],
						[
							-119.37426572294028,
							49.96006232172916
						],
						[
							-119.37432901097817,
							49.97037187991953
						],
						[
							-119.36380405607667,
							49.96856920023796
						],
						[
							-119.36598597650915,
							49.976442795330996
						],
						[
							-119.37463564618032,
							49.97650369136264
						],
						[
							-119.37527153845366,
							50.01984747135251
						],
						[
							-119.38491248918757,
							50.02001820674765
						],
						[
							-119.3848760225361,
							50.02450826735545
						],
						[
							-119.39539346586625,
							50.0254631896062
						]
					]
				]
    }
}
