{
    "type": "Feature",
    "properties": {
        "id": "Port_Coquitlam_2025",
        "attribution": {
            "url": "https://data-poco.hub.arcgis.com/pages/terms",
            "text": "Contains information licensed under the Open Government Licence - Port Coquitlam",
            "required": true
        },
        "name": "City of Port Coquitlam Orthoimagery and Cadastral Boundaries (2025)",
        "url": "https://maps.portcoquitlam.ca/server/rest/services/Basemap_Ortho2025_Legal/MapServer/export?f=image&format=jpgpng&bbox={bbox}&imageSR={wkid}&bboxSR={wkid}&size={width},{height}",
        "max_zoom": 21,
        "min_zoom": 10,
        "license_url": "https://data-poco.hub.arcgis.com/pages/terms",
        "permission_osm": "implicit",
        "country_code": "CA",
        "start_date": "2025",
        "end_date": "2025",
        "type": "wms",
        "available_projections": [
            "EPSG:3857",
            "EPSG:26910"
        ],
        "description": "Orthoimagery and cadastral boundaries for the City of Port Coquitlam from 2025",
        "category": "photo",
        "valid-georeference": true,
        "privacy_policy_url": "https://www.portcoquitlam.ca/privacy-policy",
        "best": true
    },
    "geometry": {
        "type": "Polygon",
        "coordinates": [
            [
                [
                    -122.703057156807,
                    49.2784680984145
                ],
                [
                    -122.733906094431,
                    49.2784083716383
                ],
                [
                    -122.733908870301,
                    49.285757636441
                ],
                [
                    -122.761623726328,
                    49.2857396465427
                ],
                [
                    -122.761583017334,
                    49.2893052807199
                ],
                [
                    -122.767163946126,
                    49.289325579314
                ],
                [
                    -122.767240153382,
                    49.2782886899985
                ],
                [
                    -122.790442378791,
                    49.278460831089
                ],
                [
                    -122.790850820749,
                    49.2608530050517
                ],
                [
                    -122.797079750594,
                    49.2597252013798
                ],
                [
                    -122.797767057792,
                    49.252772971001
                ],
                [
                    -122.795442654607,
                    49.2487027443005
                ],
                [
                    -122.802945664727,
                    49.2451119684313
                ],
                [
                    -122.802465424287,
                    49.2429147323386
                ],
                [
                    -122.806958767949,
                    49.2411390889384
                ],
                [
                    -122.806004832443,
                    49.2366342116205
                ],
                [
                    -122.801155307082,
                    49.236151753477
                ],
                [
                    -122.800473988701,
                    49.2341528213974
                ],
                [
                    -122.806350363066,
                    49.2275266339732
                ],
                [
                    -122.802113369849,
                    49.2209639503643
                ],
                [
                    -122.797000427199,
                    49.2172834058183
                ],
                [
                    -122.792707028437,
                    49.2160686359898
                ],
                [
                    -122.772264007705,
                    49.2135557969795
                ],
                [
                    -122.768337875462,
                    49.2136869992322
                ],
                [
                    -122.754630456561,
                    49.2158846679453
                ],
                [
                    -122.757098360758,
                    49.2200305620252
                ],
                [
                    -122.76749554476,
                    49.2290438174415
                ],
                [
                    -122.761370872181,
                    49.2342973891385
                ],
                [
                    -122.752095170881,
                    49.2386812107516
                ],
                [
                    -122.735890958199,
                    49.2441026709399
                ],
                [
                    -122.721507701089,
                    49.2536930305414
                ],
                [
                    -122.714661262169,
                    49.2626123177168
                ],
                [
                    -122.703057156807,
                    49.2784680984145
                ]
            ]
        ]
    }
}
