{
    "type": "Feature",
    "properties": {
        "id": "Langley_Township_2025",
        "attribution": {
            "url": "https://www.tol.ca/en/connect/open-data-licence.aspx",
            "text": "Contains information licensed under the Open Government Licence - Township of Langley",
            "required": true
        },
        "name": "Township of Langley Aerial Imagery (2025)",
        "url": "https://mapsvr.tol.ca/arcgisext02/rest/services/CachedServices/Ortho_2025/MapServer/export?bbox={bbox}&bboxSR={wkid}&imageSR={wkid}&size={width},{height}&format=jpeg&f=image",
        "license_url": "https://www.tol.ca/en/connect/open-data-licence.aspx",
        "permission_osm": "implicit",
        "country_code": "CA",
        "start_date": "2025-04-16",
        "end_date": "2025-04-23",
        "type": "wms",
        "available_projections": [
            "EPSG:3857"
        ],
        "description": "Aerial imagery of the Township of Langley from 2025, captured April 16th to 23rd, 2025",
        "category": "photo",
        "valid-georeference": true,
        "privacy_policy_url": "https://www.tol.ca/en/connect/egovernment-privacy-policy.aspx"
    },
    "geometry": {
        "type": "Polygon",
        "coordinates": [
            [
                [
                    -122.517940247806,
                    49.1673223282044
                ],
                [
                    -122.541157189543,
                    49.1721986458603
                ],
                [
                    -122.554922879671,
                    49.1785273106833
                ],
                [
                    -122.576398841826,
                    49.1847648013314
                ],
                [
                    -122.591399006288,
                    49.2017744384457
                ],
                [
                    -122.602138267087,
                    49.2085273699291
                ],
                [
                    -122.611668760905,
                    49.2107155282465
                ],
                [
                    -122.625915249975,
                    49.2096275231264
                ],
                [
                    -122.666448730181,
                    49.1961046420161
                ],
                [
                    -122.679505229511,
                    49.1871831345686
                ],
                [
                    -122.679898417088,
                    49.1137903444439
                ],
                [
                    -122.672188478821,
                    49.1154359000719
                ],
                [
                    -122.647038806897,
                    49.1148855809901
                ],
                [
                    -122.637938570849,
                    49.108347803899
                ],
                [
                    -122.641517967003,
                    49.0839079895135
                ],
                [
                    -122.647122652812,
                    49.0819759925141
                ],
                [
                    -122.669066277748,
                    49.0821673683817
                ],
                [
                    -122.679989325168,
                    49.0840001746296
                ],
                [
                    -122.680557228674,
                    49.0747234101495
                ],
                [
                    -122.680153765004,
                    49.0021046782279
                ],
                [
                    -122.459557091135,
                    49.0022786740833
                ],
                [
                    -122.459880479669,
                    49.0749012878722
                ],
                [
                    -122.459330467715,
                    49.0894978987304
                ],
                [
                    -122.462296157626,
                    49.1701791540174
                ],
                [
                    -122.517940247806,
                    49.1673223282044
                ]
            ]
        ]
    }
}