{
    "type": "Feature",
    "properties": {
        "category": "photo",
        "id": "dgu-dof-2023-2024",
        "name": "dgu.hr: Croatia 2023-2024 aerial imagery",
        "icon": "https://osmlab.github.io/editor-layer-index/sources/europe/hr/dgu.png",
        "start_date": "2023",
        "end_date": "2024",
        "url": "https://geoportal.dgu.hr/services/inspire/orthophoto_2023_2024/ows?FORMAT=image/png&TRANSPARENT=TRUE&VERSION=1.3.0&SERVICE=WMS&REQUEST=GetMap&LAYERS=OI.OrthoimageCoverage&STYLES=&CRS={proj}&WIDTH={width}&HEIGHT={height}&BBOX={bbox}",
        "permission_osm": "explicit",
        "license_url": "https://narodne-novine.nn.hr/clanci/sluzbeni/2013_02_25_403.html",
        "privacy_policy_url": "https://geoportal.dgu.hr/#/menu/uvjeti-koristenja",
        "best": true,
        "max_zoom": 19,
        "country_code": "HR",
        "type": "wms",
        "attribution": {
            "required": true,
            "text": "Sadrži podatke Geoportala Državne geodetske uprave",
            "url": "https://dgu.gov.hr/"
        },
        "available_projections": [
            "CRS:84",
            "EPSG:3035",
            "EPSG:3765",
            "EPSG:3857",
            "EPSG:4258",
            "EPSG:4326"
        ]
    },
    "geometry" : {
       "type" : "Polygon",
       "coordinates" : [
          [
             [
                15.3927219243172,
                43.6792343212366
             ],
             [
                16.30336,
                43.23061
             ],
             [
                15.43406,
                43.1044
             ],
             [
                15.43144,
                43.05598
             ],
             [
                16.39263,
                42.73936
             ],
             [
                16.21809,
                42.37266
             ],
             [
                16.34731,
                42.35521
             ],
             [
                17.08976,
                42.67166
             ],
             [
                18.035361411889,
                42.6101678590891
             ],
             [
                18.4825,
                42.40842
             ],
             [
                18.50509,
                42.39499
             ],
             [
                18.53179,
                42.38548
             ],
             [
                18.54431,
                42.39181
             ],
             [
                18.51877,
                42.41148
             ],
             [
                18.5361714427112,
                42.4220881180946
             ],
             [
                18.5128328870563,
                42.4362322023091
             ],
             [
                18.4858720870883,
                42.4690620819367
             ],
             [
                18.4567450647221,
                42.4878862996597
             ],
             [
                18.4616503059972,
                42.5095002117026
             ],
             [
                18.4555657512706,
                42.5267128469234
             ],
             [
                18.4655222426864,
                42.5673900748501
             ],
             [
                18.3938066892855,
                42.6324969500922
             ],
             [
                18.2762324975766,
                42.632324928749
             ],
             [
                18.10632,
                42.72143
             ],
             [
                18.0044521261719,
                42.7807770715176
             ],
             [
                17.948490689346,
                42.8103192854827
             ],
             [
                17.9154465781789,
                42.8204718252767
             ],
             [
                17.9122052456635,
                42.8326856013094
             ],
             [
                17.8621448629818,
                42.908358596705
             ],
             [
                17.8183756811461,
                42.9277037991246
             ],
             [
                17.7825644048059,
                42.9089046672956
             ],
             [
                17.75424,
                42.91963
             ],
             [
                17.68644,
                42.93433
             ],
             [
                17.6323748911513,
                42.9051379529321
             ],
             [
                17.6147845427547,
                42.9182874082459
             ],
             [
                17.6340928093364,
                42.9313055532996
             ],
             [
                17.735609618766,
                42.9682408170811
             ],
             [
                17.6543148037242,
                43.0969983684615
             ],
             [
                17.4539650315821,
                43.1877232845459
             ],
             [
                17.4550477148039,
                43.2077699170663
             ],
             [
                17.4561711969143,
                43.2298837879521
             ],
             [
                17.4297005111494,
                43.2525500157206
             ],
             [
                17.3747052617852,
                43.2688598142457
             ],
             [
                17.3003583963532,
                43.3969762697297
             ],
             [
                17.3153191975322,
                43.4209333820075
             ],
             [
                17.3195035308803,
                43.4706135870671
             ],
             [
                17.2531350615763,
                43.5097088231162
             ],
             [
                17.1770595523869,
                43.513497476392
             ],
             [
                17.0467898523616,
                43.5836316357579
             ],
             [
                16.8365067908066,
                43.7684076899884
             ],
             [
                16.7601124306914,
                43.7848045004403
             ],
             [
                16.7386394581586,
                43.8623862179968
             ],
             [
                16.607203680531,
                43.9553678235254
             ],
             [
                16.51311,
                44.03222
             ],
             [
                16.4626987356619,
                44.0429672108588
             ],
             [
                16.4685684737761,
                44.0858210016053
             ],
             [
                16.3877653754119,
                44.0998284498009
             ],
             [
                16.3360772295164,
                44.1522730168019
             ],
             [
                16.2520551802972,
                44.282184757664
             ],
             [
                16.2623835023226,
                44.33492
             ],
             [
                16.1440716059433,
                44.526280055085
             ],
             [
                16.0576630505217,
                44.56583
             ],
             [
                16.0773945591017,
                44.5822687696544
             ],
             [
                16.08792,
                44.61744
             ],
             [
                15.9594275771758,
                44.779553000813
             ],
             [
                15.8649934873238,
                44.7831150787644
             ],
             [
                15.8243511194838,
                44.8075559703514
             ],
             [
                15.8433923679097,
                44.8332512714916
             ],
             [
                15.8268348242419,
                45.1473236915973
             ],
             [
                15.8507512360364,
                45.1911257453408
             ],
             [
                15.949864539096,
                45.1783653085675
             ],
             [
                16.0114127863038,
                45.1501061752844
             ],
             [
                16.1109821429121,
                45.0108972303967
             ],
             [
                16.359843779709,
                44.9410210626193
             ],
             [
                16.59344,
                45.20367
             ],
             [
                16.714052301711,
                45.1771556557181
             ],
             [
                16.83871,
                45.16775
             ],
             [
                16.9013840846471,
                45.2127193277959
             ],
             [
                16.9286418127727,
                45.2095715336316
             ],
             [
                17.0207706342502,
                45.1873285533697
             ],
             [
                17.1379427459895,
                45.1307038184924
             ],
             [
                17.2637365581075,
                45.1217013393378
             ],
             [
                17.2892705107915,
                45.1545382683922
             ],
             [
                17.3237940879096,
                45.1211159112792
             ],
             [
                17.4037708015988,
                45.1137302517704
             ],
             [
                17.4293954467621,
                45.110647912637
             ],
             [
                17.48722,
                45.09914
             ],
             [
                17.5321142169702,
                45.0834833122027
             ],
             [
                17.6021741566167,
                45.0752430695526
             ],
             [
                17.6606814641807,
                45.1062608774341
             ],
             [
                17.8483952701001,
                45.0158691483795
             ],
             [
                17.9447189576442,
                45.0607391168618
             ],
             [
                18.0083744803287,
                45.1064817591
             ],
             [
                18.0332415998423,
                45.1065048066512
             ],
             [
                18.06371740869,
                45.0806472860166
             ],
             [
                18.0996998260561,
                45.0590535090091
             ],
             [
                18.213751040253,
                45.0529391372839
             ],
             [
                18.2486052339146,
                45.0803449230567
             ],
             [
                18.2611178818632,
                45.1027167846658
             ],
             [
                18.3072195863715,
                45.0769919560522
             ],
             [
                18.3954484293011,
                45.070029146322
             ],
             [
                18.51085,
                45.02456
             ],
             [
                18.5967029633535,
                45.0444727826983
             ],
             [
                18.6470734191485,
                45.0313116904521
             ],
             [
                18.6954509955343,
                44.9779213789804
             ],
             [
                18.7568679767424,
                44.9780216301332
             ],
             [
                18.7569084121713,
                44.9663582379491
             ],
             [
                18.7262104992575,
                44.944846599006
             ],
             [
                18.7383228678857,
                44.89602
             ],
             [
                18.8323382355822,
                44.8363993694674
             ],
             [
                18.9364834572004,
                44.8280249525339
             ],
             [
                19.0052801538869,
                44.8331086935819
             ],
             [
                19.04035,
                44.85164
             ],
             [
                19.00928,
                44.88532
             ],
             [
                18.99932,
                44.8933
             ],
             [
                18.99629,
                44.90473
             ],
             [
                19.01036,
                44.91531
             ],
             [
                19.08683,
                44.89428
             ],
             [
                19.08738,
                44.93721
             ],
             [
                19.13869,
                44.93685
             ],
             [
                19.1402,
                45.01553
             ],
             [
                19.08856,
                44.97841
             ],
             [
                19.13384,
                45.03967
             ],
             [
                19.11712,
                45.11488
             ],
             [
                19.23642,
                45.16163
             ],
             [
                19.46264,
                45.16655
             ],
             [
                19.41781,
                45.26637
             ],
             [
                19.06606,
                45.3553
             ],
             [
                19.03064,
                45.36548
             ],
             [
                19.0140911703939,
                45.3685254068077
             ],
             [
                18.9966165687216,
                45.3779549361422
             ],
             [
                18.9966739982088,
                45.3869012804262
             ],
             [
                19.0055760148142,
                45.3915203335808
             ],
             [
                19.0189727584301,
                45.3940554646113
             ],
             [
                19.03221,
                45.39707
             ],
             [
                19.05833,
                45.47372
             ],
             [
                19.03879,
                45.56748
             ],
             [
                18.96256,
                45.54728
             ],
             [
                18.93202,
                45.57271
             ],
             [
                18.90503,
                45.57347
             ],
             [
                18.91066,
                45.58984
             ],
             [
                18.93885,
                45.5894
             ],
             [
                18.98564,
                45.64796
             ],
             [
                18.98155,
                45.69045
             ],
             [
                18.96734,
                45.73664
             ],
             [
                18.96966,
                45.77155
             ],
             [
                18.90883,
                45.76319
             ],
             [
                18.94146,
                45.81176
             ],
             [
                18.91378,
                45.83805
             ],
             [
                18.86579,
                45.82143
             ],
             [
                18.85933,
                45.82549
             ],
             [
                18.87233,
                45.84959
             ],
             [
                18.91095,
                45.86347
             ],
             [
                18.89786,
                45.92878
             ],
             [
                18.80528,
                45.91788
             ],
             [
                18.7932195876357,
                45.8991181009421
             ],
             [
                18.727827577108,
                45.928598003135
             ],
             [
                18.6528775258152,
                45.929640982746
             ],
             [
                18.5912489103609,
                45.8509892334198
             ],
             [
                18.5842,
                45.82931
             ],
             [
                18.538365680803,
                45.808436146858
             ],
             [
                18.48543,
                45.79935
             ],
             [
                18.422322874871,
                45.7554152425528
             ],
             [
                18.3647030200558,
                45.782817012562
             ],
             [
                18.3326693585449,
                45.7656160547075
             ],
             [
                18.2091330751683,
                45.8002646130309
             ],
             [
                18.1169775390384,
                45.8035505424596
             ],
             [
                18.081645546532,
                45.7763257821589
             ],
             [
                18.0161836877439,
                45.8053003512284
             ],
             [
                17.8989312991487,
                45.808880006149
             ],
             [
                17.8652843034938,
                45.7922766665052
             ],
             [
                17.8513113054219,
                45.8184849496344
             ],
             [
                17.7600612506258,
                45.8408556839688
             ],
             [
                17.67124,
                45.84916
             ],
             [
                17.6407308337508,
                45.9022735887887
             ],
             [
                17.6159043060428,
                45.9226124888501
             ],
             [
                17.57705,
                45.94271
             ],
             [
                17.4870074114714,
                45.9562093116574
             ],
             [
                17.445823635673,
                45.9667462714922
             ],
             [
                17.4079149299368,
                45.9533597096725
             ],
             [
                17.3905051099209,
                45.9995151818608
             ],
             [
                17.3069557374423,
                46.0138054805308
             ],
             [
                17.3035576179213,
                46.017837196329
             ],
             [
                17.3128452038398,
                46.0352655137004
             ],
             [
                17.22109,
                46.1225
             ],
             [
                17.18821,
                46.11525
             ],
             [
                17.19308,
                46.12805
             ],
             [
                17.19423,
                46.14493
             ],
             [
                17.16438,
                46.17233
             ],
             [
                16.90814166152,
                46.2849457537431
             ],
             [
                16.9006435679627,
                46.3108117535967
             ],
             [
                16.8984373764356,
                46.3430456154564
             ],
             [
                16.87888166152,
                46.3662334681944
             ],
             [
                16.8494538867827,
                46.3843422525005
             ],
             [
                16.7962475440147,
                46.3986459898424
             ],
             [
                16.73431,
                46.40951
             ],
             [
                16.6722343573499,
                46.4650367387902
             ],
             [
                16.60944,
                46.4811927328789
             ],
             [
                16.53291,
                46.48647
             ],
             [
                16.47499,
                46.52237
             ],
             [
                16.37458,
                46.56566
             ],
             [
                16.27046,
                46.5286
             ],
             [
                16.22356,
                46.49475
             ],
             [
                16.26603,
                46.40676
             ],
             [
                16.2593951156975,
                46.3949392973394
             ],
             [
                16.1609534447116,
                46.4292231607549
             ],
             [
                16.0458214395899,
                46.4169772554927
             ],
             [
                16.0153751156987,
                46.3690922769213
             ],
             [
                15.58607,
                46.21361
             ],
             [
                15.5414046069629,
                46.0852004320891
             ],
             [
                15.6574161990018,
                46.0448394513291
             ],
             [
                15.6361051010285,
                45.8687219085312
             ],
             [
                15.56037,
                45.87228
             ],
             [
                15.1644746329201,
                45.7672485059806
             ],
             [
                15.2181904539852,
                45.6183228779203
             ],
             [
                15.29531,
                45.48842
             ],
             [
                15.1974,
                45.45646
             ],
             [
                14.93189,
                45.5423
             ],
             [
                14.84004,
                45.48603
             ],
             [
                14.63669,
                45.66596
             ],
             [
                14.56725,
                45.68938
             ],
             [
                14.3815,
                45.51847
             ],
             [
                13.9611506275667,
                45.5363532004059
             ],
             [
                13.88544,
                45.45557
             ],
             [
                13.7629337864345,
                45.4883104901692
             ],
             [
                13.6378206420858,
                45.4777904899967
             ],
             [
                13.47623,
                45.5298629371755
             ],
             [
                13.4653984907596,
                45.4757288891212
             ],
             [
                13.4849811739836,
                45.4100027071764
             ],
             [
                13.5230873990222,
                45.2571621383613
             ],
             [
                13.569104886388,
                45.0122682169967
             ],
             [
                13.8918204630121,
                44.7363882415735
             ],
             [
                15.3927219243172,
                43.6792343212366
             ]
          ]
       ]
    }
}
