{
    "type": "Feature",
    "properties": {
        "category": "photo",
        "id": "osm-hr-karlovac-2023",
        "name": "osm-hr: Karlovac 2023 Aerial imagery",
        "icon": "https://osmlab.github.io/editor-layer-index/sources/europe/hr/osm-hr.png",
        "start_date": "2023-11",
        "end_date": "2023-11",
        "url": "https://tms.osm-hr.org/karlovac-2023/{zoom}/{x}/{-y}.png",
        "permission_osm": "explicit",
        "license_url": "https://narodne-novine.nn.hr/clanci/sluzbeni/2013_02_25_403.html",
        "privacy_policy_url": "https://tms.osm-hr.org/privacy.htm",
        "max_zoom": 20,
        "country_code": "HR",
        "type": "tms"
    },
    "geometry": {
        "type": "Polygon",
        "coordinates": [
            [
                [
                    15.52661060214,
                    45.52887711938
                ],
                [
                    15.52331683874,
                    45.51064767293
                ],
                [
                    15.51492688894,
                    45.50986574159
                ],
                [
                    15.51415434837,
                    45.50460250467
                ],
                [
                    15.53256503105,
                    45.47557042459
                ],
                [
                    15.52290907860,
                    45.46163573077
                ],
                [
                    15.52878848076,
                    45.45266514239
                ],
                [
                    15.56462279320,
                    45.45389943552
                ],
                [
                    15.57749739647,
                    45.50273768097
                ],
                [
                    15.57947150230,
                    45.52288653499
                ],
                [
                    15.55784216881,
                    45.52727622357
                ],
                [
                    15.55046072960,
                    45.53677602037
                ],
                [
                    15.54265013695,
                    45.53767781641
                ],
                [
                    15.53792944908,
                    45.53647541847
                ],
                [
                    15.52661060214,
                    45.52887711938
                ]
            ]
        ]
    }
}
