{
    "type": "Feature",
    "properties": {
        "id": "NRCS_Northwest_Hawaiian_Islands_2022",
        "attribution": {
            "url": "https://datagateway.nrcs.usda.gov/",
            "text": "U.S. Department of Agriculture",
            "required": false
        },
        "name": "NRCS Northwest Hawaiian Islands Imagery (2022)",
        "type": "wms",
        "url": "https://apps.geo.fpac.usda.gov/nrcs-imagery/rest/services/ortho_imagery/northwest_hawaiian_islands_2022_30cm/ImageServer/exportImage?f=image&format=jpg&bbox={bbox}&imageSR={wkid}&bboxSR={wkid}&size={width},{height}",
        "start_date": "2020-05-29",
        "end_date": "2022-06-30",
        "max_zoom": 20,
        "min_zoom": 12,
        "license_url": "https://www.usda.gov/policies-and-links/",
        "country_code": "US",
        "available_projections": [
            "CRS:84",
            "EPSG:4326",
            "EPSG:3857"
        ],
        "icon": "https://osmlab.github.io/editor-layer-index/sources/north-america/us/USDA.png",
        "category": "historicphoto",
        "privacy_policy_url": "https://www.usda.gov/privacy-policy",
        "valid-georeference": true
    },
    "geometry": {
        "type": "Polygon",
        "coordinates": [
            [
                [
                    -178.79629342259264,
                    27.39866602007675
                ],
                [
                    -162.1411202500087,
                    21.87262404328549
                ],
                [
                    -161.47491332310534,
                    23.210214682340474
                ],
                [
                    -178.6297416908668,
                    29.171296555558747
                ],
                [
                    -178.79629342259264,
                    27.39866602007675
                ]
            ]
        ]
    }
}