{
    "geometry": null,
    "properties": {
        "attribution": {
            "required": true,
            "text": "\u00a9 OpenStreetMap contributors",
            "url": "https://www.openstreetmap.org/copyright"
        },
        "description": "Public GPS traces uploaded to OpenStreetMap.",
        "i18n": true,
        "icon": "https://osmlab.github.io/editor-layer-index/sources/world/OpenStreetMap-GPS.svg",
        "id": "osm-gps",
        "max_zoom": 20,
        "name": "OpenStreetMap GPS traces",
        "overlay": true,
        "type": "tms",
        "category": "other",
        "url": "https://{switch:a,b,c}.gps-tile.openstreetmap.org/lines/{zoom}/{x}/{y}.png",
        "license_url": "https://wiki.osmfoundation.org/wiki/Terms_of_Use",
        "privacy_policy_url": "https://wiki.osmfoundation.org/wiki/Privacy_Policy"
    },
    "type": "Feature"
}
