{
    "type": "Feature",
    "properties": {
        "id": "ORTOS_DGT_2025_RGB",
        "name": "Orthophotos of mainland Portugal - 25 cm - 2025 (DGT)",
        "type": "wms",
        "url": "https://cartografia.dgterritorio.gov.pt/wms/ortos2025?FORMAT=image/png&TRANSPARENT=TRUE&VERSION=1.3.0&SERVICE=WMS&REQUEST=GetMap&LAYERS=Ortos2025-RGB&STYLES=&CRS={proj}&WIDTH={width}&HEIGHT={height}&BBOX={bbox}",
        "category": "photo",
        "start_date": "2025-03",
        "end_date": "2025-07",
        "country_code": "PT",
        "available_projections": [
            "EPSG:3763",
            "EPSG:3857",
            "EPSG:4258",
            "EPSG:4326"
        ],
        "best": true,
        "i18n": true,
        "attribution": {
            "text": "Informação geográfica cedida pela Direção-Geral do Território",
            "url": "https://snig.dgterritorio.gov.pt/rndg/srv/por/catalog.search#/metadata/96d83932-f957-40d6-a2ea-3a25751c4b2d",
            "required": true
        },
        "max_zoom": 20,
        "min_zoom": 14,
        "license_url": "https://snig.dgterritorio.gov.pt/rndg/srv/por/catalog.search#/metadata/96d83932-f957-40d6-a2ea-3a25751c4b2d",
        "privacy_policy_url": "https://snig.dgterritorio.gov.pt/informacoes-sobre-cookies"
    },
    "geometry": {
        "type": "Polygon",
        "coordinates": [
            [
                [
                    -8.89074502935,
                    41.96201312908
                ],
                [
                    -9.56281168470,
                    39.47228705251
                ],
                [
                    -9.50643548012,
                    38.76526047772
                ],
                [
                    -8.99711677551,
                    36.98445515174
                ],
                [
                    -7.89925583839,
                    36.94817702151
                ],
                [
                    -7.32927561879,
                    37.16204370212
                ],
                [
                    -7.32741953015,
                    37.27822751483
                ],
                [
                    -7.41150141835,
                    37.27876534231
                ],
                [
                    -7.40714551091,
                    37.72928290299
                ],
                [
                    -7.31641174436,
                    37.72869739750
                ],
                [
                    -7.31541396260,
                    37.81877678992
                ],
                [
                    -7.22457290769,
                    37.81811571448
                ],
                [
                    -7.22290993810,
                    37.95324161977
                ],
                [
                    -7.13189722180,
                    37.95250561123
                ],
                [
                    -7.13128567815,
                    37.99753236604
                ],
                [
                    -6.95438862920,
                    37.99590058642
                ],
                [
                    -6.95433498502,
                    37.99973056099
                ],
                [
                    -6.94909931302,
                    37.99967983416
                ],
                [
                    -6.94625617146,
                    38.17598826748
                ],
                [
                    -6.86346174359,
                    38.17511954902
                ],
                [
                    -6.86027527928,
                    38.26513280496
                ],
                [
                    -6.94473267674,
                    38.26601729668
                ],
                [
                    -6.94546223760,
                    38.22097034868
                ],
                [
                    -7.03685046315,
                    38.22186380669
                ],
                [
                    -7.03618527532,
                    38.26689335406
                ],
                [
                    -7.12757350087,
                    38.26771043651
                ],
                [
                    -7.12654353261,
                    38.34244719753
                ],
                [
                    -7.13036299825,
                    38.34298574327
                ],
                [
                    -7.12997676015,
                    38.35782783413
                ],
                [
                    -7.21785665631,
                    38.35853452449
                ],
                [
                    -7.21500278592,
                    38.58372547670
                ],
                [
                    -7.26470948339,
                    38.58410287748
                ],
                [
                    -7.24033364296,
                    38.62679511950
                ],
                [
                    -7.25646981239,
                    38.71096470800
                ],
                [
                    -7.21999176979,
                    38.73373244783
                ],
                [
                    -7.09473926765,
                    38.81362485529
                ],
                [
                    -7.02940133083,
                    38.87223918158
                ],
                [
                    -7.04272019549,
                    38.90211280174
                ],
                [
                    -7.02773102760,
                    38.92142292770
                ],
                [
                    -6.94839745379,
                    39.02353864284
                ],
                [
                    -6.95674904823,
                    39.05471786578
                ],
                [
                    -6.97760590553,
                    39.08923482842
                ],
                [
                    -7.03622826576,
                    39.12180388148
                ],
                [
                    -7.14355759045,
                    39.11487698883
                ],
                [
                    -7.12738045692,
                    39.17139446754
                ],
                [
                    -7.23861702919,
                    39.20931266216
                ],
                [
                    -7.22955534284,
                    39.27990022600
                ],
                [
                    -7.30796822548,
                    39.36947358461
                ],
                [
                    -7.29320437076,
                    39.45948380572
                ],
                [
                    -7.50870468378,
                    39.62160674087
                ],
                [
                    -7.01519968271,
                    39.61792084043
                ],
                [
                    -7.01449157953,
                    39.66293157593
                ],
                [
                    -6.92687990427,
                    39.66205609585
                ],
                [
                    -6.92394020319,
                    39.77206482252
                ],
                [
                    -6.91934826136,
                    39.77194937653
                ],
                [
                    -6.91810371637,
                    39.84207185624
                ],
                [
                    -6.82611467600,
                    39.84108331997
                ],
                [
                    -6.82021381617,
                    40.07406515805
                ],
                [
                    -6.83077099085,
                    40.07413083676
                ],
                [
                    -6.82980539560,
                    40.11121277258
                ],
                [
                    -6.91329719782,
                    40.11211535660
                ],
                [
                    -6.91252472162,
                    40.15713088653
                ],
                [
                    -7.00638057947,
                    40.15808205915
                ],
                [
                    -7.00562956095,
                    40.20319824425
                ],
                [
                    -6.91170933008,
                    40.20226409266
                ],
                [
                    -6.91089393854,
                    40.24725262730
                ],
                [
                    -6.81688787699,
                    40.24623719256
                ],
                [
                    -6.81600811243,
                    40.29124562165
                ],
                [
                    -6.73071386576,
                    40.29025539835
                ],
                [
                    -6.72528507471,
                    40.42517640965
                ],
                [
                    -6.81336881876,
                    40.42620548957
                ],
                [
                    -6.81251051188,
                    40.47130618226
                ],
                [
                    -6.72348263025,
                    40.47026146892
                ],
                [
                    -6.72019960642,
                    40.56019411970
                ],
                [
                    -6.81072952509,
                    40.56125373431
                ],
                [
                    -6.80984976053,
                    40.60636144839
                ],
                [
                    -6.71891214609,
                    40.60530254812
                ],
                [
                    -6.71414854288,
                    40.74018513365
                ],
                [
                    -6.80718900919,
                    40.74129066711
                ],
                [
                    -6.80540802240,
                    40.83142727646
                ],
                [
                    -6.71517851114,
                    40.83037195025
                ],
                [
                    -6.71198131800,
                    40.92027412760
                ],
                [
                    -6.80358412027,
                    40.92134423525
                ],
                [
                    -6.80178167582,
                    41.01146286479
                ],
                [
                    -6.70753957987,
                    41.01034564224
                ],
                [
                    -6.70378448725,
                    41.14534352789
                ],
                [
                    -6.61063673258,
                    41.14416394328
                ],
                [
                    -6.60977842569,
                    41.16599090041
                ],
                [
                    -6.60799743891,
                    41.16599090041
                ],
                [
                    -6.60643102884,
                    41.23413917317
                ],
                [
                    -6.41567232370,
                    41.23147657203
                ],
                [
                    -6.41331197977,
                    41.32147682870
                ],
                [
                    -6.32505657434,
                    41.32010703337
                ],
                [
                    -6.32424118280,
                    41.33277251349
                ],
                [
                    -6.31746055841,
                    41.33254694124
                ],
                [
                    -6.31655933619,
                    41.36500519964
                ],
                [
                    -6.22974159479,
                    41.36358800568
                ],
                [
                    -6.22624399424,
                    41.44145566228
                ],
                [
                    -6.21869089365,
                    41.44134306462
                ],
                [
                    -6.21701719522,
                    41.49842108750
                ],
                [
                    -6.13067152262,
                    41.49695858832
                ],
                [
                    -6.12502815485,
                    41.63181931248
                ],
                [
                    -6.21300461054,
                    41.63331083778
                ],
                [
                    -6.21169569254,
                    41.67829697268
                ],
                [
                    -6.30769731760,
                    41.67986755278
                ],
                [
                    -6.30653860331,
                    41.72163411554
                ],
                [
                    -6.36177065134,
                    41.72241888134
                ],
                [
                    -6.36168482065,
                    41.72571799599
                ],
                [
                    -6.49867059946,
                    41.72773581757
                ],
                [
                    -6.49375679255,
                    41.92030534510
                ],
                [
                    -6.50161030054,
                    41.92027341286
                ],
                [
                    -6.49912121058,
                    41.99785347440
                ],
                [
                    -7.25597622156,
                    42.00612927138
                ],
                [
                    -7.25818636179,
                    41.93494459162
                ],
                [
                    -7.26492407084,
                    41.93497651651
                ],
                [
                    -7.26576092005,
                    41.87115870340
                ],
                [
                    -7.45860101938,
                    41.87245294106
                ],
                [
                    -7.45817186594,
                    41.91746331359
                ],
                [
                    -7.84387352228,
                    41.91907594251
                ],
                [
                    -7.84368040323,
                    41.96410132033
                ],
                [
                    -7.94002535105,
                    41.96430873696
                ],
                [
                    -7.94017555475,
                    41.91926753928
                ],
                [
                    -8.03660633326,
                    41.91941123647
                ],
                [
                    -8.03669216394,
                    41.87438625962
                ],
                [
                    -8.13316585779,
                    41.87445016998
                ],
                [
                    -8.13316585779,
                    41.96456401803
                ],
                [
                    -8.03669216394,
                    41.96453210795
                ],
                [
                    -8.03647758722,
                    42.09228342184
                ],
                [
                    -8.04248573542,
                    42.09229934485
                ],
                [
                    -8.04235698938,
                    42.09948021477
                ],
                [
                    -8.13318731546,
                    42.09951205717
                ],
                [
                    -8.13316585779,
                    42.17623759038
                ],
                [
                    -8.14112665415,
                    42.17623759038
                ],
                [
                    -8.14099790812,
                    42.18953019698
                ],
                [
                    -8.22989704370,
                    42.18949839982
                ],
                [
                    -8.22985412836,
                    42.14448939620
                ],
                [
                    -8.42338087320,
                    42.14415528743
                ],
                [
                    -8.42316629648,
                    42.09912994729
                ],
                [
                    -8.70848896265,
                    42.09803136858
                ],
                [
                    -8.70971204996,
                    42.04752397824
                ],
                [
                    -8.71284487009,
                    42.04752397824
                ],
                [
                    -8.71250154734,
                    42.00801070895
                ],
                [
                    -8.79970552683,
                    42.00754832691
                ],
                [
                    -8.79970552683,
                    41.96802616655
                ],
                [
                    -8.80865337610,
                    41.96801021238
                ],
                [
                    -8.80861046076,
                    41.96244196304
                ],
                [
                    -8.89074502935,
                    41.96201312908
                ]
            ]
        ]
    }
}
