{
    "type" : "Feature",
    "properties" : {
       "license_url" : "https://ge.ch/sitg/media/sitg/files/documents/conditions_generales_dutilisation_des_donnees_et_produits_du_sitg_en_libre_acces_-_revision_09.2020.pdf",
       "privacy_policy_url" : "https://sitg.ge.ch/ressources/conditions-utilisation-donnees",
       "start_date" : "2024",
       "end_date" : "2024",
       "id" : "Geneve-orthophoto-2024",
       "url" : "https://raster.sitg.ge.ch/arcgis/rest/services/ORTHOPHOTOS_2024_EPSG3857/MapServer/tile/{zoom}/{y}/{x}",
       "attribution" : {
          "required" : true,
          "text" : "Système d'information du territoire à Genève (SITG)"
       },
       "type" : "tms",
       "best" : false,
       "category" : "photo",
       "name" : "Canton de Génève, Orthophoto 2024 (4cm) (SITG)",
       "country_code" : "CH",
       "min_zoom" : 2
    },

    "geometry" : {
        "type" : "Polygon",
        "coordinates" : [
            [
                [
                    6.166434915966619,
                    46.370774937414126
                ],
                [
                    6.110728282075797,
                    46.31785369911387
                ],
                [
                    6.002529903639413,
                    46.24544935652446
                ],
                [
                    5.970002519439078,
                    46.21694469466013
                ],
                [
                    5.953130643608688,
                    46.1911148990047
                ],
                [
                    5.987657380552037,
                    46.18285046915145
                ],
                [
                    5.977363383229289,
                    46.175836390331824
                ],
                [
                    5.952172372026467,
                    46.1339107398976
                ],
                [
                    5.956909493157269,
                    46.11861910089738
                ],
                [
                    5.990702635982558,
                    46.13547375228791
                ],
                [
                    6.037424665029334,
                    46.12869252477603
                ],
                [
                    6.055839991794329,
                    46.146935915734815
                ],
                [
                    6.089439162178536,
                    46.1435975818211
                ],
                [
                    6.125130535670792,
                    46.13601279388703
                ],
                [
                    6.195365435207663,
                    46.15799195712316
                ],
                [
                    6.193304450250025,
                    46.176122761616256
                ],
                [
                    6.23611742266948,
                    46.20114979308141
                ],
                [
                    6.257443483667771,
                    46.20150150106153
                ],
                [
                    6.311646694176943,
                    46.22673235610077
                ],
                [
                    6.319487458173285,
                    46.25813013333271
                ],
                [
                    6.297702448583664,
                    46.27080495423286
                ],
                [
                    6.27033163239534,
                    46.254138985672995
                ],
                [
                    6.246012508081975,
                    46.27750064367197
                ],
                [
                    6.262646959147077,
                    46.29205871023345
                ],
                [
                    6.217226012492773,
                    46.35800667826513
                ],
                [
                    6.1926516673796925,
                    46.364500036290394
                ],
                [
                    6.166434915966619,
                    46.370774937414126
                ]
            ]
       ]
    }
}

