{
	"type": "Feature",
	"properties": {
		"license_url": "https://wiki.openstreetmap.org/wiki/Permission_City_of_Berne_Orthophotos",
		"privacy_policy_url": "https://www.bern.ch/disclaimer",
		"start_date": "2023",
		"end_date": "2023",
		"attribution": {
			"url": "https://map.bern.ch/geoportal/#/produkt/Orthofoto_2023",
			"text": "Geoinformation Stadt Bern",
			"required": true
		},
		"id": "Bern-Orthofotos",
		"name": "Stadt Bern 10cm (2023)",
		"available_projections": [
			"CRS:84",
			"EPSG:2056",
			"EPSG:3857",
			"EPSG:4326"
		],
		"url": "https://map.bern.ch/arcgis/services/Geoportal/Orthofoto_2023/MapServer/WmsServer?FORMAT=image/png&TRANSPARENT=TRUE&VERSION=1.3.0&SERVICE=WMS&REQUEST=GetMap&LAYERS=0&STYLES=&CRS={proj}&WIDTH={width}&HEIGHT={height}&BBOX={bbox}",
		"country_code": "CH",
		"type": "wms",
		"category": "photo",
		"best": true,
		"min_zoom": 4
	},
	"geometry": {
		"type": "Polygon",
		"coordinates": [
			[
				[
					7.41240,
					46.92403
				],
				[
					7.47805,
					46.92396
				],
				[
					7.47807,
					46.93307
				],
				[
					7.50422,
					46.93304
				],
				[
					7.50426,
					46.95099
				],
				[
					7.49120,
					46.95100
				],
				[
					7.49125,
					46.97810
				],
				[
					7.46493,
					46.97813
				],
				[
					7.46497,
					46.99603
				],
				[
					7.43859,
					46.99605
				],
				[
					7.43855,
					46.97816
				],
				[
					7.38613,
					46.97821
				],
				[
					7.38611,
					46.96905
				],
				[
					7.35985,
					46.96908
				],
				[
					7.35983,
					46.96007
				],
				[
					7.34669,
					46.96009
				],
				[
					7.34667,
					46.95097
				],
				[
					7.29424,
					46.95102
				],
				[
					7.29420,
					46.93291
				],
				[
					7.28123,
					46.93292
				],
				[
					7.28119,
					46.91504
				],
				[
					7.34662,
					46.91497
				],
				[
					7.34664,
					46.92401
				],
				[
					7.38608,
					46.92398
				],
				[
					7.38606,
					46.91512
				],
				[
					7.41239,
					46.91509
				],
				[
					7.41240,
					46.92403
				]
			]
		]
	}
}