{
    "type": "Feature",
    "properties": {
        "id": "Ontario_Mosaic_2023-2027_RGB",
        "attribution": {
            "url": "https://www.ontario.ca/page/open-government-licence-ontario",
            "text": "Contains information licensed under the Open Government Licence – Ontario",
            "required": true
        },
        "name": "Ontario Orthophotography Mosaic 2023-2027 (RGB)",
        "url": "https://ws.geoservices.lrc.gov.on.ca/arcgis5/services/AerialImagery/GEO_Imagery_Data_Service_2023to2027/ImageServer/WMSServer/?FORMAT=image/png&TRANSPARENT=TRUE&VERSION=1.3.0&SERVICE=WMS&REQUEST=GetMap&LAYERS=GEO_Imagery_Data_Service_2023to2027:None&STYLES=&CRS={proj}&WIDTH={width}&HEIGHT={height}&BBOX={bbox}",
        "max_zoom": 20,
        "license_url": "https://osmfoundation.org/wiki/OGL_Canada_and_local_variants",
        "permission_osm": "implicit",
        "country_code": "CA",
        "type": "wms",
        "available_projections": [
            "CRS:84",
            "EPSG:3857",
            "EPSG:4326"
        ],
        "description": "Natural color image mosaic covering all spring image acquisition areas in Ontario from 2023-2027",
        "category": "photo",
        "valid-georeference": true,
        "privacy_policy_url": "https://www.ontario.ca/page/privacy-statement",
        "start_date": "2023-04-08",
        "end_date": "2027"
    },
    "geometry": {
        "type": "Polygon",
        "coordinates": [
            [
                [
                    -81.9907681,
                    45.4923891
                ],
                [
                    -81.4636285,
                    44.6920919
                ],
                [
                    -81.8811090,
                    44.2097765
                ],
                [
                    -81.8510955,
                    43.4171283
                ],
                [
                    -82.4723852,
                    43.1075667
                ],
                [
                    -82.8040131,
                    42.4668560
                ],
                [
                    -83.1830533,
                    42.3614233
                ],
                [
                    -83.3073112,
                    41.9639188
                ],
                [
                    -82.6811688,
                    41.5754636
                ],
                [
                    -80.9889958,
                    42.3959809
                ],
                [
                    -78.8850261,
                    42.6382904
                ],
                [
                    -78.6462532,
                    43.7082891
                ],
                [
                    -76.8437213,
                    43.7235414
                ],
                [
                    -74.2016054,
                    45.0199468
                ],
                [
                    -74.1928856,
                    45.7213436
                ],
                [
                    -78.4926460,
                    46.5833520
                ],
                [
                    -78.5357720,
                    45.8594159
                ],
                [
                    -80.2771051,
                    45.3984538
                ],
                [
                    -81.6229275,
                    45.6274861
                ],
                [
                    -81.9907681,
                    45.4923891
                ]
            ]
        ]
    }
}
