{
    "type": "Feature",
    "properties": {
        "id": "NRCS_Alaska_2023",
        "attribution": {
            "url": "https://www.nrcs.usda.gov/",
            "text": "U.S. Department of Agriculture",
            "required": false
        },
        "name": "NRCS Alaska Imagery (2023)",
        "type": "wms",
        "url": "https://apps.geo.fpac.usda.gov/nrcs-imagery/services/ortho_imagery/alaska_vivid_2023_30cm/ImageServer/WMSServer?FORMAT=image/jpeg&VERSION=1.3.0&SERVICE=WMS&REQUEST=GetMap&LAYERS=alaska_vivid_2023_30cm:Natural Color No Stretch&STYLES=&CRS={proj}&WIDTH={width}&HEIGHT={height}&BBOX={bbox}",
        "start_date": "2002-05-20",
        "end_date": "2023-10-19",
        "max_zoom": 20,
        "min_zoom": 12,
        "license_url": "https://www.usda.gov/policies-and-links/",
        "country_code": "US",
        "available_projections": [
            "CRS:84",
            "EPSG:4326",
            "EPSG:3857"
        ],
        "icon": "https://osmlab.github.io/editor-layer-index/sources/north-america/us/USDA.png",
        "category": "photo",
        "privacy_policy_url": "https://www.usda.gov/privacy-policy",
        "valid-georeference": true
    },
    "geometry": {
        "type": "MultiPolygon",
        "coordinates": [
            [
                [
                    [
                        -140.9794513,
                        70.5453058
                    ],
                    [
                        -140.9762494,
                        60.337968
                    ],
                    [
                        -140.8890306,
                        60.3373205
                    ],
                    [
                        -140.8894667,
                        60.2930475
                    ],
                    [
                        -140.6683671,
                        60.2930475
                    ],
                    [
                        -140.6690891,
                        60.2489311
                    ],
                    [
                        -140.5365861,
                        60.2489311
                    ],
                    [
                        -140.5365861,
                        60.2927367
                    ],
                    [
                        -140.4924184,
                        60.2927367
                    ],
                    [
                        -140.4940542,
                        60.3372932
                    ],
                    [
                        -140.3615511,
                        60.337698
                    ],
                    [
                        -140.3615511,
                        60.2939527
                    ],
                    [
                        -140.229866,
                        60.293142
                    ],
                    [
                        -140.2306839,
                        60.2489311
                    ],
                    [
                        -140.0545686,
                        60.2495972
                    ],
                    [
                        -140.0545686,
                        60.2070692
                    ],
                    [
                        -139.9649828,
                        60.2051125
                    ],
                    [
                        -139.9659672,
                        60.2495972
                    ],
                    [
                        -139.8763814,
                        60.2495972
                    ],
                    [
                        -139.8793348,
                        60.2935337
                    ],
                    [
                        -139.789749,
                        60.2930458
                    ],
                    [
                        -139.7907335,
                        60.336924
                    ],
                    [
                        -139.6598004,
                        60.3378984
                    ],
                    [
                        -139.6568471,
                        60.3812297
                    ],
                    [
                        -139.0439376,
                        60.3804728
                    ],
                    [
                        -139.0437546,
                        60.2496321
                    ],
                    [
                        -139.0873461,
                        60.2499456
                    ],
                    [
                        -139.0879779,
                        60.2053996
                    ],
                    [
                        -139.1315695,
                        60.2053996
                    ],
                    [
                        -139.1313082,
                        60.1176819
                    ],
                    [
                        -139.1746359,
                        60.1175208
                    ],
                    [
                        -139.1746359,
                        60.0733509
                    ],
                    [
                        -139.0873338,
                        60.0730283
                    ],
                    [
                        -139.0868772,
                        60.0294165
                    ],
                    [
                        -138.99922,
                        60.0294165
                    ],
                    [
                        -138.9988338,
                        59.9855978
                    ],
                    [
                        -138.8248967,
                        59.9855512
                    ],
                    [
                        -138.8238772,
                        59.9414073
                    ],
                    [
                        -138.6913368,
                        59.941152
                    ],
                    [
                        -138.6918002,
                        59.8977674
                    ],
                    [
                        -138.6471299,
                        59.8977674
                    ],
                    [
                        -138.6475858,
                        59.8098636
                    ],
                    [
                        -138.6029155,
                        59.8094052
                    ],
                    [
                        -138.6033363,
                        59.7657004
                    ],
                    [
                        -137.547634,
                        59.2122165
                    ],
                    [
                        -137.5459892,
                        59.1509825
                    ],
                    [
                        -137.5050781,
                        59.1509825
                    ],
                    [
                        -137.5050392,
                        59.0186661
                    ],
                    [
                        -137.4627087,
                        59.0186661
                    ],
                    [
                        -137.4613961,
                        58.9310569
                    ],
                    [
                        -137.4170967,
                        58.9307182
                    ],
                    [
                        -137.4174248,
                        58.9748893
                    ],
                    [
                        -137.3727973,
                        58.9752276
                    ],
                    [
                        -136.9785229,
                        59.1062548
                    ],
                    [
                        -136.8905391,
                        59.1508145
                    ],
                    [
                        -136.8896247,
                        59.1948634
                    ],
                    [
                        -136.5824711,
                        59.1948298
                    ],
                    [
                        -136.4938816,
                        59.281912
                    ],
                    [
                        -136.4941713,
                        59.501602
                    ],
                    [
                        -136.4076827,
                        59.5018193
                    ],
                    [
                        -136.4072545,
                        59.4585496
                    ],
                    [
                        -136.3622976,
                        59.458332
                    ],
                    [
                        -136.3631539,
                        59.501602
                    ],
                    [
                        -136.2736681,
                        59.5020366
                    ],
                    [
                        -136.2740963,
                        59.5452507
                    ],
                    [
                        -136.3622976,
                        59.5461187
                    ],
                    [
                        -136.3622711,
                        59.6338921
                    ],
                    [
                        -136.2289734,
                        59.6336041
                    ],
                    [
                        -136.2318216,
                        59.6782103
                    ],
                    [
                        -135.9223226,
                        59.6776109
                    ],
                    [
                        -135.9233413,
                        59.7218129
                    ],
                    [
                        -135.747123,
                        59.7217397
                    ],
                    [
                        -135.7478886,
                        59.7653364
                    ],
                    [
                        -135.6154234,
                        59.765722
                    ],
                    [
                        -135.6150428,
                        59.809553
                    ],
                    [
                        -135.3958639,
                        59.809553
                    ],
                    [
                        -135.395412,
                        59.765891
                    ],
                    [
                        -135.307964,
                        59.7653782
                    ],
                    [
                        -135.3075821,
                        59.7215063
                    ],
                    [
                        -135.2201306,
                        59.7213137
                    ],
                    [
                        -135.2178071,
                        59.6777072
                    ],
                    [
                        -135.1317607,
                        59.6775013
                    ],
                    [
                        -135.1312822,
                        59.633513
                    ],
                    [
                        -135.043285,
                        59.6338401
                    ],
                    [
                        -135.0436165,
                        59.5901083
                    ],
                    [
                        -134.999799,
                        59.5899364
                    ],
                    [
                        -135.0001922,
                        59.4581701
                    ],
                    [
                        -135.0447905,
                        59.4580082
                    ],
                    [
                        -135.0435163,
                        59.4139476
                    ],
                    [
                        -134.9559125,
                        59.4137855
                    ],
                    [
                        -134.9563411,
                        59.3702224
                    ],
                    [
                        -134.9999395,
                        59.3700758
                    ],
                    [
                        -135.0003544,
                        59.3263093
                    ],
                    [
                        -134.9560997,
                        59.3262548
                    ],
                    [
                        -134.9561549,
                        59.2824176
                    ],
                    [
                        -134.6925076,
                        59.282077
                    ],
                    [
                        -134.6923794,
                        59.2384364
                    ],
                    [
                        -134.6484215,
                        59.2384894
                    ],
                    [
                        -134.6488537,
                        59.1943564
                    ],
                    [
                        -134.560461,
                        59.1942457
                    ],
                    [
                        -134.5600057,
                        59.1506057
                    ],
                    [
                        -134.429516,
                        59.1509578
                    ],
                    [
                        -134.4281424,
                        59.1065557
                    ],
                    [
                        -134.3845313,
                        59.106732
                    ],
                    [
                        -134.3844192,
                        59.0625298
                    ],
                    [
                        -134.3410228,
                        59.0625298
                    ],
                    [
                        -134.3410079,
                        58.9745781
                    ],
                    [
                        -134.2974891,
                        58.9743445
                    ],
                    [
                        -134.2979424,
                        58.9306239
                    ],
                    [
                        -134.2526103,
                        58.93039
                    ],
                    [
                        -134.2531703,
                        58.8867135
                    ],
                    [
                        -134.165061,
                        58.8867135
                    ],
                    [
                        -134.1647013,
                        58.8428293
                    ],
                    [
                        -134.0331247,
                        58.8433153
                    ],
                    [
                        -134.0331247,
                        58.7988561
                    ],
                    [
                        -133.9018854,
                        58.7985605
                    ],
                    [
                        -133.9017009,
                        58.7549149
                    ],
                    [
                        -133.8136642,
                        58.7549149
                    ],
                    [
                        -133.8134519,
                        58.7109276
                    ],
                    [
                        -133.7257778,
                        58.7109276
                    ],
                    [
                        -133.7255389,
                        58.6668545
                    ],
                    [
                        -133.6813435,
                        58.6671029
                    ],
                    [
                        -133.6817139,
                        58.6231577
                    ],
                    [
                        -133.6377968,
                        58.622947
                    ],
                    [
                        -133.6376262,
                        58.5788859
                    ],
                    [
                        -133.5494602,
                        58.5791645
                    ],
                    [
                        -133.5497274,
                        58.5354029
                    ],
                    [
                        -133.4620717,
                        58.5353194
                    ],
                    [
                        -133.4618733,
                        58.4912611
                    ],
                    [
                        -133.3745417,
                        58.4911573
                    ],
                    [
                        -133.374424,
                        58.4036586
                    ],
                    [
                        -133.4176963,
                        58.4036586
                    ],
                    [
                        -133.4173167,
                        58.3592816
                    ],
                    [
                        -133.3751832,
                        58.3592816
                    ],
                    [
                        -133.3748036,
                        58.3158456
                    ],
                    [
                        -133.330013,
                        58.3152475
                    ],
                    [
                        -133.3299338,
                        58.2717855
                    ],
                    [
                        -133.2420036,
                        58.2714687
                    ],
                    [
                        -133.2426058,
                        58.2277335
                    ],
                    [
                        -133.1989418,
                        58.2270992
                    ],
                    [
                        -133.1987252,
                        58.1837603
                    ],
                    [
                        -133.1549745,
                        58.1836055
                    ],
                    [
                        -133.1546809,
                        58.1397699
                    ],
                    [
                        -133.1103429,
                        58.1394599
                    ],
                    [
                        -133.1103429,
                        58.0960353
                    ],
                    [
                        -133.0668858,
                        58.0958802
                    ],
                    [
                        -133.0662745,
                        58.00796
                    ],
                    [
                        -133.021563,
                        58.00796
                    ],
                    [
                        -133.0228934,
                        57.9640013
                    ],
                    [
                        -132.9349343,
                        57.9638292
                    ],
                    [
                        -132.9346097,
                        57.9202435
                    ],
                    [
                        -132.275895,
                        57.2607882
                    ],
                    [
                        -132.276528,
                        57.1732594
                    ],
                    [
                        -132.3198482,
                        57.1290609
                    ],
                    [
                        -132.3198482,
                        57.0859305
                    ],
                    [
                        -132.0098146,
                        57.0852081
                    ],
                    [
                        -132.0127662,
                        56.9978137
                    ],
                    [
                        -132.0559261,
                        56.9973171
                    ],
                    [
                        -132.0541658,
                        56.8656177
                    ],
                    [
                        -131.925221,
                        56.8656177
                    ],
                    [
                        -131.9242551,
                        56.8217718
                    ],
                    [
                        -131.8349114,
                        56.8215075
                    ],
                    [
                        -131.8353543,
                        56.7775338
                    ],
                    [
                        -131.8796744,
                        56.7777816
                    ],
                    [
                        -131.8805788,
                        56.734147
                    ],
                    [
                        -131.8371633,
                        56.734147
                    ],
                    [
                        -131.8362588,
                        56.6457312
                    ],
                    [
                        -131.5284233,
                        56.6455201
                    ],
                    [
                        -131.5284233,
                        56.6017617
                    ],
                    [
                        -131.440341,
                        56.601174
                    ],
                    [
                        -131.440341,
                        56.5579526
                    ],
                    [
                        -131.3522587,
                        56.5576584
                    ],
                    [
                        -131.352982,
                        56.5135348
                    ],
                    [
                        -131.2211535,
                        56.5135348
                    ],
                    [
                        -131.2207491,
                        56.4700027
                    ],
                    [
                        -131.0887397,
                        56.4697112
                    ],
                    [
                        -131.0892171,
                        56.4261808
                    ],
                    [
                        -130.8696431,
                        56.4264448
                    ],
                    [
                        -130.8691658,
                        56.3820721
                    ],
                    [
                        -130.69112,
                        56.3820721
                    ],
                    [
                        -130.6931124,
                        56.3380553
                    ],
                    [
                        -130.6498525,
                        56.3375557
                    ],
                    [
                        -130.6488584,
                        56.2937034
                    ],
                    [
                        -130.518361,
                        56.2937034
                    ],
                    [
                        -130.5180063,
                        56.2497946
                    ],
                    [
                        -130.4288024,
                        56.2504598
                    ],
                    [
                        -130.4304767,
                        56.1619882
                    ],
                    [
                        -130.2969476,
                        56.1617551
                    ],
                    [
                        -130.2969158,
                        56.1191784
                    ],
                    [
                        -130.1655074,
                        56.1191399
                    ],
                    [
                        -130.1674673,
                        56.1621638
                    ],
                    [
                        -130.0792713,
                        56.1621638
                    ],
                    [
                        -130.0784873,
                        56.1187028
                    ],
                    [
                        -130.0338013,
                        56.1182658
                    ],
                    [
                        -130.0334093,
                        56.0745364
                    ],
                    [
                        -129.9895073,
                        56.0740989
                    ],
                    [
                        -129.9904651,
                        55.9117027
                    ],
                    [
                        -130.1515757,
                        55.7686007
                    ],
                    [
                        -129.9921436,
                        55.2927515
                    ],
                    [
                        -130.2850464,
                        54.9652293
                    ],
                    [
                        -130.7097558,
                        54.6685422
                    ],
                    [
                        -179.6988931,
                        50.2961326
                    ],
                    [
                        -179.5972504,
                        57.1704837
                    ],
                    [
                        -171.9781591,
                        63.9480012
                    ],
                    [
                        -169.0654252,
                        65.4694695
                    ],
                    [
                        -167.2244577,
                        72.0580569
                    ],
                    [
                        -140.9794513,
                        70.5453058
                    ]
                ]
            ],
            [
                [
                    [
                        179.87993130859775,
                        53.1846674
                    ],
                    [
                        171.9355978,
                        53.1846674
                    ],
                    [
                        171.9355978,
                        51.12051551155625
                    ],
                    [
                        179.87993130859775,
                        51.12051551155625
                    ],
                    [
                        179.87993130859775,
                        53.1846674
                    ]
                ]
            ]
        ]
    }
}