{
    "type": "Feature",
    "properties": {
        "description": "2025-2026 Satellite Orthophotos of Moldova. Data was collected between 12.01.2025-19.04.2026. Covers entire territory of Moldova, with some minor gaps at boundaries. Spatial resolution, 8 byte radiometrical depth.",
        "id": "Geodata-Gov-2026_Ortofoto_Moldova_Satellite",
        "name": "Moldova Satellite Orthophoto (2025-2026)",
        "type": "wms",
        "url": "https://maps2.ingeocad.md/geoserver/orthophoto/wms?SERVICE=WMS&VERSION=1.3.0&REQUEST=GetMap&FORMAT=image/png&TRANSPARENT=true&STYLES&LAYERS=orthophoto:sat_ortho_2026&exceptions=&CRS={proj}&WIDTH={width}&HEIGHT={height}&BBOX={bbox}",
        "country_code": "MD",
        "available_projections": [
            "EPSG:3857",
            "EPSG:4026",
            "EPSG:900913",
            "EPSG:4326",
            "CRS:84"
        ],
        "icon": "https://geoportalinds.gov.md/geonetwork/images/logos/favicon.png",
        "best": true,
        "permission_osm": "explicit",
        "category": "photo",
        "license_url": "https://geoportalinds.gov.md/geonetwork/srv/eng/catalog.search#/metadata/646c6c0a-a39d-44cc-8cba-72781971925a",
        "privacy_policy_url": "https://www.legis.md/cautare/getResults?doc_id=144681",
        "attribution": {
            "url": "https://geoportalinds.gov.md/geonetwork/srv/eng/catalog.search#/metadata/646c6c0a-a39d-44cc-8cba-72781971925a",
            "text": "© Agenţia Geodezie, Cartografie şi Cadastru / Geoportal INDS / Moldova Satellite Orthophoto (2025-2026)",
            "required": true
        }
    },
    "geometry": {
        "type": "Polygon",
        "coordinates": [
            [
                [
                    28.49441459656,
                    48.10055371787
                ],
                [
                    28.48789180756,
                    48.10032420843
                ],
                [
                    28.48617519379,
                    48.07257376165
                ],
                [
                    28.45561946869,
                    48.08427205639
                ],
                [
                    28.44394649506,
                    48.10192914804
                ],
                [
                    28.43090023041,
                    48.1175173824
                ],
                [
                    28.42884029388,
                    48.13012205441
                ],
                [
                    28.44600643158,
                    48.13974535751
                ],
                [
                    28.44188655853,
                    48.166085648
                ],
                [
                    28.42643703461,
                    48.17707585673
                ],
                [
                    28.39176143646,
                    48.18257007783
                ],
                [
                    28.37184871674,
                    48.17066518789
                ],
                [
                    28.35880245209,
                    48.15097026493
                ],
                [
                    28.3333965683,
                    48.13859982077
                ],
                [
                    28.31142391205,
                    48.1408908687
                ],
                [
                    28.31211055756,
                    48.16173470633
                ],
                [
                    28.34506954193,
                    48.17203897011
                ],
                [
                    28.36669887543,
                    48.18829259867
                ],
                [
                    28.38043178558,
                    48.21735313804
                ],
                [
                    28.37356533051,
                    48.24433949413
                ],
                [
                    28.34335292816,
                    48.25005511553
                ],
                [
                    28.30833400726,
                    48.24593993251
                ],
                [
                    28.219413414,
                    48.21369287542
                ],
                [
                    28.19606746674,
                    48.21346410032
                ],
                [
                    28.19023097992,
                    48.23565052623
                ],
                [
                    28.19538082123,
                    48.25737017886
                ],
                [
                    28.15452541351,
                    48.26674107438
                ],
                [
                    28.14182247162,
                    48.26445564851
                ],
                [
                    28.12671627045,
                    48.24548266951
                ],
                [
                    28.10646022797,
                    48.23862323396
                ],
                [
                    28.08929409027,
                    48.24228171406
                ],
                [
                    28.08963741302,
                    48.25348418177
                ],
                [
                    28.09753383636,
                    48.2774812071
                ],
                [
                    28.09822048187,
                    48.30078181503
                ],
                [
                    28.08277095795,
                    48.32041916542
                ],
                [
                    28.05427516937,
                    48.33137626116
                ],
                [
                    27.99419368744,
                    48.33137626116
                ],
                [
                    27.96192134857,
                    48.33160450896
                ],
                [
                    27.92209590912,
                    48.35373968941
                ],
                [
                    27.89051021576,
                    48.3747249996
                ],
                [
                    27.88295711517,
                    48.40367964658
                ],
                [
                    27.85377468109,
                    48.41553033905
                ],
                [
                    27.8239056015,
                    48.42601134189
                ],
                [
                    27.79403652191,
                    48.44810550411
                ],
                [
                    27.75901760101,
                    48.45994584119
                ],
                [
                    27.72605861664,
                    48.46085652198
                ],
                [
                    27.68039669037,
                    48.44468950913
                ],
                [
                    27.65121425629,
                    48.44377853833
                ],
                [
                    27.61550868988,
                    48.45675832975
                ],
                [
                    27.57430995941,
                    48.46062885331
                ],
                [
                    27.57705654144,
                    48.44514498841
                ],
                [
                    27.4634167099,
                    48.45243210125
                ],
                [
                    27.44316066742,
                    48.41507459425
                ],
                [
                    27.38582576752,
                    48.41530246716
                ],
                [
                    27.37724269867,
                    48.44423402578
                ],
                [
                    27.35115016937,
                    48.45197668733
                ],
                [
                    27.31681789398,
                    48.44696686465
                ],
                [
                    27.29381526947,
                    48.41256792484
                ],
                [
                    27.2831722641,
                    48.3770054906
                ],
                [
                    27.26806606293,
                    48.38361833688
                ],
                [
                    27.23716701508,
                    48.37768961799
                ],
                [
                    27.21656764984,
                    48.39251012054
                ],
                [
                    27.20077480316,
                    48.39251012054
                ],
                [
                    27.19322170258,
                    48.39866506069
                ],
                [
                    27.14103664398,
                    48.3781456978
                ],
                [
                    27.12627376556,
                    48.38270627123
                ],
                [
                    27.09297145844,
                    48.41370733535
                ],
                [
                    27.09056819916,
                    48.43489571675
                ],
                [
                    27.07511867523,
                    48.43785682987
                ],
                [
                    27.06001247406,
                    48.4305676256
                ],
                [
                    26.99512447357,
                    48.42487220713
                ],
                [
                    27.02568019867,
                    48.4141630924
                ],
                [
                    27.0418163681,
                    48.383390322
                ],
                [
                    27.00199092865,
                    48.38498640472
                ],
                [
                    26.98825801849,
                    48.36332101232
                ],
                [
                    26.94293941498,
                    48.37267247035
                ],
                [
                    26.90517391205,
                    48.383390322
                ],
                [
                    26.90036739349,
                    48.40527509296
                ],
                [
                    26.87393154144,
                    48.42304953841
                ],
                [
                    26.85092891693,
                    48.41735327739
                ],
                [
                    26.77539791107,
                    48.42213817954
                ],
                [
                    26.75205196381,
                    48.40436341544
                ],
                [
                    26.72767604828,
                    48.41644181639
                ],
                [
                    26.70433010101,
                    48.40664257861
                ],
                [
                    26.72904933929,
                    48.38247825226
                ],
                [
                    26.76063503265,
                    48.35259893569
                ],
                [
                    26.79325069427,
                    48.34118999387
                ],
                [
                    26.81728328705,
                    48.34506932065
                ],
                [
                    26.81968654633,
                    48.30306561614
                ],
                [
                    26.7953106308,
                    48.29530027548
                ],
                [
                    26.77196468353,
                    48.30466421611
                ],
                [
                    26.76132167816,
                    48.3309197625
                ],
                [
                    26.74175228119,
                    48.31699459024
                ],
                [
                    26.70089687347,
                    48.36446152597
                ],
                [
                    26.67789424896,
                    48.35716179731
                ],
                [
                    26.67480434418,
                    48.32977849797
                ],
                [
                    26.64459194183,
                    48.30991640639
                ],
                [
                    26.60785640717,
                    48.27473926015
                ],
                [
                    26.62467922211,
                    48.25782733557
                ],
                [
                    26.65935482025,
                    48.24113846713
                ],
                [
                    26.69609035492,
                    48.25074094718
                ],
                [
                    26.71325649261,
                    48.24456813125
                ],
                [
                    26.76956142426,
                    48.2367938958
                ],
                [
                    26.79908718109,
                    48.24754032081
                ],
                [
                    26.81453670502,
                    48.2239866971
                ],
                [
                    26.84028591156,
                    48.22558777223
                ],
                [
                    26.89487422943,
                    48.17799160114
                ],
                [
                    26.92439998627,
                    48.17570220945
                ],
                [
                    26.93916286469,
                    48.1406617685
                ],
                [
                    26.97967494965,
                    48.12187207334
                ],
                [
                    27.02705348969,
                    48.11705897241
                ],
                [
                    27.01778377533,
                    48.08885889686
                ],
                [
                    27.05039943695,
                    48.06064334978
                ],
                [
                    27.08095516205,
                    48.00898950234
                ],
                [
                    27.10670436859,
                    47.99773357554
                ],
                [
                    27.1341701889,
                    47.99084097955
                ],
                [
                    27.14721645355,
                    47.92324481116
                ],
                [
                    27.18601192474,
                    47.87859210092
                ],
                [
                    27.19905818939,
                    47.84012309372
                ],
                [
                    27.22755397797,
                    47.83620548621
                ],
                [
                    27.24437679291,
                    47.76309943705
                ],
                [
                    27.27355922699,
                    47.74855822012
                ],
                [
                    27.24575008392,
                    47.71900164418
                ],
                [
                    27.30136837006,
                    47.65058780247
                ],
                [
                    27.34600032806,
                    47.60870945024
                ],
                [
                    27.39440883636,
                    47.58463157001
                ],
                [
                    27.44316066742,
                    47.52253365694
                ],
                [
                    27.45861019135,
                    47.4868172344
                ],
                [
                    27.49328578949,
                    47.47730422041
                ],
                [
                    27.55233730316,
                    47.46337963147
                ],
                [
                    27.54409755707,
                    47.43366151095
                ],
                [
                    27.56332363129,
                    47.41693768895
                ],
                [
                    27.56092037201,
                    47.37161732144
                ],
                [
                    27.58975948334,
                    47.35766475126
                ],
                [
                    27.5729366684,
                    47.32998123543
                ],
                [
                    27.5907894516,
                    47.31718142757
                ],
                [
                    27.67559017181,
                    47.28179128354
                ],
                [
                    27.72571529388,
                    47.28598345818
                ],
                [
                    27.73876155853,
                    47.24311445772
                ],
                [
                    27.75043453217,
                    47.23145927403
                ],
                [
                    27.77893032074,
                    47.19881112034
                ],
                [
                    27.77137722015,
                    47.14232904905
                ],
                [
                    27.81978572845,
                    47.12013991609
                ],
                [
                    27.87918056488,
                    47.07760435096
                ],
                [
                    27.97153438568,
                    47.03526879505
                ],
                [
                    28.02474941254,
                    47.00975768626
                ],
                [
                    28.07247127533,
                    46.98423438655
                ],
                [
                    28.07521785736,
                    46.90899861732
                ],
                [
                    28.08895076752,
                    46.87122372152
                ],
                [
                    28.10646022797,
                    46.82919431137
                ],
                [
                    28.1181332016,
                    46.81110450379
                ],
                [
                    28.15280879974,
                    46.77890369376
                ],
                [
                    28.17203487396,
                    46.73162529552
                ],
                [
                    28.20053066254,
                    46.6873671606
                ],
                [
                    28.22215999603,
                    46.67064321119
                ],
                [
                    28.23863948822,
                    46.61878965212
                ],
                [
                    28.22318996429,
                    46.58600200755
                ],
                [
                    28.2149502182,
                    46.55059739621
                ],
                [
                    28.20327724457,
                    46.50689988123
                ],
                [
                    28.21426357269,
                    46.48042808538
                ],
                [
                    28.23932613373,
                    46.4709707498
                ],
                [
                    28.23314632416,
                    46.45063191258
                ],
                [
                    28.25134243011,
                    46.43927669966
                ],
                [
                    28.22662319183,
                    46.41703255135
                ],
                [
                    28.17958797455,
                    46.35474803321
                ],
                [
                    28.17890132904,
                    46.3327064615
                ],
                [
                    28.19469417572,
                    46.31136744676
                ],
                [
                    28.14456905365,
                    46.2957135462
                ],
                [
                    28.12225307465,
                    46.26795244913
                ],
                [
                    28.12362636566,
                    46.25109911321
                ],
                [
                    28.10371364594,
                    46.24682561337
                ],
                [
                    28.1002804184,
                    46.21024983777
                ],
                [
                    28.11332668304,
                    46.18886310048
                ],
                [
                    28.12431301117,
                    46.18743702201
                ],
                [
                    28.12431301117,
                    46.15843206851
                ],
                [
                    28.10611690521,
                    46.11132589531
                ],
                [
                    28.08208431244,
                    46.07156360515
                ],
                [
                    28.08071102142,
                    46.01079342459
                ],
                [
                    28.09684719086,
                    45.96904972151
                ],
                [
                    28.10337032318,
                    45.94542076932
                ],
                [
                    28.11572994232,
                    45.9258416848
                ],
                [
                    28.10302700043,
                    45.88594583235
                ],
                [
                    28.12156642914,
                    45.87638568317
                ],
                [
                    28.10234035492,
                    45.86132511243
                ],
                [
                    28.10508693695,
                    45.79362173434
                ],
                [
                    28.12740291595,
                    45.7771020638
                ],
                [
                    28.1442257309,
                    45.77662315976
                ],
                [
                    28.14010585785,
                    45.76009845189
                ],
                [
                    28.1449123764,
                    45.75051666951
                ],
                [
                    28.15418209076,
                    45.70905651533
                ],
                [
                    28.16276515961,
                    45.6740430751
                ],
                [
                    28.14731563568,
                    45.63372651376
                ],
                [
                    28.13495601654,
                    45.62820472576
                ],
                [
                    28.11435665131,
                    45.63084564876
                ],
                [
                    28.08448757172,
                    45.61307704232
                ],
                [
                    28.08448757172,
                    45.60058762558
                ],
                [
                    28.11538661957,
                    45.56935191785
                ],
                [
                    28.13735927582,
                    45.567669502
                ],
                [
                    28.15658535004,
                    45.54531262365
                ],
                [
                    28.14903224945,
                    45.50971559449
                ],
                [
                    28.15864528656,
                    45.49985027062
                ],
                [
                    28.18027462006,
                    45.47337378715
                ],
                [
                    28.20430721283,
                    45.46566920073
                ],
                [
                    28.21426357269,
                    45.46566920073
                ],
                [
                    28.25820888519,
                    45.51500847019
                ],
                [
                    28.30558742523,
                    45.54507217878
                ],
                [
                    28.40480770111,
                    45.51524904363
                ],
                [
                    28.51638759613,
                    45.50755018369
                ],
                [
                    28.49510158539,
                    45.56983259883
                ],
                [
                    28.51570095062,
                    45.57415854259
                ],
                [
                    28.51604427338,
                    45.65340846132
                ],
                [
                    28.50746120453,
                    45.65628816633
                ],
                [
                    28.50505794525,
                    45.66588611358
                ],
                [
                    28.48857845306,
                    45.66324684211
                ],
                [
                    28.48377193451,
                    45.67476274992
                ],
                [
                    28.48686183929,
                    45.68195898916
                ],
                [
                    28.4920116806,
                    45.68627628847
                ],
                [
                    28.50746120453,
                    45.69898640165
                ],
                [
                    28.50643123627,
                    45.75171448228
                ],
                [
                    28.58608211517,
                    45.75219360019
                ],
                [
                    28.59294857025,
                    45.75434957989
                ],
                [
                    28.5836788559,
                    45.76872064938
                ],
                [
                    28.58848537445,
                    45.77135494393
                ],
                [
                    28.62487758636,
                    45.76488872613
                ],
                [
                    28.71242488861,
                    45.77901763881
                ],
                [
                    28.70040859222,
                    45.81659748031
                ],
                [
                    28.78864253998,
                    45.83167016387
                ],
                [
                    28.75843013763,
                    45.92536405979
                ],
                [
                    28.76323665619,
                    45.92655811459
                ],
                [
                    28.76666988373,
                    45.9334831256
                ],
                [
                    28.7594601059,
                    45.95568508733
                ],
                [
                    28.78314937592,
                    45.95950388321
                ],
                [
                    28.77971614838,
                    45.96904972151
                ],
                [
                    28.79035915375,
                    45.97095869179
                ],
                [
                    28.79138912201,
                    45.97740098074
                ],
                [
                    28.84117092133,
                    45.9797868235
                ],
                [
                    28.96957363129,
                    46.0000623364
                ],
                [
                    28.97232021332,
                    46.08013754053
                ],
                [
                    28.95446743011,
                    46.09418638731
                ],
                [
                    29.07119716644,
                    46.19646822746
                ],
                [
                    28.99661055565,
                    46.23614022898
                ],
                [
                    28.96828642845,
                    46.23548717667
                ],
                [
                    28.96759978294,
                    46.25181115276
                ],
                [
                    28.95343771935,
                    46.25994164822
                ],
                [
                    28.95386687279,
                    46.26492617338
                ],
                [
                    28.96768561363,
                    46.28628329118
                ],
                [
                    28.96768561363,
                    46.31533932701
                ],
                [
                    28.96820059776,
                    46.34941603207
                ],
                [
                    28.95687094688,
                    46.35036394981
                ],
                [
                    28.95764342308,
                    46.39874514792
                ],
                [
                    28.94296637535,
                    46.43152759665
                ],
                [
                    28.93953314781,
                    46.45175529942
                ],
                [
                    28.93301001549,
                    46.45719538793
                ],
                [
                    28.98596755028,
                    46.45814143481
                ],
                [
                    29.02690878868,
                    46.46139334559
                ],
                [
                    29.02536383629,
                    46.48078252618
                ],
                [
                    28.98931494713,
                    46.48036880483
                ],
                [
                    28.97944441795,
                    46.48113714199
                ],
                [
                    28.98399344444,
                    46.48811078304
                ],
                [
                    29.04012671471,
                    46.48976541409
                ],
                [
                    29.04150000572,
                    46.50483205895
                ],
                [
                    29.07325675964,
                    46.50784530049
                ],
                [
                    29.16732719421,
                    46.51068075077
                ],
                [
                    29.16732719421,
                    46.54138864807
                ],
                [
                    29.23187187195,
                    46.55272256068
                ],
                [
                    29.2366783905,
                    46.49744738395
                ],
                [
                    29.24217155457,
                    46.48184678037
                ],
                [
                    29.21401908875,
                    46.465295796
                ],
                [
                    29.22500541687,
                    46.45063214912
                ],
                [
                    29.25247123718,
                    46.4501590625
                ],
                [
                    29.25247123718,
                    46.38151800609
                ],
                [
                    29.29847648621,
                    46.40140913189
                ],
                [
                    29.33143547058,
                    46.41513924988
                ],
                [
                    29.31976249695,
                    46.4406964673
                ],
                [
                    29.33692863464,
                    46.46245797898
                ],
                [
                    29.34516838074,
                    46.49839273127
                ],
                [
                    29.38911369324,
                    46.42365965379
                ],
                [
                    29.40627983093,
                    46.42460628315
                ],
                [
                    29.3946068573,
                    46.44826667496
                ],
                [
                    29.44816520691,
                    46.49413853892
                ],
                [
                    29.49623039246,
                    46.461039015
                ],
                [
                    29.47700431824,
                    46.44637422167
                ],
                [
                    29.58068778992,
                    46.44826667496
                ],
                [
                    29.58000114441,
                    46.35972416935
                ],
                [
                    29.60472038269,
                    46.34929795592
                ],
                [
                    29.68299797058,
                    46.35925029372
                ],
                [
                    29.66995170593,
                    46.43265196902
                ],
                [
                    29.68643119812,
                    46.42271300799
                ],
                [
                    29.74548271179,
                    46.43407167266
                ],
                [
                    29.74548271179,
                    46.4700251623
                ],
                [
                    29.80178764343,
                    46.38530735086
                ],
                [
                    29.87594535828,
                    46.34218803354
                ],
                [
                    29.90615776062,
                    46.33981785392
                ],
                [
                    29.91027763367,
                    46.36825322808
                ],
                [
                    29.9398033905,
                    46.38483369715
                ],
                [
                    30.01945426941,
                    46.36920081908
                ],
                [
                    30.0627129364,
                    46.38436003933
                ],
                [
                    30.07919242859,
                    46.36635799677
                ],
                [
                    30.10597160339,
                    46.3620934859
                ],
                [
                    30.1245110321,
                    46.38341271135
                ],
                [
                    30.18218925476,
                    46.4070909792
                ],
                [
                    30.17051628113,
                    46.43880375102
                ],
                [
                    30.10047843933,
                    46.45157831002
                ],
                [
                    30.04348686218,
                    46.45630886796
                ],
                [
                    30.0366204071,
                    46.47853698617
                ],
                [
                    30.01121452332,
                    46.48326520196
                ],
                [
                    30.02082756042,
                    46.50170131744
                ],
                [
                    29.94186332703,
                    46.50311922132
                ],
                [
                    29.90203788757,
                    46.54422234808
                ],
                [
                    29.94117668152,
                    46.55413913336
                ],
                [
                    29.95834281921,
                    46.5810469891
                ],
                [
                    29.97825553894,
                    46.59850634776
                ],
                [
                    29.9569695282,
                    46.64472288021
                ],
                [
                    29.9748223114,
                    46.68336354154
                ],
                [
                    29.97550895691,
                    46.77185008496
                ],
                [
                    29.94392326355,
                    46.80476011823
                ],
                [
                    29.95628288269,
                    46.80992986549
                ],
                [
                    29.95971611023,
                    46.84563454437
                ],
                [
                    29.92744377136,
                    46.83952884652
                ],
                [
                    29.90615776062,
                    46.8268455645
                ],
                [
                    29.89379814148,
                    46.84516489994
                ],
                [
                    29.90066459656,
                    46.85220913527
                ],
                [
                    29.8869316864,
                    46.88694717592
                ],
                [
                    29.84367301941,
                    46.88413141558
                ],
                [
                    29.84161308289,
                    46.87709136811
                ],
                [
                    29.75303581238,
                    46.86441695476
                ],
                [
                    29.73518302917,
                    46.91650373627
                ],
                [
                    29.71870353699,
                    46.93526134944
                ],
                [
                    29.65141227722,
                    46.92353861092
                ],
                [
                    29.64385917664,
                    46.95869912952
                ],
                [
                    29.57382133484,
                    46.94510646703
                ],
                [
                    29.56352165222,
                    46.95588713776
                ],
                [
                    29.60128715515,
                    46.9615109735
                ],
                [
                    29.60746696472,
                    47.03784286741
                ],
                [
                    29.63424613953,
                    47.04439389579
                ],
                [
                    29.61639335632,
                    47.10144738356
                ],
                [
                    29.54292228699,
                    47.10004516144
                ],
                [
                    29.53811576843,
                    47.07947499394
                ],
                [
                    29.51614311218,
                    47.11686938956
                ],
                [
                    29.50309684753,
                    47.11406572084
                ],
                [
                    29.49897697449,
                    47.12481231543
                ],
                [
                    29.5092766571,
                    47.12668106683
                ],
                [
                    29.58549430847,
                    47.13368829989
                ],
                [
                    29.55871513367,
                    47.24894132124
                ],
                [
                    29.60403373718,
                    47.25593243178
                ],
                [
                    29.57656791687,
                    47.37417512484
                ],
                [
                    29.51270988464,
                    47.36859481026
                ],
                [
                    29.48524406433,
                    47.35789755691
                ],
                [
                    29.47631767273,
                    47.33789252543
                ],
                [
                    29.47975090027,
                    47.3081035537
                ],
                [
                    29.43374565125,
                    47.29925671905
                ],
                [
                    29.42481925964,
                    47.30903471332
                ],
                [
                    29.40147331238,
                    47.30391313236
                ],
                [
                    29.38980033875,
                    47.34347608763
                ],
                [
                    29.4035332489,
                    47.3537110847
                ],
                [
                    29.3946068573,
                    47.38393925458
                ],
                [
                    29.34104850769,
                    47.37324511341
                ],
                [
                    29.31976249695,
                    47.45130890228
                ],
                [
                    29.26620414734,
                    47.43877074013
                ],
                [
                    29.24766471863,
                    47.41926099204
                ],
                [
                    29.24697807312,
                    47.46802180312
                ],
                [
                    29.192733078,
                    47.42994579749
                ],
                [
                    29.19547966003,
                    47.4740557117
                ],
                [
                    29.19753959656,
                    47.51070841425
                ],
                [
                    29.18929985046,
                    47.52230204235
                ],
                [
                    29.15359428406,
                    47.50978081334
                ],
                [
                    29.12406852722,
                    47.55336033428
                ],
                [
                    29.16938713074,
                    47.56726106928
                ],
                [
                    29.1748802948,
                    47.60153378038
                ],
                [
                    29.22088554382,
                    47.60847821639
                ],
                [
                    29.24423149109,
                    47.64318656806
                ],
                [
                    29.22500541687,
                    47.64549963875
                ],
                [
                    29.22569206238,
                    47.67879650042
                ],
                [
                    29.23805168152,
                    47.68249484079
                ],
                [
                    29.21195915222,
                    47.71900187515
                ],
                [
                    29.22019889832,
                    47.73655311533
                ],
                [
                    29.25315788269,
                    47.74763506191
                ],
                [
                    29.28268363953,
                    47.80623776114
                ],
                [
                    29.25041130066,
                    47.81453831159
                ],
                [
                    29.21951225281,
                    47.80393181724
                ],
                [
                    29.20509269714,
                    47.82007127485
                ],
                [
                    29.22637870789,
                    47.8481880552
                ],
                [
                    29.27444389343,
                    47.87030202448
                ],
                [
                    29.28405693054,
                    47.89240656158
                ],
                [
                    29.23393180847,
                    47.89102530433
                ],
                [
                    29.22157218933,
                    47.89701048634
                ],
                [
                    29.20371940613,
                    47.88964401024
                ],
                [
                    29.19341972351,
                    47.94072735646
                ],
                [
                    29.18174674988,
                    47.99727432752
                ],
                [
                    29.13711479187,
                    47.99819327894
                ],
                [
                    29.10346916199,
                    47.99267932493
                ],
                [
                    29.07051017761,
                    47.97291615083
                ],
                [
                    29.08012321472,
                    47.94946629779
                ],
                [
                    29.03274467468,
                    47.95084599558
                ],
                [
                    28.96682670593,
                    47.98210926603
                ],
                [
                    28.92631462097,
                    47.96326161813
                ],
                [
                    28.88580253601,
                    47.99635535974
                ],
                [
                    28.89678886414,
                    48.01427227921
                ],
                [
                    28.84391716003,
                    48.03539705678
                ],
                [
                    28.85353019714,
                    48.05834895223
                ],
                [
                    28.85765007019,
                    48.09413348702
                ],
                [
                    28.62075737,
                    48.09184035313
                ],
                [
                    28.49441459656,
                    48.10055371787
                ]
            ]
        ]
    }
}
