{
    "type": "Feature",
    "properties": {
        "id": "ACT202409",
        "attribution": {
            "url": "https://www.actmapi.act.gov.au/home",
            "text": "Aerial Imagery from ACTMapi ©ACT Government and MetroMap",
            "required": true
        },
        "license_url": "https://osmlab.github.io/editor-layer-index/sources/oceania/au/act/ACTmapi-Imagery.PDF",
        "privacy_policy_url": "https://osmfoundation.org/wiki/Privacy_Policy",
        "name": "ACTmapi Imagery Sep 2024",
        "url": "https://act-imagery.openstreetmap.org/layer/act_aerial_imagery_202409/{zoom}/{x}/{y}.jpeg",
        "best": true,
        "start_date": "2024-09",
        "end_date": "2024-09",
        "max_zoom": 21,
        "country_code": "AU",
        "type": "tms",
        "icon": "https://www.actmapi.act.gov.au/__data/assets/file/0009/1174446/favicon.ico",
        "category": "photo",
        "min_zoom": 10
    },
    "geometry": {
        "type": "Polygon",
        "coordinates": [
            [
                [
                    149.06367155088,
                    -35.11716070969
                ],
                [
                    149.17233690988,
                    -35.11549328197
                ],
                [
                    149.17274322757,
                    -35.13320899395
                ],
                [
                    149.19524635745,
                    -35.13286376299
                ],
                [
                    149.19566160073,
                    -35.15096473172
                ],
                [
                    149.21743907880,
                    -35.15063070622
                ],
                [
                    149.21826299253,
                    -35.18653435359
                ],
                [
                    149.24064912173,
                    -35.18619114267
                ],
                [
                    149.24107074276,
                    -35.20455804618
                ],
                [
                    149.26293080226,
                    -35.20422297502
                ],
                [
                    149.26374660793,
                    -35.23974993543
                ],
                [
                    149.28503342603,
                    -35.23942379239
                ],
                [
                    149.28543133838,
                    -35.25674662982
                ],
                [
                    149.32922908641,
                    -35.25607572791
                ],
                [
                    149.32964100379,
                    -35.27400451365
                ],
                [
                    149.37480029300,
                    -35.27331290264
                ],
                [
                    149.37521536906,
                    -35.29137531149
                ],
                [
                    149.42003554204,
                    -35.29068904128
                ],
                [
                    149.42129601780,
                    -35.34551554441
                ],
                [
                    149.37679143713,
                    -35.34619652056
                ],
                [
                    149.37718963283,
                    -35.36350883546
                ],
                [
                    149.26764976250,
                    -35.36518454974
                ],
                [
                    149.26933877820,
                    -35.43857492118
                ],
                [
                    149.15949990615,
                    -35.44025364563
                ],
                [
                    149.16117941562,
                    -35.51316315712
                ],
                [
                    149.05205715722,
                    -35.51482938272
                ],
                [
                    149.05080034181,
                    -35.46027688215
                ],
                [
                    149.02712472897,
                    -35.46063863421
                ],
                [
                    149.02629258642,
                    -35.42449899510
                ],
                [
                    149.00463809153,
                    -35.42483001260
                ],
                [
                    149.00088910709,
                    -35.26181262735
                ],
                [
                    148.95602415443,
                    -35.26249982818
                ],
                [
                    148.95440043514,
                    -35.19179409627
                ],
                [
                    148.97602909331,
                    -35.19146251993
                ],
                [
                    148.97559581071,
                    -35.17258450682
                ],
                [
                    148.99867205819,
                    -35.17223065467
                ],
                [
                    148.99825861489,
                    -35.15421286847
                ],
                [
                    149.04211467754,
                    -35.15354022452
                ],
                [
                    149.04168525968,
                    -35.13482188985
                ],
                [
                    149.06406874925,
                    -35.13447850115
                ],
                [
                    149.06367155088,
                    -35.11716070969
                ]
            ]
        ]
    }
}
